{"type": "FeatureCollection", "features": [{"type": "Feature", "id": 1, "geometry": {"type": "Point", "coordinates": [12.959030657424195, 63.11295211185999]}, "properties": {"OBJECTID": 1, "ANORDID": "371195", "NAMN": "Blanktjärn Rastplats med eldstad", "UNDERTYP": "ELD", "STATDAT": 1349042400000, "OID_1": "22832"}}, {"type": "Feature", "id": 2, "geometry": {"type": "Point", "coordinates": [12.957504945782272, 63.13932621624418]}, "properties": {"OBJECTID": 2, "ANORDID": "540086", "NAMN": "Nipan", "UNDERTYP": "VIND", "STATDAT": 1635458400000, "OID_1": "34226"}}, {"type": "Feature", "id": 3, "geometry": {"type": "Point", "coordinates": [13.068917998751246, 63.119630415014946]}, "properties": {"OBJECTID": 3, "ANORDID": "474150", "NAMN": "Vargtjärn", "UNDERTYP": "ELD", "STATDAT": 1527026400000, "OID_1": "49106"}}, {"type": "Feature", "id": 4, "geometry": {"type": "Point", "coordinates": [13.057925970105295, 63.10643085178056]}, "properties": {"OBJECTID": 4, "ANORDID": "607361", "NAMN": "Bro över Grönan", "UNDERTYP": "BRO", "STATDAT": 1727906400000, "OID_1": "197955"}}, {"type": "Feature", "id": 5, "geometry": {"type": "Point", "coordinates": [12.940088702606637, 63.11832530772567]}, "properties": {"OBJECTID": 5, "ANORDID": "499902", "NAMN": "2 st bordbänk Blanktjärnsrundan", "UNDERTYP": "RSTPL", "STATDAT": 1554069600000, "OID_1": "50211"}}, {"type": "Feature", "id": 6, "geometry": {"type": "Point", "coordinates": [12.960902983019233, 63.11309922831517]}, "properties": {"OBJECTID": 6, "ANORDID": "455679", "NAMN": "Blanktjärn TC och förråd", "UNDERTYP": "DASS", "STATDAT": 1510873200000, "OID_1": "50450"}}, {"type": "Feature", "id": 7, "geometry": {"type": "Point", "coordinates": [12.96212338851244, 63.11544731389327]}, "properties": {"OBJECTID": 7, "ANORDID": "499900", "NAMN": "3 bänkar Matskålstjärn", "UNDERTYP": "RSTPL", "STATDAT": 1554069600000, "OID_1": "53335"}}, {"type": "Feature", "id": 8, "geometry": {"type": "Point", "coordinates": [12.962076835641954, 63.11441411799597]}, "properties": {"OBJECTID": 8, "ANORDID": "499901", "NAMN": "2 bänkar Matskålstjärn", "UNDERTYP": "RSTPL", "STATDAT": 1554069600000, "OID_1": "53336"}}, {"type": "Feature", "id": 9, "geometry": {"type": "Point", "coordinates": [13.197361429438017, 63.116061954941635]}, "properties": {"OBJECTID": 9, "ANORDID": "414878", "NAMN": "Stalowiellekåtan", "UNDERTYP": "Kåta", "STATDAT": 1475532000000, "OID_1": "149495"}}, {"type": "Feature", "id": 10, "geometry": {"type": "Point", "coordinates": [12.476001359269382, 62.98716131338366]}, "properties": {"OBJECTID": 10, "ANORDID": "380776", "NAMN": "Hulke, R22", "UNDERTYP": "RASTSK", "STATDAT": 1401919200000, "OID_1": "207094"}}, {"type": "Feature", "id": 11, "geometry": {"type": "Point", "coordinates": [12.876461052597007, 63.1353412809075]}, "properties": {"OBJECTID": 11, "ANORDID": "602585", "NAMN": "Spångbro Stensdalsleden", "UNDERTYP": "BRO", "STATDAT": 1727042400000, "OID_1": "188494"}}, {"type": "Feature", "id": 12, "geometry": {"type": "Point", "coordinates": [13.089190960177028, 62.97649524937144]}, "properties": {"OBJECTID": 12, "ANORDID": "385852", "NAMN": "Lunndörrspasset", "UNDERTYP": "RASTSK", "STATDAT": 1399500000000, "OID_1": "24824"}}, {"type": "Feature", "id": 13, "geometry": {"type": "Point", "coordinates": [12.93156256638878, 63.19749922163393]}, "properties": {"OBJECTID": 13, "ANORDID": "385818", "NAMN": "Ottfjället, R 10", "UNDERTYP": "RASTSK", "STATDAT": 1443132000000, "OID_1": "21021"}}, {"type": "Feature", "id": 14, "geometry": {"type": "Point", "coordinates": [12.620351526546957, 63.04751191943367]}, "properties": {"OBJECTID": 14, "ANORDID": "381476", "NAMN": "Härjången, R17", "UNDERTYP": "RASTSK", "STATDAT": 1456959600000, "OID_1": "26673"}}, {"type": "Feature", "id": 15, "geometry": {"type": "Point", "coordinates": [12.465623881116779, 63.05871033324054]}, "properties": {"OBJECTID": 15, "ANORDID": "381477", "NAMN": "Gåsån, R15", "UNDERTYP": "RASTSK", "STATDAT": 1458255600000, "OID_1": "26674"}}, {"type": "Feature", "id": 16, "geometry": {"type": "Point", "coordinates": [13.08793419888446, 63.14997812862448]}, "properties": {"OBJECTID": 16, "ANORDID": "414978", "NAMN": "Vargtjärnsbäcken Balkbro vandringsled", "UNDERTYP": "BRO", "STATDAT": 1442872800000, "OID_1": "36772"}}, {"type": "Feature", "id": 17, "geometry": {"type": "Point", "coordinates": [12.620788804584429, 63.047692937954615]}, "properties": {"OBJECTID": 17, "ANORDID": "439784", "NAMN": "Härjångsdalen Dass med förråd", "UNDERTYP": "DASS", "STATDAT": 1455490800000, "OID_1": "39173"}}, {"type": "Feature", "id": 18, "geometry": {"type": "Point", "coordinates": [12.609198126313133, 63.093055644894854]}, "properties": {"OBJECTID": 18, "ANORDID": "439787", "NAMN": "Stäntja TC och förråd", "UNDERTYP": "DASS", "STATDAT": 1456441200000, "OID_1": "39174"}}, {"type": "Feature", "id": 19, "geometry": {"type": "Point", "coordinates": [13.119152248238242, 63.09421341014345]}, "properties": {"OBJECTID": 19, "ANORDID": "385750", "NAMN": "Issjödalen", "UNDERTYP": "RASTSK", "STATDAT": 1399413600000, "OID_1": "36795"}}, {"type": "Feature", "id": 20, "geometry": {"type": "Point", "coordinates": [12.42444538622162, 63.119157397518464]}, "properties": {"OBJECTID": 20, "ANORDID": "414784", "NAMN": "Tjallingen TC", "UNDERTYP": "DASS", "STATDAT": 1442354400000, "OID_1": "33877"}}, {"type": "Feature", "id": 21, "geometry": {"type": "Point", "coordinates": [13.06836866085845, 63.10730812330668]}, "properties": {"OBJECTID": 21, "ANORDID": "414877", "NAMN": "Grönvallens rastplats", "UNDERTYP": "VIND", "STATDAT": 1442527200000, "OID_1": "34713"}}, {"type": "Feature", "id": 22, "geometry": {"type": "Point", "coordinates": [12.465569136450458, 63.058899728436856]}, "properties": {"OBJECTID": 22, "ANORDID": "439795", "NAMN": "Gåsån förråd/dass", "UNDERTYP": "DASS", "STATDAT": 1456786800000, "OID_1": "40398"}}, {"type": "Feature", "id": 23, "geometry": {"type": "Point", "coordinates": [13.068605411632591, 63.10728332148402]}, "properties": {"OBJECTID": 23, "ANORDID": "474510", "NAMN": "TC Grönvallen", "UNDERTYP": "DASS", "STATDAT": 1668726000000, "OID_1": "46418"}}, {"type": "Feature", "id": 24, "geometry": {"type": "Point", "coordinates": [13.120638879520481, 63.09395259573342]}, "properties": {"OBJECTID": 24, "ANORDID": "546212", "NAMN": "Issjödalen Dass", "UNDERTYP": "DASS", "STATDAT": 1639695600000, "OID_1": "52702"}}, {"type": "Feature", "id": 25, "geometry": {"type": "Point", "coordinates": [13.203029878458198, 63.11742360684923]}, "properties": {"OBJECTID": 25, "ANORDID": "565173", "NAMN": "Stalowillie", "UNDERTYP": "BRO", "STATDAT": 1656453600000, "OID_1": "85200"}}, {"type": "Feature", "id": 26, "geometry": {"type": "Point", "coordinates": [12.656922420639447, 62.97572539722579]}, "properties": {"OBJECTID": 26, "ANORDID": "440818", "NAMN": "Ljungans rastskydd, R24", "UNDERTYP": "RASTSK", "STATDAT": 1708902000000, "OID_1": "114587"}}, {"type": "Feature", "id": 27, "geometry": {"type": "Point", "coordinates": [13.206589496880273, 63.11775298845567]}, "properties": {"OBJECTID": 27, "ANORDID": "565174", "NAMN": "Stalowillie 1", "UNDERTYP": "BRO", "STATDAT": 1656453600000, "OID_1": "85441"}}, {"type": "Feature", "id": 28, "geometry": {"type": "Point", "coordinates": [12.656819999959131, 62.976132470017546]}, "properties": {"OBJECTID": 28, "ANORDID": "440820", "NAMN": " ", "UNDERTYP": "DASS", "STATDAT": 1742511600000, "OID_1": "107844"}}, {"type": "Feature", "id": 29, "geometry": {"type": "Point", "coordinates": [13.207243863138602, 63.117752283736465]}, "properties": {"OBJECTID": 29, "ANORDID": "565175", "NAMN": "Stalowillie 2", "UNDERTYP": "BRO", "STATDAT": 1656453600000, "OID_1": "99233"}}, {"type": "Feature", "id": 30, "geometry": {"type": "Point", "coordinates": [13.207996739167784, 63.11776179844959]}, "properties": {"OBJECTID": 30, "ANORDID": "565177", "NAMN": "Stalowillie 3", "UNDERTYP": "BRO", "STATDAT": 1656540000000, "OID_1": "85443"}}, {"type": "Feature", "id": 31, "geometry": {"type": "Point", "coordinates": [13.236179721443827, 63.12025177147957]}, "properties": {"OBJECTID": 31, "ANORDID": "577015", "NAMN": "Stalowillie 5", "UNDERTYP": "BRO", "STATDAT": 1674514800000, "OID_1": "118734"}}, {"type": "Feature", "id": 32, "geometry": {"type": "Point", "coordinates": [12.657950240504325, 62.97592810236845]}, "properties": {"OBJECTID": 32, "ANORDID": "581630", "NAMN": "Balkbro 9 m Ljungans vsk", "UNDERTYP": "BRO", "STATDAT": 1684274400000, "OID_1": "117446"}}, {"type": "Feature", "id": 33, "geometry": {"type": "Point", "coordinates": [12.476346508700075, 62.98720222671298]}, "properties": {"OBJECTID": 33, "ANORDID": "421163", "NAMN": "Hulke dass med sophus", "UNDERTYP": "DASS", "STATDAT": 1452812400000, "OID_1": "107841"}}, {"type": "Feature", "id": 34, "geometry": {"type": "Point", "coordinates": [13.204539522590549, 63.11755647444241]}, "properties": {"OBJECTID": 34, "ANORDID": "565149", "NAMN": "Stalowillie 7", "UNDERTYP": "BRO", "STATDAT": 1656453600000, "OID_1": "85187"}}, {"type": "Feature", "id": 35, "geometry": {"type": "Point", "coordinates": [12.882701422714206, 63.13327372118812]}, "properties": {"OBJECTID": 35, "ANORDID": "601405", "NAMN": " ", "UNDERTYP": "BRO", "STATDAT": 1720044000000, "OID_1": "179521"}}, {"type": "Feature", "id": 36, "geometry": {"type": "Point", "coordinates": [12.537534791320878, 63.04613106370533]}, "properties": {"OBJECTID": 36, "ANORDID": "599826", "NAMN": "Fd. Gåsenstugorna", "UNDERTYP": "RASTSK", "STATDAT": 1712786400000, "OID_1": "170885"}}, {"type": "Feature", "id": 37, "geometry": {"type": "Point", "coordinates": [12.609597378063727, 63.092986180860926]}, "properties": {"OBJECTID": 37, "ANORDID": "381475", "NAMN": "Stäntja, R16", "UNDERTYP": "RASTSK", "STATDAT": 1456873200000, "OID_1": "164804"}}, {"type": "Feature", "id": 38, "geometry": {"type": "Point", "coordinates": [12.90727563275115, 63.138899844561664]}, "properties": {"OBJECTID": 38, "ANORDID": "601396", "NAMN": "Korsning sommar och vinter", "UNDERTYP": "BRO", "STATDAT": 1720044000000, "OID_1": "179212"}}, {"type": "Feature", "id": 39, "geometry": {"type": "Point", "coordinates": [12.862389617874674, 63.037244743648074]}, "properties": {"OBJECTID": 39, "ANORDID": null, "NAMN": null, "UNDERTYP": "BRO", "STATDAT": null, "OID_1": null}}, {"type": "Feature", "id": 40, "geometry": {"type": "Point", "coordinates": [12.899421595579806, 63.04144925131664]}, "properties": {"OBJECTID": 40, "ANORDID": null, "NAMN": null, "UNDERTYP": "BRO", "STATDAT": null, "OID_1": null}}, {"type": "Feature", "id": 41, "geometry": {"type": "Point", "coordinates": [13.016640040636336, 63.057597284907416]}, "properties": {"OBJECTID": 41, "ANORDID": null, "NAMN": null, "UNDERTYP": "BRO", "STATDAT": null, "OID_1": null}}, {"type": "Feature", "id": 42, "geometry": {"type": "Point", "coordinates": [13.062108304777045, 63.059706759163454]}, "properties": {"OBJECTID": 42, "ANORDID": null, "NAMN": null, "UNDERTYP": "BRO", "STATDAT": null, "OID_1": null}}, {"type": "Feature", "id": 43, "geometry": {"type": "Point", "coordinates": [13.060583681357222, 63.04304478430184]}, "properties": {"OBJECTID": 43, "ANORDID": null, "NAMN": null, "UNDERTYP": "BRO", "STATDAT": null, "OID_1": null}}, {"type": "Feature", "id": 44, "geometry": {"type": "Point", "coordinates": [12.752015957967513, 63.02276744898526]}, "properties": {"OBJECTID": 44, "ANORDID": null, "NAMN": null, "UNDERTYP": "BRO", "STATDAT": null, "OID_1": null}}, {"type": "Feature", "id": 45, "geometry": {"type": "Point", "coordinates": [12.686841924171457, 62.98396691307298]}, "properties": {"OBJECTID": 45, "ANORDID": null, "NAMN": null, "UNDERTYP": "BRO", "STATDAT": null, "OID_1": null}}, {"type": "Feature", "id": 46, "geometry": {"type": "Point", "coordinates": [12.739752108566229, 63.12704138455356]}, "properties": {"OBJECTID": 46, "ANORDID": null, "NAMN": null, "UNDERTYP": "BRO", "STATDAT": null, "OID_1": null}}, {"type": "Feature", "id": 47, "geometry": {"type": "Point", "coordinates": [12.779881057237247, 63.13345737582762]}, "properties": {"OBJECTID": 47, "ANORDID": null, "NAMN": null, "UNDERTYP": "BRO", "STATDAT": null, "OID_1": null}}, {"type": "Feature", "id": 48, "geometry": {"type": "Point", "coordinates": [12.872424483533214, 63.12996423126933]}, "properties": {"OBJECTID": 48, "ANORDID": null, "NAMN": null, "UNDERTYP": "BRO", "STATDAT": null, "OID_1": null}}, {"type": "Feature", "id": 49, "geometry": {"type": "Point", "coordinates": [12.894329197701174, 63.16162096634738]}, "properties": {"OBJECTID": 49, "ANORDID": null, "NAMN": null, "UNDERTYP": "BRO", "STATDAT": null, "OID_1": null}}, {"type": "Feature", "id": 50, "geometry": {"type": "Point", "coordinates": [13.006485298784485, 63.14360187461178]}, "properties": {"OBJECTID": 50, "ANORDID": null, "NAMN": null, "UNDERTYP": "BRO", "STATDAT": null, "OID_1": null}}, {"type": "Feature", "id": 51, "geometry": {"type": "Point", "coordinates": [13.14079170228993, 63.13329080408459]}, "properties": {"OBJECTID": 51, "ANORDID": null, "NAMN": null, "UNDERTYP": "BRO", "STATDAT": null, "OID_1": null}}, {"type": "Feature", "id": 52, "geometry": {"type": "Point", "coordinates": [13.155024339023592, 63.12761482139193]}, "properties": {"OBJECTID": 52, "ANORDID": null, "NAMN": null, "UNDERTYP": "BRO", "STATDAT": null, "OID_1": null}}, {"type": "Feature", "id": 53, "geometry": {"type": "Point", "coordinates": [13.10038051022614, 63.100658412973004]}, "properties": {"OBJECTID": 53, "ANORDID": null, "NAMN": null, "UNDERTYP": "BRO", "STATDAT": null, "OID_1": null}}, {"type": "Feature", "id": 54, "geometry": {"type": "Point", "coordinates": [13.104963395817396, 63.10028114167695]}, "properties": {"OBJECTID": 54, "ANORDID": null, "NAMN": null, "UNDERTYP": "BRO", "STATDAT": null, "OID_1": null}}, {"type": "Feature", "id": 55, "geometry": {"type": "Point", "coordinates": [13.042688362547661, 63.10801413737189]}, "properties": {"OBJECTID": 55, "ANORDID": null, "NAMN": null, "UNDERTYP": "BRO", "STATDAT": null, "OID_1": null}}, {"type": "Feature", "id": 56, "geometry": {"type": "Point", "coordinates": [12.945360315909378, 63.138554742913335]}, "properties": {"OBJECTID": 56, "ANORDID": null, "NAMN": null, "UNDERTYP": "BRO", "STATDAT": null, "OID_1": null}}, {"type": "Feature", "id": 57, "geometry": {"type": "Point", "coordinates": [12.965703439126779, 63.142087201896736]}, "properties": {"OBJECTID": 57, "ANORDID": null, "NAMN": null, "UNDERTYP": "BRO", "STATDAT": null, "OID_1": null}}, {"type": "Feature", "id": 58, "geometry": {"type": "Point", "coordinates": [12.969173621821186, 63.14212363575629]}, "properties": {"OBJECTID": 58, "ANORDID": null, "NAMN": null, "UNDERTYP": "BRO", "STATDAT": null, "OID_1": null}}, {"type": "Feature", "id": 59, "geometry": {"type": "Point", "coordinates": [12.965746799626066, 63.16182526273298]}, "properties": {"OBJECTID": 59, "ANORDID": null, "NAMN": null, "UNDERTYP": "RSTPL", "STATDAT": null, "OID_1": null}}, {"type": "Feature", "id": 60, "geometry": {"type": "Point", "coordinates": [12.963028070086722, 63.165039566484516]}, "properties": {"OBJECTID": 60, "ANORDID": null, "NAMN": null, "UNDERTYP": "RSTPL", "STATDAT": null, "OID_1": null}}, {"type": "Feature", "id": 61, "geometry": {"type": "Point", "coordinates": [12.959642224770878, 63.166902445674054]}, "properties": {"OBJECTID": 61, "ANORDID": null, "NAMN": null, "UNDERTYP": "BRO", "STATDAT": null, "OID_1": null}}, {"type": "Feature", "id": 62, "geometry": {"type": "Point", "coordinates": [12.912868622356823, 63.23798253067846]}, "properties": {"OBJECTID": 62, "ANORDID": null, "NAMN": null, "UNDERTYP": "BRO", "STATDAT": null, "OID_1": null}}, {"type": "Feature", "id": 63, "geometry": {"type": "Point", "coordinates": [12.95962239060768, 63.11293958227497]}, "properties": {"OBJECTID": 63, "ANORDID": null, "NAMN": "Rastplats blanktjäns", "UNDERTYP": "RSTPL", "STATDAT": 1750230388000, "OID_1": null}}, {"type": "Feature", "id": 64, "geometry": {"type": "Point", "coordinates": [12.957759549050785, 63.13941326413059]}, "properties": {"OBJECTID": 64, "ANORDID": null, "NAMN": "Grillplats Nipan", "UNDERTYP": "ELD", "STATDAT": 1750230440000, "OID_1": null}}, {"type": "Feature", "id": 65, "geometry": {"type": "Point", "coordinates": [12.963104341450832, 63.164906660222734]}, "properties": {"OBJECTID": 65, "ANORDID": null, "NAMN": "Grillplats", "UNDERTYP": "ELD", "STATDAT": 1750230475000, "OID_1": null}}]}