{"type": "FeatureCollection", "name": "barriers", "crs": {"type": "name", "properties": {"name": "urn:ogc:def:crs:OGC:1.3:CRS84"}}, "features": [{"type": "Feature", "id": "way/987126900", "properties": {"barrier": "fence", "@id": "way/987126900", "@type": "way", "osm_id": 987126900}, "geometry": {"type": "LineString", "coordinates": [[12.7251551, 62.9241833], [12.7231702, 62.9246277], [12.7204666, 62.9258778], [12.7190289, 62.9265614], [12.7176127, 62.9272374], [12.7163574, 62.9275352], [12.7154884, 62.9276378], [12.7143833, 62.9276231], [12.712288, 62.9274962], [12.7097131, 62.9271153], [12.7075029, 62.9269102], [12.7060234, 62.9268321], [12.7044784, 62.92692], [12.7030193, 62.9270518], [12.7014851, 62.9273448], [12.7005088, 62.9276085], [12.6988153, 62.9282785], [12.6972167, 62.9289181], [12.6948574, 62.9299898], [12.6937201, 62.9306831], [12.6922395, 62.9317474], [12.6905254, 62.9332435], [12.6894954, 62.9344835], [12.6880544, 62.9366342], [12.6875055, 62.9371245], [12.6859927, 62.9381105], [12.6847792, 62.9390236], [12.684275, 62.9395898], [12.6836205, 62.940483], [12.6826442, 62.9423411], [12.6819897, 62.9431366], [12.6811743, 62.9439516], [12.6797145, 62.9449315], [12.6786845, 62.9455122], [12.6764315, 62.9465076], [12.6738525, 62.9476914], [12.6726402, 62.9483453], [12.6711918, 62.9491504], [12.6700787, 62.9498663], [12.6680509, 62.9507787], [12.6669995, 62.9514422], [12.6630906, 62.9537576], [12.6625756, 62.9544894], [12.6622966, 62.9547852], [12.6620928, 62.9567267], [12.6617924, 62.9605326], [12.6625541, 62.9618056], [12.6637879, 62.9639636], [12.6638845, 62.9648073], [12.6638416, 62.9657984], [12.6634124, 62.9662714], [12.6631335, 62.9669054], [12.6629725, 62.9677998], [12.6641742, 62.9691992], [12.6654616, 62.9705986], [12.665762, 62.9708863], [12.6677232, 62.9720954], [12.6689462, 62.9728423], [12.6705663, 62.9728471], [12.6727013, 62.9751921], [12.672991, 62.9753286]]}}], "bbox": [12.48, 62.957, 13.181, 63.165]}