{"type": "FeatureCollection", "features": [{"type": "Feature", "properties": {"buffer_m": 2000.0, "routes": 2}, "geometry": {"type": "Polygon", "coordinates": [[[12.485820669393666, 63.03983964215962], [12.488621395683078, 63.0428960347649], [12.489749131155023, 63.044525200060555], [12.491985689284087, 63.04706192038665], [12.495045166152227, 63.04941507835493], [12.505276276436971, 63.05606639571356], [12.50924213024025, 63.05825330778559], [12.509546680898616, 63.058396518711476], [12.510803797452994, 63.06032646823387], [12.515061785797217, 63.06378960308817], [12.522559127174608, 63.06855729013405], [12.527190406413622, 63.07100290480156], [12.531692566710209, 63.07265816765941], [12.535878859027697, 63.07915960457597], [12.538699706792041, 63.08235899420004], [12.542817923490666, 63.08525493899838], [12.54497540855772, 63.08649240792455], [12.549636636944037, 63.08873832112928], [12.552889141741701, 63.090057206660944], [12.561890893632377, 63.09512883829849], [12.56306940475654, 63.09576214422783], [12.569309455660052, 63.09896193729978], [12.569797075242617, 63.099308205790024], [12.5764248265061, 63.10288446603375], [12.57696415213573, 63.10310838218449], [12.577229012214183, 63.10332026707192], [12.582526850608705, 63.10606350730427], [12.588939945727432, 63.10826505681275], [12.594056253745396, 63.10937021327844], [12.601532851689036, 63.11172671191647], [12.60674952077418, 63.11362958953312], [12.612297049952266, 63.11532422029444], [12.618395672970545, 63.11657180881232], [12.619390218197315, 63.116730981577916], [12.620811382335605, 63.117222580494456], [12.629995693903767, 63.120887863534996], [12.635182929452043, 63.122590918838426], [12.636980055880823, 63.1237488099223], [12.64180781756395, 63.12593586558116], [12.641846207058082, 63.12594809522904], [12.642086403099194, 63.1260808948901], [12.643774409656793, 63.126711171886136], [12.645309419467068, 63.12772265168342], [12.6495350353838, 63.130058282754824], [12.654566485861416, 63.13204015457809], [12.657122030908615, 63.13288680985639], [12.660081176544308, 63.13405872274906], [12.663824122018996, 63.13524232359081], [12.668704763297741, 63.13638825402644], [12.671413027717106, 63.137146072438995], [12.672713855622712, 63.13741857505052], [12.675730164378079, 63.13861073183178], [12.678476841789124, 63.13948817571211], [12.685968042540086, 63.141368478526175], [12.691512754045174, 63.142117118608574], [12.693577887005691, 63.14274923954715], [12.696423995783809, 63.143427613467], [12.705711507618933, 63.14500641111298], [12.709386580497426, 63.145402656866295], [12.714266928524237, 63.145700078720544], [12.718941612847384, 63.1461446788877], [12.726923613861997, 63.14652815678776], [12.730421868542589, 63.14637429886899], [12.73723665583651, 63.14750321609512], [12.751265425155134, 63.14916423658728], [12.7578216540189, 63.149679121871365], [12.758386138717544, 63.14968013720608], [12.76112211310412, 63.150715830484486], [12.76347741509324, 63.15125835382913], [12.763612131009532, 63.15131064288133], [12.76938865650723, 63.15287433612442], [12.770951309702767, 63.15321952967969], [12.775121079980527, 63.15390340159114], [12.77588339199175, 63.15409763821264], [12.782774864385102, 63.15548151426461], [12.786444530370641, 63.15586577118296], [12.786982604437108, 63.155993845704955], [12.79456173418804, 63.15736831164397], [12.802602978457813, 63.15801191778699], [12.810765386063938, 63.15789737118247], [12.818702838053115, 63.15702952655636], [12.822638857426007, 63.1563991687219], [12.828988719700035, 63.1550716309843], [12.830207598507743, 63.154893455990155], [12.834007575789723, 63.154891307342666], [12.842182553565703, 63.15409389344806], [12.842897473207625, 63.153948109897605], [12.84418832558208, 63.153918131515326], [12.849312837632528, 63.15331305477496], [12.853088064270956, 63.15297277265065], [12.855306436400728, 63.15256335586865], [12.856971585263915, 63.15242632677888], [12.858353016760645, 63.15225933868204], [12.860924169770005, 63.15264510825868], [12.864240048827838, 63.152994324835134], [12.873081838534707, 63.15346154115917], [12.880441254396862, 63.15309874453252], [12.884615607242457, 63.15493070233654], [12.885991842785709, 63.15542594182537], [12.893493934641933, 63.15755414328203], [12.90185374826553, 63.15887672929825], [12.904470547406772, 63.159010890934454], [12.906064178922092, 63.159261304528904], [12.907727764951838, 63.159787179186296], [12.914999706205931, 63.16121620313783], [12.917778165320083, 63.16161844447749], [12.926325695330078, 63.16240078561243], [12.932173177034219, 63.162346655046335], [12.93686824022601, 63.16291133187535], [12.938469178268129, 63.163043415365976], [12.94585474403418, 63.163334427430144], [12.948123922600452, 63.16323135603515], [12.949019153270147, 63.163448509580554], [12.95646356585336, 63.16447501486537], [12.964208216820682, 63.16482484291959], [12.971954949783179, 63.16448452377299], [12.979405526033888, 63.16346715739257], [12.986273167486768, 63.16181190694604], [12.992293647031465, 63.15958248365558], [12.993269983503186, 63.159045594999895], [12.99456522130679, 63.15859559049748], [12.996254324995695, 63.15787926913151], [13.001130467758134, 63.15536272308399], [13.002959075211166, 63.15492534782032], [13.009909404279735, 63.15281024525374], [13.015722064667663, 63.15008226346586], [13.016683834488584, 63.14952305123605], [13.019965875751922, 63.147287817138825], [13.021129272915399, 63.146159978212665], [13.022358669075407, 63.1454629670084], [13.02273688019375, 63.14514986947956], [13.023305788899384, 63.14485278364864], [13.02699589737522, 63.14199961222878], [13.02942752514426, 63.138937274571575], [13.030084668163807, 63.13826542114609], [13.031772273854147, 63.13498324664666], [13.032023869281302, 63.13217645904218], [13.033477976635593, 63.13121058855808], [13.034935254124832, 63.1306756867922], [13.039791328148256, 63.12805901373014], [13.040627406321804, 63.12737911891691], [13.044091028877835, 63.12590278417144], [13.04785325697674, 63.12588891163953], [13.056251922629839, 63.12498660430814], [13.059928043680635, 63.124799872113], [13.066419258896506, 63.125298245007464], [13.07462698135796, 63.125150879129755], [13.08259110239302, 63.12424066393653], [13.089969250822191, 63.12260673076207], [13.096444373475142, 63.120319317613394], [13.098912850686336, 63.1189939868675], [13.098963998024516, 63.118992481513665], [13.104552975048891, 63.118645757831466], [13.116276760545993, 63.11752810909841], [13.125256849121183, 63.11614623139672], [13.133253711302325, 63.11383749601855], [13.135680102747546, 63.11293506879515], [13.142686226337512, 63.10955358359758], [13.142700025614815, 63.109544902854296], [13.143923247062702, 63.10916481979833], [13.146052235289602, 63.108396114240534], [13.152713754036366, 63.10696418861844], [13.159202384547529, 63.10473384585095], [13.162481567237137, 63.10302525365165], [13.166645177588435, 63.10129114291729], [13.17155690364211, 63.098828006318314], [13.175382667481156, 63.09599707838264], [13.177991813891929, 63.092895283183296], [13.178642539713257, 63.09183610428113], [13.179982459387471, 63.088365223990934], [13.17980028931657, 63.08484258551468], [13.178103594287236, 63.0814039496084], [13.174958259814156, 63.078181792775126], [13.170485877587168, 63.07530020930397], [13.164859003159853, 63.0728701422991], [13.158294477156602, 63.0709851254025], [13.151045071678714, 63.06971769665161], [13.143389783275074, 63.0691166198381], [13.135623141246091, 63.069205017870615], [13.131047482427073, 63.0694622224938], [13.128939914575882, 63.069292438759895], [13.125984058669273, 63.06915808803265], [13.125204674763175, 63.06874317371102], [13.118843093750838, 63.06649829980872], [13.118740901786522, 63.06646928937689], [13.114323463499966, 63.06446474734651], [13.108743875843826, 63.062684246961], [13.106194056228594, 63.06201147940991], [13.10587254009044, 63.061878255136406], [13.105681771780754, 63.06181116649653], [13.104520160962895, 63.060680513932], [13.104270715355923, 63.05987871345685], [13.10331424719034, 63.058737425691625], [13.101750578139521, 63.056426792676206], [13.10144146187206, 63.05615399437004], [13.100501614899365, 63.05445237096732], [13.099287514351365, 63.05331614343093], [13.09773982728559, 63.05147268781339], [13.093493649888728, 63.04843199853147], [13.087996815009292, 63.04583685309603], [13.081470479858757, 63.04379152023007], [13.078439602567144, 63.04303293156172], [13.071990299440472, 63.04174395814966], [13.065139794992172, 63.04099486243226], [13.058105336362846, 63.0408093964666], [13.056510065887045, 63.040897007600336], [13.055670989777296, 63.040806406929825], [13.048390365620092, 63.04064455398162], [13.044172956339882, 63.04072751239627], [13.036173723621548, 63.041260149512574], [13.035291369719893, 63.04140655751966], [13.029555010904167, 63.040185128356924], [13.026379610199776, 63.0396734298439], [13.018324588236936, 63.038793273730086], [13.010042584320711, 63.03869416771668], [13.001896694296097, 63.039380454403585], [12.999832937808577, 63.03965840042175], [12.995965398912494, 63.03881666364856], [12.988126265232115, 63.03755094298167], [12.985603681190886, 63.03727511263638], [12.980185608053182, 63.03686818620199], [12.9785250379257, 63.036642970139965], [12.972691657178986, 63.036266655688095], [12.971088868927406, 63.03621811967136], [12.968780263753214, 63.03595426382507], [12.966558574191033, 63.03579036789428], [12.960471417912965, 63.03558540997029], [12.950117352471924, 63.03301488961822], [12.94650450517851, 63.032223049006845], [12.942970138655017, 63.03154643736552], [12.93912516521856, 63.03101773700295], [12.935849905719756, 63.030421497202916], [12.932701837777463, 63.02991729675952], [12.92859595822828, 63.02934688866836], [12.927689847113262, 63.02884207661996], [12.92212714152825, 63.02670432023338], [12.915795536463438, 63.02506654096017], [12.908910094426007, 63.02398433862935], [12.902120013008222, 63.02352270112547], [12.901381269874097, 63.02340135124722], [12.897681946691696, 63.022945938105075], [12.896732258578092, 63.02266885151792], [12.893084950670554, 63.02197441992471], [12.89164511814325, 63.0215453698835], [12.884197577497085, 63.01980770339918], [12.876111899295278, 63.01882158886084], [12.86775062701374, 63.01863123353381], [12.860408126030531, 63.01881813677647], [12.852822181531973, 63.019350152685284], [12.847012723713474, 63.02030657916167], [12.846359782824027, 63.020309564042314], [12.844858983368114, 63.0198600149552], [12.837919867827006, 63.01855464207648], [12.830562808841139, 63.0178691279152], [12.828967771049323, 63.017791179230684], [12.820212021715479, 63.01780639052129], [12.816987456019826, 63.0181429948936], [12.809456389279822, 63.01795772464614], [12.804601366196245, 63.01807066748053], [12.802935147452228, 63.01818312984603], [12.802375804823768, 63.01763386701632], [12.801037695401318, 63.016698870869085], [12.801062315783831, 63.01626590813137], [12.799946139995365, 63.01304402120851], [12.797565632047098, 63.00996709126824], [12.793999743485632, 63.007136671012574], [12.792547197719653, 63.00619399976857], [12.788443210536498, 63.00394488466351], [12.785028895205736, 63.00259608393407], [12.779944422392589, 62.99963418686141], [12.775640776328805, 62.99769606635785], [12.774824955872294, 62.99709107637559], [12.774651146532952, 62.99698659979608], [12.773751873227125, 62.9956102208742], [12.771876926933084, 62.993323036831676], [12.769266330613037, 62.99069868747371], [12.764758339640156, 62.98725271038126], [12.758681834063287, 62.984347682185444], [12.75511730185136, 62.982986321837814], [12.750037586551507, 62.981338896942795], [12.744451044062686, 62.98007608992846], [12.742542947423804, 62.97972729166536], [12.738395188638874, 62.9791779597231], [12.738260226256191, 62.97913869604977], [12.72994171980692, 62.977780763174465], [12.729343474242665, 62.97774792453025], [12.72779342320795, 62.97725210520164], [12.726354166641766, 62.97644480660832], [12.721208541546408, 62.974407066524975], [12.720669695943625, 62.97425906629777], [12.718078154921157, 62.972573050423975], [12.712522254159659, 62.970146134238966], [12.706036740567129, 62.9682565537121], [12.7013195880171, 62.9674140633597], [12.697871968863218, 62.96654775830112], [12.69464330871681, 62.96602152827127], [12.686228012658967, 62.9626846161231], [12.680100806840743, 62.96087954998926], [12.673239309120076, 62.9592676291375], [12.66871226648645, 62.95867427379603], [12.66742818276804, 62.958457723262406], [12.66547208328252, 62.958038430629195], [12.657418603135907, 62.957180279752386], [12.649149259153875, 62.95710561080676], [12.647401321429433, 62.9571735740212], [12.63854925860749, 62.95799020848459], [12.635784293310154, 62.958566694109514], [12.634029273272992, 62.95880611339726], [12.627412630407298, 62.96001489472729], [12.62553839867052, 62.96055297240137], [12.621047901162319, 62.96070266048748], [12.612997759482434, 62.96178127654192], [12.60930492456594, 62.962477742847874], [12.605202639408235, 62.962924247488566], [12.600581076120035, 62.963600864452715], [12.590503380825737, 62.9658378068422], [12.585976649755766, 62.96723610516469], [12.583658378996853, 62.96814008683693], [12.57870929460603, 62.969511876127626], [12.57321048449361, 62.97135015524396], [12.570032192956754, 62.972859520898915], [12.56791990290796, 62.97355006906527], [12.562301649207612, 62.97637764421573], [12.559133522370686, 62.978881475409636], [12.556052604697962, 62.98062071624217], [12.55533006550765, 62.98072196678498], [12.553327918512213, 62.98124012113337], [12.54765504009382, 62.98234785774156], [12.545251918627015, 62.98297153027382], [12.538030489227166, 62.98537688978657], [12.532280916603545, 62.98779180632502], [12.526061466341535, 62.99112897783576], [12.52395795787154, 62.993065529978836], [12.523588938449908, 62.99325794282564], [12.519870861319593, 62.99613747130167], [12.518667757202236, 62.99730616326614], [12.517859893249495, 62.998146087406816], [12.514964550050385, 63.00137832660343], [12.514408681494269, 63.00238498575827], [12.512763447387725, 63.004025868056054], [12.512066765517826, 63.005377399842125], [12.509326661103348, 63.0071442536661], [12.50784770004687, 63.00830605732642], [12.50613426505592, 63.00912694752341], [12.503483730488643, 63.01062537025159], [12.50098825377446, 63.012203920578315], [12.497708489322315, 63.01453501496743], [12.49412878079375, 63.01575221178307], [12.48827490706372, 63.01892868597577], [12.486853289710544, 63.019911352591386], [12.483407619987458, 63.02285717513611], [12.481221015715988, 63.02604175684523], [12.480369398749636, 63.02935513347351], [12.480882639059693, 63.032682856090176], [12.48274346153338, 63.035909941618584], [12.483953782036544, 63.03741925062787], [12.484614835546957, 63.03806697971259], [12.485820669393666, 63.03983964215962]], [[12.94925617499158, 63.12552060240337], [12.947900583790057, 63.12596840032135], [12.941271078924306, 63.12526381893633], [12.937073301656762, 63.12518855861106], [12.93399836070812, 63.12287633767082], [12.928914758602701, 63.120323378974334], [12.922850270999064, 63.11825572664819], [12.917384038755648, 63.116739528778865], [12.909614249946356, 63.115078345274576], [12.901237045975545, 63.11421390308038], [12.892645438487284, 63.114186750797685], [12.891454164046928, 63.11424171991884], [12.883915137794896, 63.11492894358866], [12.881409559483414, 63.11539917294753], [12.879167169548124, 63.1153900918815], [12.874720517424905, 63.11572590565864], [12.873688493992345, 63.11548097373428], [12.86563202171671, 63.1144656303488], [12.857284673186607, 63.1142378449369], [12.856362241540282, 63.114256835469966], [12.850064928287118, 63.11461670644637], [12.843974938222829, 63.11542690640512], [12.84175104079419, 63.11581268904295], [12.833637638007076, 63.117732285926124], [12.833360085632032, 63.11784093899408], [12.829878278140132, 63.11828392279664], [12.827722875413578, 63.118332375241536], [12.821477079820918, 63.11905630219658], [12.821155064952215, 63.11908608360414], [12.821473772929817, 63.11871465703468], [12.822453345831306, 63.117802988318324], [12.82315896434015, 63.1166186057559], [12.823364990791832, 63.11643142139777], [12.824007833276942, 63.11623947374575], [12.829057735715764, 63.11407116152467], [12.833191540663119, 63.11153618038934], [12.834781977452701, 63.11035643241525], [12.835779786640051, 63.10990570288011], [12.841435398790122, 63.10668387929137], [12.844059272107573, 63.10477435381708], [12.847570523340654, 63.10153025676826], [12.848722485930391, 63.10012244983384], [12.850025684398037, 63.09820789425609], [12.850797346998705, 63.09679917869327], [12.85176611425705, 63.093769485099116], [12.85224729202656, 63.09294910085163], [12.85271483711988, 63.089356216090984], [12.852116025657377, 63.08745729003903], [12.852083952550231, 63.085730380520324], [12.85149700200426, 63.08401913279496], [12.849661723426085, 63.08109871798271], [12.849284013704423, 63.07962373771062], [12.848688753318891, 63.07857660756113], [12.848578929047157, 63.077611782382945], [12.847458938011535, 63.074200473694624], [12.844921109778692, 63.07094925431601], [12.841570721273422, 63.06837144902587], [12.840212892055963, 63.066570400841336], [12.840153168841278, 63.065755443264294], [12.839349649556555, 63.064147488683545], [12.839550468746292, 63.063605815454615], [12.839093412569191, 63.059681372056055], [12.83867256405122, 63.05899728145943], [12.838758255886196, 63.05874638945948], [12.83891532968577, 63.05739353828732], [12.838832719289186, 63.0564780554002], [12.840751046999163, 63.05681825839765], [12.842683049934909, 63.05699215754811], [12.843220988176935, 63.05709658266934], [12.851084122172118, 63.05782346201736], [12.859108880660832, 63.057814908147115], [12.866964412416044, 63.05707127137932], [12.868598894725901, 63.05674984392205], [12.87546144486962, 63.057719881161155], [12.877464265157354, 63.057888197190536], [12.878175299282415, 63.05817509842184], [12.885073724609942, 63.06040723857242], [12.892862523828487, 63.06192127235752], [12.906650729039184, 63.063837958210065], [12.912589215058286, 63.065053739302186], [12.915863599651901, 63.06542684256399], [12.918876438244956, 63.06617506898464], [12.923585505800755, 63.0677735760402], [12.92732064836601, 63.06884713650521], [12.933856953276168, 63.07036008779946], [12.940897332172513, 63.07129934675106], [12.943738532714342, 63.07142904493083], [12.946505518334407, 63.071769525886175], [12.953625477438848, 63.0720416941176], [12.959436517834838, 63.07178581424022], [12.960622756253647, 63.07187709899616], [12.964540258921136, 63.07199586042898], [12.966381527220321, 63.07218998206969], [12.9664633580812, 63.07220779443626], [12.972886218712892, 63.07409445983049], [12.98004930589359, 63.07539007205736], [12.98606955146466, 63.07618054970086], [12.992440426993298, 63.076764832455446], [12.998936397315195, 63.07686819337642], [13.00155300424146, 63.076812164904695], [13.002520549675104, 63.07675578659262], [13.004818801241708, 63.07732077605231], [13.012323134185676, 63.07836620404699], [13.013989095890905, 63.07851829898761], [13.01823065872536, 63.07871671017727], [13.020865859354192, 63.079008585832746], [13.025366602437435, 63.07906107222467], [13.026201801756379, 63.07910800780144], [13.034696671731842, 63.079168611615884], [13.034966190070978, 63.07915735655758], [13.036203518215702, 63.08047809904059], [13.03757554138436, 63.08162443127542], [13.044512954942626, 63.0858156749167], [13.047327960849604, 63.08707922610027], [13.051865623443055, 63.088776247931705], [13.051209099920015, 63.08882884097927], [13.05118546512806, 63.08882758479285], [13.045268329890964, 63.088915741791496], [13.043819209781944, 63.08898670155812], [13.039539002127611, 63.089375951228504], [13.035313678568754, 63.08926245023263], [13.034334347119083, 63.08918197590952], [13.028436739611172, 63.08890171302505], [13.02251291258618, 63.08902348283578], [13.018989043373583, 63.0892163728012], [13.011401162535144, 63.089979614376006], [13.004287740282841, 63.091399494319155], [12.997922427028849, 63.09342140571004], [12.992550235421636, 63.09596757587378], [12.98837813105715, 63.09894004484306], [12.986993661259197, 63.10018042712242], [12.986186168061518, 63.10046194860607], [12.983019387095414, 63.10179334953937], [12.977679455989728, 63.10454889060717], [12.974793067621071, 63.1068544158371], [12.971542423281786, 63.10861789263569], [12.96011395753307, 63.11619724860222], [12.956798037348763, 63.11885590262971], [12.955551837891832, 63.12008958278528], [12.952870543331443, 63.12372961006983], [12.952621065124276, 63.12477411004223], [12.94925617499158, 63.12552060240337]], [[12.7194404536373, 63.10790535266092], [12.71540651320735, 63.106707061956165], [12.70890509836054, 63.105455015135085], [12.708579655054283, 63.10540733973123], [12.707158144745613, 63.10509629712863], [12.707145769092653, 63.1050912339115], [12.705640827791532, 63.10410085344], [12.700858092538109, 63.1015127068614], [12.698315492022868, 63.10057063500756], [12.69759606743792, 63.1001986767202], [12.695739396062947, 63.099143696546385], [12.690306567659336, 63.096613135738004], [12.684907259925952, 63.094549108343706], [12.679600168920395, 63.092845542030275], [12.672142013279531, 63.08987105909962], [12.669993339304677, 63.08907278153968], [12.662505819882638, 63.08648405262146], [12.657312345062396, 63.084963218801555], [12.651660326392198, 63.08382720748811], [12.65115467122947, 63.083746320988126], [12.65012258366021, 63.08337003487533], [12.64789826212437, 63.082615712397775], [12.635712368444917, 63.078776662512], [12.635479926415396, 63.07872246559643], [12.633364855446432, 63.077845184858795], [12.630674416059023, 63.07622980023548], [12.62298996035072, 63.07229375740278], [12.612521904275042, 63.06640271324326], [12.609045821350856, 63.06474391027841], [12.60671467503896, 63.061137477295205], [12.605712550299465, 63.05978771576754], [12.602505381082675, 63.0559745309999], [12.599421970396689, 63.05310433463012], [12.59526717643429, 63.050527403519], [12.590773592843965, 63.048205340799385], [12.583795178362843, 63.045425607373694], [12.58332527208565, 63.04465190932412], [12.582643369103222, 63.04383008281393], [12.579781562792585, 63.04110218150057], [12.577741732732616, 63.039785551312754], [12.57695872951919, 63.039028223991465], [12.571651778434362, 63.03591474325011], [12.56829962864244, 63.03434017864464], [12.566202334968098, 63.03297886703886], [12.56658449773192, 63.03283909654998], [12.571300070181264, 63.0303439478769], [12.574933362950619, 63.02749987321959], [12.575960842318711, 63.02649284888638], [12.579100460392745, 63.02446527445773], [12.582789616229205, 63.02152867747209], [12.585737740174809, 63.0185629167962], [12.586474811320848, 63.01738597707505], [12.588868286913927, 63.014884466148146], [12.589230061913035, 63.01409779706725], [12.5902742474792, 63.01396233621935], [12.596813320590318, 63.012477101345205], [12.597373517905991, 63.01228400534678], [12.600043393219483, 63.01175815418552], [12.606958874380338, 63.009488413861064], [12.609029068071992, 63.0086400291447], [12.614926594654833, 63.005608357819014], [12.617030724113745, 63.00384916644546], [12.622116230827086, 63.00151331986621], [12.622535628762705, 63.00122363778807], [12.623441474825972, 63.00079999698879], [12.627271052750025, 62.99818821424767], [12.62858214632644, 62.99785725149935], [12.630344348561968, 62.9971595174314], [12.634499072563665, 62.99658305748939], [12.636812847061929, 62.99614673750435], [12.639108037275408, 62.99590223160091], [12.639277262858815, 62.9958977218782], [12.646782999348355, 62.995206670237145], [12.653098089543947, 62.99709121574594], [12.658410268639926, 62.99828688034204], [12.662541649731113, 62.998997883552256], [12.66322932208866, 62.999337849992884], [12.667663674284343, 63.001217205586514], [12.671687506173825, 63.002676629230045], [12.674927318547256, 63.004059973554526], [12.677415712901622, 63.004974410267735], [12.679503671191775, 63.005690957932806], [12.690621415391258, 63.009248749328776], [12.698759016831982, 63.011249477701426], [12.70241976051549, 63.01191086105465], [12.702534585484123, 63.011926196529394], [12.703992530709561, 63.01344436028707], [12.707422064841586, 63.01628413379251], [12.710069061347792, 63.01776330056018], [12.71138640608109, 63.018741723554456], [12.71572283682628, 63.02138250405923], [12.715850958923886, 63.021436291658205], [12.716293874487153, 63.02438907770455], [12.718572826751672, 63.02801137392501], [12.720708280164478, 63.03041491463159], [12.723861935465338, 63.03322374449612], [12.72804997911345, 63.03573851191798], [12.733143276463709, 63.037881525925634], [12.73664893372228, 63.039115125977986], [12.737832703371291, 63.03946390345736], [12.739984356985643, 63.04148246734318], [12.741847378299106, 63.0428439037255], [12.7462160380985, 63.04546542202527], [12.748707344834216, 63.046497363590554], [12.752944068539717, 63.04859715361865], [12.756747516149812, 63.04988754014293], [12.757860902809641, 63.05051251356822], [12.758266607587341, 63.05066603625306], [12.758243227489785, 63.05084170111215], [12.758334403491961, 63.05115696662733], [12.757904217710719, 63.052290090241335], [12.75797783714537, 63.05553256200816], [12.758691186912722, 63.05720450271577], [12.758686851226381, 63.057215026852], [12.758601097207087, 63.057629400921385], [12.759154577751701, 63.062731516617895], [12.759671169531517, 63.06393714828974], [12.759607796717416, 63.064546794970475], [12.759724283620374, 63.066325617945395], [12.760752155053897, 63.06899181981657], [12.76120651018373, 63.07200628848371], [12.761765490794042, 63.07362123390579], [12.765002698446914, 63.078430108571396], [12.765662608027641, 63.07907092168438], [12.765978502626655, 63.07986215899585], [12.76889577515579, 63.08318565221927], [12.76896303562591, 63.083232355540645], [12.769151740833271, 63.083502898316794], [12.77017344568485, 63.08436546416533], [12.770868584439022, 63.085229705853486], [12.770960249999037, 63.085294067895376], [12.7710566220209, 63.08543362172768], [12.771498744085594, 63.08717834723727], [12.77217981500299, 63.08835296753339], [12.771238554879979, 63.088893228898435], [12.768428045941192, 63.08975300941123], [12.762905631551742, 63.09229233505056], [12.759248600345256, 63.09434703952488], [12.755557850390195, 63.09681455098954], [12.752818763493222, 63.09952476591445], [12.752468877471284, 63.09996407237055], [12.75198395933435, 63.10082869982799], [12.750327539622873, 63.10233020054809], [12.749961017265004, 63.102836793251846], [12.746640061532842, 63.103828729394664], [12.745990548775426, 63.10391769555671], [12.74465053040506, 63.10399133543178], [12.73829524628365, 63.10458281257313], [12.732237885929793, 63.10563594863044], [12.72664064789162, 63.10712254926109], [12.72563451172328, 63.10744258927067], [12.722810566351066, 63.108513468583375], [12.7194404536373, 63.10790535266092]]]}}]}