{"type": "FeatureCollection", "name": "huts", "crs": {"type": "name", "properties": {"name": "urn:ogc:def:crs:OGC:1.3:CRS84"}}, "features": [{"type": "Feature", "id": "node/339314750", "properties": {"facebook": "STF Fj\u00e4llstugor J\u00e4mtland", "fee": "yes", "image": "https://commons.wikimedia.org/wiki/File:Stensdalsstugorna_20250907_01.jpg", "material": "wood", "name": "Stensdalsstugorna", "opening_hours": "Feb 21-Apr 19,Jul 01-Sep 21", "operator": "Svenska Turistf\u00f6reningen", "pets_allowed": "yes", "reservation": "recommended", "sauna": "yes", "tourism": "alpine_hut", "website": "https://www.svenskaturistforeningen.se/boende/stf-stensdalen-fjallstuga/", "wikidata": "Q113827742", "@id": "node/339314750", "@type": "node", "osm_id": 339314750}, "geometry": {"type": "Point", "coordinates": [12.7402, 63.1278936]}}, {"type": "Feature", "id": "node/339314751", "properties": {"capacity": "44", "check_date": "2025-09-03", "description:en": "Cozy mountain cabin with two guest buildings, self-catering kitchen and guest area.", "fee": "yes", "fireplace": "stove", "floor:material": "wood", "heating": "yes", "image": "https://commons.wikimedia.org/wiki/File:V%C3%A5l%C3%A5stugorna_20250831_04.jpg", "internet_access": "no", "lockable": "yes", "locked": "no", "material": "wood", "mattress": "44", "name": "V\u00e5l\u00e5stugorna", "name:signed": "V\u00e5l\u00e5stugan", "opening_hours": "Feb-Apr,Jun-Sep", "operator": "Svenska Turistf\u00f6reningen", "payment:cash": "yes", "payment:credit_cards": "yes", "payment:debit_cards": "yes", "reservation": "recommended", "shower": "no", "source:mattress": "https://www.fjeldsofsweden.com/facility/V%C3%A5l%C3%A5valen", "toilets": "yes", "tourism": "alpine_hut", "website": "https://www.svenskaturistforeningen.se/boende/stf-valastugan-fjallstuga/", "wheelchair": "no", "wikidata": "Q113826934", "wikimedia_commons": "Category:STF V\u00e5l\u00e5stugan", "winter_room": "yes", "@id": "node/339314751", "@type": "node", "osm_id": 339314751}, "geometry": {"type": "Point", "coordinates": [12.7995206, 63.0403535]}}, {"type": "Feature", "id": "node/339314754", "properties": {"alt_name": "STF Fj\u00e4llstuga Lunnd\u00f6rren", "name": "STF Fj\u00e4llstuga Lunnd\u00f6rren", "opening_hours": "Feb-Apr,Jun-Sep", "operator": "Svenska Turistf\u00f6reningen", "reservation": "no", "snowmobile": "yes", "tourism": "alpine_hut", "website": "https://www.svenskaturistforeningen.se/boende/stf-lunndorren-fjallstuga/", "wikidata": "Q113827777", "wikimedia_commons": "File:Lunnd\u00f6rrsstugan.jpg", "winter_room": "yes", "@id": "node/339314754", "@type": "node", "osm_id": 339314754}, "geometry": {"type": "Point", "coordinates": [13.0627678, 63.0624004]}}, {"type": "Feature", "id": "node/467127700", "properties": {"amenity": "shelter", "emergency": "phone", "fireplace": "yes", "name": "H\u00e4rj\u00e5ngdalen", "shelter_type": "basic_hut", "@id": "node/467127700", "@type": "node", "osm_id": 467127700}, "geometry": {"type": "Point", "coordinates": [12.6202882, 63.0475111]}}, {"type": "Feature", "id": "node/1353507298", "properties": {"amenity": "shelter", "description": "This is an emergency shelter only and the wood stored there is only for emergency use. Overnight stays are not permitted. Short breaks are ok. The stove may be used if you bring your own wood.", "emergency": "phone", "fireplace": "yes", "floor:material": "wood", "image": "https://commons.wikimedia.org/wiki/File:Sjt%C3%A4ntja_20250906_05.jpg", "lockable": "yes", "locked": "no", "material": "wood", "name": "Sjt\u00e4ntja", "shelter_type": "cabin", "sleeping": "emergency", "wikimedia_commons": "Category:Sjt\u00e4ntja shelter, \u00c5re Municipality", "wood_provided": "yes", "@id": "node/1353507298", "@type": "node", "osm_id": 1353507298}, "geometry": {"type": "Point", "coordinates": [12.6095812, 63.0929849]}}, {"type": "Feature", "id": "node/1478062444", "properties": {"amenity": "shelter", "@id": "node/1478062444", "@type": "node", "osm_id": 1478062444}, "geometry": {"type": "Point", "coordinates": [13.0684182, 63.1073289]}}, {"type": "Feature", "id": "node/1855702351", "properties": {"amenity": "shelter", "bench": "yes", "bin": "no", "description": "This is an emergency shelter only and the wood stored there is only for emergency use. Overnight stays are not permitted. Short breaks are ok. The stove may be used if you bring your own wood.", "designation": "2 beds", "drinking_water": "no", "electricity": "no", "emergency": "phone", "fireplace": "stove", "floor:material": "wood", "hiking": "yes", "image": "https://commons.wikimedia.org/wiki/File:Ljungan_shelter,_%C3%85re_Municipality_20250901_01.jpg", "lit": "no", "lockable": "yes", "locked": "no", "material": "wood", "name": "Ljungan", "operator": "L\u00e4nsstyrelsen J\u00e4mtlands L\u00e4n", "shelter_type": "basic_hut", "ski": "yes", "sleeping": "emergency", "wikimedia_commons": "Category:Ljungan shelter, \u00c5re Municipality", "wood_provided": "yes", "@id": "node/1855702351", "@type": "node", "osm_id": 1855702351}, "geometry": {"type": "Point", "coordinates": [12.6568843, 62.9757342]}}, {"type": "Feature", "id": "node/2356927944", "properties": {"amenity": "shelter", "fireplace": "yes", "name": "Issj\u00f6n Stuga", "shelter_type": "weather_shelter", "@id": "node/2356927944", "@type": "node", "osm_id": 2356927944}, "geometry": {"type": "Point", "coordinates": [13.1379965, 63.0889121]}}, {"type": "Feature", "id": "node/2396224903", "properties": {"amenity": "shelter", "description:en": "ground floor; no person can sleep here; no firewood storage present; firepit infront; bench inside", "fireplace": "yes", "name": "Nipan", "shelter_type": "weather_shelter", "@id": "node/2396224903", "@type": "node", "osm_id": 2396224903}, "geometry": {"type": "Point", "coordinates": [12.9579293, 63.1393257]}}, {"type": "Feature", "id": "node/3265209418", "properties": {"amenity": "shelter", "shelter_type": "picnic_shelter", "@id": "node/3265209418", "@type": "node", "osm_id": 3265209418}, "geometry": {"type": "Point", "coordinates": [12.9656709, 63.1618131]}}, {"type": "Feature", "id": "node/7125728673", "properties": {"amenity": "shelter", "fixme": "Position may be off \u00b1 50 meters. What type of shelter is this?", "source": "Facebook group Vindskydd i Norden", "source:url": "https://www.google.com/maps/d/viewer?mid=1doLXXvokOtiMzthVz0SLFjEPmD4", "@id": "node/7125728673", "@type": "node", "osm_id": 7125728673}, "geometry": {"type": "Point", "coordinates": [13.1198215, 63.0939674]}}, {"type": "Feature", "id": "node/13111004673", "properties": {"amenity": "shelter", "shelter_type": "weather_shelter", "@id": "node/13111004673", "@type": "node", "osm_id": 13111004673}, "geometry": {"type": "Point", "coordinates": [12.9054084, 63.15485]}}, {"type": "Feature", "id": "node/14103614522", "properties": {"amenity": "shelter", "shelter_type": "lean_to", "@id": "node/14103614522", "@type": "node", "osm_id": 14103614522}, "geometry": {"type": "Point", "coordinates": [13.0210987, 63.1552895]}}, {"type": "Feature", "id": "way/217985047", "properties": {"amenity": "shelter", "bin": "no", "building": "yes", "description:en": "Closed and abandoned former STF mountain lodge", "ele": "1100", "fireplace": "stove", "lockable": "yes", "locked": "yes", "name": "G\u00e5senstugorna (gamla)", "note": "Not used anymore https://www.lansstyrelsen.se/jamtland/besoksmal/aktuellt-i-fjallvarlden/aktuellt-i-fjallvarlden/2025-04-01-nytt-rastskydd-vid-gasen.html", "operator": "Hand\u00f6lsdalens sameby", "shelter_type": "basic_hut", "sleeping": "no", "website": "https://www.svenskaturistforeningen.se/boende/gasenstugan/", "wikidata": "Q113798417", "@id": "way/217985047", "@type": "way", "osm_id": 217985047, "osm_name": "G\u00e5sen (old)"}, "geometry": {"type": "Polygon", "coordinates": [[[12.5461191, 63.0499679], [12.5461988, 63.0499168], [12.545968, 63.0498428], [12.5458883, 63.0498939], [12.5461191, 63.0499679]]]}}, {"type": "Feature", "id": "way/1374849638", "properties": {"amenity": "shelter", "beds": "yes", "building": "yes", "capacity:beds": "2", "electricity": "no", "fee": "no", "fireplace": "stove", "floor:material": "wood", "image": "https://commons.wikimedia.org/wiki/File:G%C3%A5sen_shelter_20250906_03.jpg", "lit": "no", "lockable": "no", "material": "wood", "name": "G\u00e5senstugorna", "shelter_type": "basic_hut", "sleeping": "emergency", "website": "https://www.lansstyrelsen.se/jamtland/besoksmal/aktuellt-i-fjallvarlden/aktuellt-i-fjallvarlden/2025-04-01-nytt-rastskydd-vid-gasen.html", "wikimedia_commons": "Category:G\u00e5sen shelter, \u00c5re Municipality", "wood_provided": "no", "@id": "way/1374849638", "@type": "way", "osm_id": 1374849638, "osm_name": "G\u00e5sen (new)"}, "geometry": {"type": "Polygon", "coordinates": [[[12.5372201, 63.0461799], [12.5372568, 63.0462015], [12.5373007, 63.0461861], [12.5372639, 63.0461646], [12.5372201, 63.0461799]]]}}], "bbox": [12.48, 62.957, 13.181, 63.165]}