{"type": "FeatureCollection", "features": [{"type": "Feature", "properties": {"name": "V\u00e5l\u00e5 fyrkant extended big time", "length_km": 86.55, "ascent_m": 1725, "ele_min": 574, "ele_max": 1225}, "geometry": {"type": "LineString", "coordinates": [[12.964262, 63.146876999999996], [12.964417, 63.146527], [12.963546, 63.145778], [12.961637, 63.145431], [12.955159, 63.14552799999999], [12.949762, 63.144845000000004], [12.948553, 63.144851], [12.945592, 63.14538700000001], [12.943992000000001, 63.14525499999999], [12.939959, 63.144611000000005], [12.935927, 63.14304800000001], [12.932775, 63.143716000000005], [12.930904000000002, 63.144463999999985], [12.929877, 63.14452500000001], [12.9271, 63.14412299999999], [12.923131000000001, 63.14258], [12.920948000000001, 63.14228099999999], [12.919653, 63.14248200000001], [12.917336000000002, 63.141735], [12.915312, 63.14138200000001], [12.910694, 63.141380000000005], [12.909318, 63.140885000000004], [12.908399, 63.139585999999994], [12.907249, 63.139179], [12.906339000000001, 63.13846899999999], [12.905653000000001, 63.137356], [12.904108, 63.13609500000001], [12.902529, 63.135688], [12.901704, 63.135048000000005], [12.902134, 63.13355899999999], [12.896666, 63.132041999999984], [12.895474, 63.132097], [12.89333, 63.132889000000006], [12.890761, 63.13318199999999], [12.889955000000002, 63.13292499999999], [12.886899000000001, 63.13348499999999], [12.882264, 63.133283000000006], [12.879474, 63.133857], [12.877800000000002, 63.13505], [12.873235, 63.135514], [12.869921, 63.13516500000001], [12.865814, 63.133908], [12.862677, 63.13353600000001], [12.861622000000002, 63.133621], [12.860699000000002, 63.133333], [12.859085999999998, 63.132166999999995], [12.858163, 63.13218600000001], [12.855938, 63.13257200000001], [12.853923, 63.133566999999985], [12.851863000000002, 63.133729999999986], [12.848368000000002, 63.134889], [12.84673, 63.13508699999999], [12.844026, 63.135009000000004], [12.842653, 63.13526199999998], [12.841666, 63.135785000000006], [12.840705, 63.13574599999999], [12.83813, 63.13618100000001], [12.833655, 63.136078000000005], [12.831092, 63.13650299999999], [12.829778, 63.137046000000005], [12.825959000000001, 63.136865], [12.822826, 63.137309], [12.821178, 63.13701499999999], [12.819324, 63.137130000000006], [12.817436000000002, 63.13777499999998], [12.81606, 63.137764000000004], [12.814775, 63.13838399999999], [12.812183000000001, 63.138395], [12.809394, 63.139480999999996], [12.805460000000002, 63.14011099999998], [12.798364, 63.138422], [12.796802, 63.138294], [12.795355000000002, 63.138459999999995], [12.790072, 63.13711400000002], [12.788360000000003, 63.137091999999996], [12.786797999999997, 63.13674700000001], [12.785555000000002, 63.13617500000001], [12.782990000000002, 63.13574099999998], [12.78, 63.133461], [12.776454, 63.13271000000001], [12.775463, 63.132782], [12.773285, 63.132333], [12.764747000000002, 63.13167599999998], [12.761304000000003, 63.131800999999975], [12.747283, 63.130141000000016], [12.743209, 63.12878099999998], [12.741585, 63.127799], [12.740327, 63.12787599999999], [12.740038, 63.126996], [12.737007, 63.126904], [12.732982, 63.12804599999999], [12.727099000000003, 63.12858099999999], [12.722115000000002, 63.128107], [12.721463, 63.127855], [12.719639, 63.12776], [12.718579000000002, 63.12794400000001], [12.714906000000001, 63.12754799999999], [12.712061, 63.12687], [12.710743000000003, 63.125558], [12.708786, 63.12541799999999], [12.707619, 63.125007], [12.705060999999999, 63.125112], [12.70301, 63.12459200000001], [12.702186, 63.12489500000002], [12.701344, 63.12482499999999], [12.698598, 63.123948000000006], [12.696706000000002, 63.12253099999999], [12.692263, 63.12188], [12.68871, 63.120886], [12.68653, 63.120529], [12.682788, 63.119346], [12.68235, 63.119004], [12.677981000000003, 63.117557000000005], [12.672994000000001, 63.11427299999998], [12.670162, 63.11341099999999], [12.669602, 63.112801], [12.667323000000001, 63.11220099999999], [12.666695000000002, 63.11143200000001], [12.664755, 63.11032899999999], [12.659355, 63.108263999999984], [12.656194, 63.107421], [12.645967000000002, 63.103340999999986], [12.638478, 63.100750999999995], [12.631597, 63.09964999999998], [12.625298000000003, 63.097353], [12.613108999999998, 63.093512000000004], [12.609531, 63.09293299999999], [12.609771, 63.092386000000005], [12.60318, 63.089651], [12.601028, 63.08812400000001], [12.592739, 63.083876000000004], [12.5817, 63.077659999999995], [12.576028000000003, 63.07536099999999], [12.573870000000001, 63.07412399999999], [12.568746, 63.066182], [12.565543, 63.06236799999999], [12.56105, 63.06004500000001], [12.554761000000001, 63.058130999999996], [12.547261000000002, 63.05336499999999], [12.546317, 63.050973], [12.545636000000002, 63.05015099999999], [12.544102, 63.049558000000005], [12.543222000000002, 63.04838599999999], [12.537696, 63.045789], [12.527461000000002, 63.03914], [12.525798, 63.036742000000004], [12.522311, 63.032942000000006], [12.521646, 63.031493], [12.521088, 63.031273999999996], [12.519876, 63.029765], [12.521297, 63.02878199999999], [12.525068, 63.02778500000001], [12.527992, 63.02594], [12.528909000000002, 63.025683], [12.534274, 63.021867], [12.536924, 63.020368000000005], [12.539090999999999, 63.019949], [12.541612000000002, 63.01748099999999], [12.546794000000002, 63.014137], [12.549744999999998, 63.011172], [12.550137000000001, 63.009818], [12.551237, 63.009438], [12.551536, 63.008143], [12.554428, 63.00491], [12.555630000000003, 63.003740999999984], [12.557589000000002, 63.002892999999986], [12.559063000000002, 63.000975], [12.564813, 62.998559], [12.567217, 62.99793499999999], [12.568503999999999, 62.997896000000004], [12.570564000000001, 62.99754600000001], [12.570993, 62.997195000000005], [12.573225, 62.99700000000001], [12.574427000000002, 62.99696099999999], [12.575971, 62.997234000000006], [12.578359, 62.99624000000001], [12.580526, 62.996157], [12.582596, 62.995309], [12.583101000000001, 62.99388199999998], [12.586872000000003, 62.991932999999996], [12.588744000000002, 62.990608], [12.590289, 62.99015499999999], [12.591458000000001, 62.990209], [12.592145000000002, 62.98961399999999], [12.592746000000002, 62.989517], [12.593186, 62.98799100000001], [12.594216, 62.98692900000002], [12.596683000000002, 62.98629099999998], [12.598894, 62.98528700000001], [12.599232000000002, 62.984839], [12.605299000000002, 62.98315699999999], [12.605926, 62.983162], [12.608131, 62.982085], [12.612659, 62.980686000000006], [12.617283000000002, 62.980008999999995], [12.619386000000002, 62.98000399999998], [12.628098, 62.97836099999999], [12.630989, 62.978405], [12.63314, 62.978083000000005], [12.636969, 62.97798099999999], [12.641981000000001, 62.97717199999999], [12.645351, 62.975998000000004], [12.649287000000001, 62.975461], [12.650757, 62.97505600000001], [12.652506000000002, 62.974988], [12.655596, 62.975841], [12.657021, 62.97574800000001], [12.657822, 62.97602699999999], [12.658668, 62.97594500000001], [12.664797, 62.97775099999999], [12.665928, 62.97834799999998], [12.667273, 62.979726], [12.670603, 62.98100600000001], [12.675913000000001, 62.98220099999999], [12.681634, 62.982904], [12.684558, 62.98378499999999], [12.688107, 62.984243], [12.690911, 62.986512], [12.692275, 62.987186000000015], [12.696492000000001, 62.988714999999985], [12.69797, 62.98891100000001], [12.699739, 62.990101], [12.702227, 62.99101499999999], [12.713342, 62.99457099999999], [12.717001000000002, 62.995232], [12.720854000000001, 62.995245999999995], [12.722763000000002, 62.99594999999999], [12.727825, 62.99638], [12.729734, 62.996729], [12.733299, 62.99809100000001], [12.735907, 63.000716], [12.738132, 63.004128], [12.740183000000002, 63.00626099999999], [12.741161, 63.006468000000005], [12.745074, 63.009372], [12.748809, 63.010671999999985], [12.755119000000002, 63.01435], [12.757901, 63.015719999999995], [12.760192, 63.016485999999986], [12.761644, 63.017429], [12.760431000000002, 63.018483999999994], [12.756637000000001, 63.01912899999999], [12.75526, 63.020668999999984], [12.755210000000002, 63.02129099999999], [12.757348000000002, 63.023693999999985], [12.760853, 63.02492699999999], [12.767043000000001, 63.025871999999985], [12.769248, 63.027414], [12.770473, 63.029281000000005], [12.772272, 63.030391], [12.773556000000001, 63.03200799999998], [12.77542, 63.033368999999986], [12.778750000000002, 63.034125999999986], [12.779468000000001, 63.035288], [12.784056, 63.036559000000004], [12.786023, 63.037915], [12.78896, 63.03847999999999], [12.789725000000002, 63.03936499999999], [12.792897, 63.039367], [12.795518, 63.040135], [12.799711000000002, 63.04048100000001], [12.800381000000002, 63.03965299999999], [12.803445, 63.037547], [12.806621, 63.035995], [12.811479, 63.035882], [12.815848, 63.036201], [12.822723000000002, 63.03620899999999], [12.82474, 63.03563599999998], [12.826336, 63.035713999999984], [12.826885000000003, 63.036157999999986], [12.828963, 63.03678800000001], [12.836696000000002, 63.03811599999998], [12.839623000000001, 63.03838399999999], [12.843717, 63.038138999999994], [12.846071, 63.038533], [12.849099, 63.038563], [12.850995, 63.039007000000005], [12.851836, 63.03958999999999], [12.853922, 63.039692], [12.855004000000001, 63.039964], [12.858428000000002, 63.03861799999999], [12.861269000000002, 63.037781], [12.862283000000001, 63.03772399999998], [12.862617, 63.036738], [12.869964, 63.036550999999996], [12.876779000000003, 63.03858199999999], [12.878341000000002, 63.03855500000001], [12.882662, 63.04007199999999], [12.886375, 63.040384], [12.887937, 63.04027899999999], [12.896065, 63.041614], [12.89948, 63.041414], [12.901352, 63.04267999999998], [12.902428, 63.043945], [12.904451, 63.044760999999994], [12.921136, 63.04708], [12.924492, 63.047691], [12.925591000000002, 63.04810299999999], [12.927608, 63.04808399999999], [12.931144000000002, 63.048760999999985], [12.941607, 63.05135899999999], [12.944757, 63.052612], [12.948491000000002, 63.053685], [12.949958, 63.053565000000006], [12.952499, 63.05374799999999], [12.953374000000002, 63.05409399999999], [12.960215, 63.053506000000006], [12.962438000000002, 63.05366999999999], [12.963262, 63.053969000000016], [12.97006, 63.054175], [12.972240000000003, 63.05455299999997], [12.976342, 63.054724], [12.978866000000002, 63.054999999999986], [12.986548, 63.05667199999998], [12.989595000000001, 63.05699899999999], [12.990582, 63.057489000000004], [12.991054, 63.05815], [12.997071, 63.05894], [12.999686, 63.058884], [13.001814, 63.05851], [13.00272, 63.058671], [13.005565, 63.057608], [13.013147, 63.056587], [13.016324, 63.057099], [13.017061, 63.058387], [13.019533, 63.05944899999998], [13.019293000000001, 63.05981399999999], [13.020133, 63.060771], [13.021798, 63.060922999999995], [13.022991, 63.060709], [13.026099000000002, 63.061218000000004], [13.027136, 63.061074999999995], [13.031068, 63.061296000000006], [13.035257, 63.061121], [13.040973, 63.061260999999995], [13.045884, 63.058659], [13.050104000000001, 63.058576], [13.053642, 63.05947499999999], [13.056211000000001, 63.05932899999998], [13.059338, 63.058749], [13.062370000000003, 63.05950799999999], [13.061887000000002, 63.060128000000006], [13.063318, 63.06057699999999], [13.062440000000002, 63.06201699999998], [13.06262, 63.062501], [13.063943000000002, 63.062609999999985], [13.065102, 63.063186], [13.065153000000002, 63.063912999999985], [13.065951, 63.064345], [13.066071000000003, 63.066284999999986], [13.06784, 63.067727000000005], [13.068595, 63.06796399999998], [13.070689, 63.070739999999994], [13.07099, 63.07191400000001], [13.072363, 63.07306], [13.075178000000001, 63.07432299999999], [13.079178000000002, 63.07512799999998], [13.082628, 63.076557999999984], [13.088842000000001, 63.07819799999999], [13.092585, 63.08021899999999], [13.097839, 63.081711000000006], [13.100413, 63.083405], [13.10586, 63.085366000000015], [13.108996000000001, 63.08615799999998], [13.111199, 63.08718899999999], [13.113126, 63.087179], [13.114168000000001, 63.08742099999998], [13.122014, 63.08696400000001], [13.124509, 63.087165000000006], [13.124697000000001, 63.087335], [13.130885, 63.087557000000004], [13.140495000000001, 63.08701699999998], [13.139842999999999, 63.08807600000002], [13.133653, 63.090653], [13.132144000000002, 63.09162500000001], [13.128493000000002, 63.09221000000001], [13.126317000000002, 63.09292500000001], [13.124477, 63.093234999999986], [13.119233, 63.095128], [13.11592, 63.09600600000002], [13.114647000000001, 63.096479], [13.110537000000003, 63.099062999999994], [13.108111, 63.09996499999998], [13.096394, 63.101082], [13.090138, 63.101266], [13.089445, 63.101636], [13.088634, 63.10170599999999], [13.085539000000002, 63.101482999999995], [13.081204, 63.10305399999999], [13.078046999999998, 63.103637], [13.077236000000001, 63.104041], [13.074291, 63.104426000000004], [13.072574, 63.10542100000001], [13.070448000000003, 63.105746999999994], [13.068961000000002, 63.10738699999998], [13.066722, 63.106860000000005], [13.064649, 63.106913], [13.059428000000002, 63.10639700000001], [13.056332000000001, 63.10664499999999], [13.053851000000002, 63.107139999999994], [13.049524999999997, 63.106760000000016], [13.048075, 63.10683100000001], [13.046794, 63.107467], [13.043087000000002, 63.10807099999999], [13.038174, 63.10783800000001], [13.034442000000002, 63.10709200000001], [13.031330000000002, 63.107175999999995], [13.027265, 63.106842], [13.023739, 63.107034999999996], [13.021722, 63.108844000000005], [13.022022, 63.10929899999999], [13.021567, 63.110556], [13.017705, 63.11275], [13.015705000000002, 63.113385999999984], [13.013147, 63.113615], [13.009980000000002, 63.114947], [13.007148, 63.117873], [13.004281000000002, 63.11873399999999], [12.992857000000003, 63.126316], [12.991612, 63.12755], [12.991612, 63.129075], [12.990934000000001, 63.129591000000005], [12.991003, 63.13018400000001], [12.992359000000002, 63.13161199999999], [12.992471000000002, 63.13257], [12.991183000000001, 63.133609], [12.991063000000002, 63.134397], [12.990162000000002, 63.134664], [12.989329, 63.13552200000001], [12.986900000000002, 63.136676999999985], [12.985373000000001, 63.138499999999986], [12.984411, 63.13905900000001], [12.981785, 63.139687], [12.976040000000001, 63.140454999999996], [12.971364000000001, 63.14060399999999], [12.969756, 63.14088499999999], [12.968694, 63.14175800000001], [12.968553, 63.143232], [12.969111000000002, 63.144785999999996], [12.967422, 63.14550199999999]]}}, {"type": "Feature", "properties": {"name": "Bench in the Wilderness", "kind": "waypoint"}, "geometry": {"type": "Point", "coordinates": [12.573814, 63.073852]}}, {"type": "Feature", "properties": {"name": "Stensdalsstugorna \u2013 V\u00e5l\u00e5stugorna", "kind": "segment", "length_km": 12.26, "buffer_m": 2000.0}, "geometry": {"type": "LineString", "coordinates": [[12.7402, 63.12789360000001], [12.7409985, 63.127109099999984], [12.742109199999998, 63.126673600000004], [12.7440568, 63.12527089999998], [12.745808700000001, 63.12482439999999], [12.748194200000002, 63.124584299999995], [12.749172700000003, 63.124095600000004], [12.7487906, 63.123320500000005], [12.7479333, 63.12305089999998], [12.7479333, 63.12258330000001], [12.7484179, 63.1221283], [12.7494243, 63.1218081], [12.7534871, 63.121584799999994], [12.7544097, 63.1214079], [12.757140000000001, 63.121711199999986], [12.759059599999999, 63.12165220000002], [12.7622838, 63.12127309999998], [12.7639425, 63.120877099999994], [12.7646321, 63.12046], [12.765741, 63.12038410000001], [12.767008300000002, 63.119979699999995], [12.7677538, 63.11943199999998], [12.7690864, 63.119061200000004], [12.770521400000002, 63.11817640000001], [12.771993800000002, 63.117620200000005], [12.7738016, 63.11720309999998], [12.77478, 63.11718199999999], [12.7760194, 63.11662999999999], [12.777268, 63.11650360000001], [12.780893, 63.11560190000001], [12.7811539, 63.115041500000004], [12.782561, 63.1144431], [12.7835953, 63.11349919999998], [12.783786900000003, 63.1126577], [12.785337800000002, 63.11150700000001], [12.785775, 63.1103495], [12.789992500000002, 63.10652189999998], [12.789739, 63.106051], [12.7900884, 63.1056116], [12.7937447, 63.10355609999999], [12.7993785, 63.102179499999984], [12.8034461, 63.09916460000001], [12.8078072, 63.0971956], [12.810432400000002, 63.09528669999999], [12.811585900000003, 63.093879199999996], [12.8123593, 63.0924707], [12.8121077, 63.092285200000006], [12.812629500000002, 63.091597799999995], [12.8127227, 63.09060670000001], [12.813148, 63.09009590000001], [12.812708400000002, 63.089288], [12.8129553, 63.08848239999999], [12.8123706, 63.086770999999985], [12.8108341, 63.08512480000001], [12.8099586, 63.08168799999999], [12.809322, 63.0809825], [12.809046300000002, 63.078531299999995], [12.808241599999999, 63.0783038], [12.8063118, 63.07723419999999], [12.8062988, 63.076834100000006], [12.8056171, 63.07651729999999], [12.8051537, 63.0755484], [12.8040293, 63.0749163], [12.804198800000002, 63.074277699999996], [12.8024638, 63.0719724], [12.801595400000002, 63.071544700000004], [12.8008613, 63.070832700000004], [12.8003002, 63.0692179], [12.800830400000002, 63.06859479999999], [12.8009063, 63.06804230000001], [12.799274500000001, 63.06578719999999], [12.7991556, 63.0640084], [12.800051, 63.06257939999998], [12.7987747, 63.0611351], [12.797986700000001, 63.059301799999986], [12.7980719, 63.05888739999999], [12.799256, 63.0577967], [12.7994149, 63.0564439], [12.798692000000003, 63.055854799999985], [12.7973285, 63.05372169999999], [12.7978495, 63.0528346], [12.798171500000002, 63.0510062], [12.797765400000001, 63.05020660000001], [12.798075000000003, 63.04930809999999], [12.7974431, 63.04859299999999], [12.7974216, 63.045690799999996], [12.7969685, 63.04510479999998], [12.797497600000002, 63.04400869999999], [12.799211100000003, 63.04294669999999], [12.799833, 63.0416677], [12.799877100000003, 63.04066149999999], [12.7995206, 63.04035350000001]]}}]}