{"type": "FeatureCollection", "features": [{"type": "Feature", "properties": {"score": 0.966, "elev_m": 891, "slope_deg": 2.0, "first_light": 6.5, "sun_morning_h": 4.0, "twi": 5.67, "tpi_m": 3.0, "rough_m": 0.79, "water_m": 208, "wetland_m": 2752, "hut_m": 586, "trail_m": 221, "route_km": 51.1, "off_route_m": 221, "patch_m2": 11400, "why": "mycket flackt (2.0\u00b0), morgonsol 06:30, liten hojd, kalluft rinner undan, vatten 210 m", "access": 1.0, "usefulness": 0.966, "rank": 1}, "geometry": {"type": "Point", "coordinates": [12.788082, 63.041204]}}, {"type": "Feature", "properties": {"score": 0.966, "elev_m": 951, "slope_deg": 2.0, "first_light": 6.5, "sun_morning_h": 4.0, "twi": 5.65, "tpi_m": 3.2, "rough_m": 0.94, "water_m": 282, "wetland_m": 371, "hut_m": 2524, "trail_m": 92, "route_km": 37.6, "off_route_m": 97, "patch_m2": 30300, "why": "flackt (2.0\u00b0), morgonsol 06:30, liten hojd, kalluft rinner undan, vatten 280 m", "access": 1.0, "usefulness": 0.966, "rank": 2}, "geometry": {"type": "Point", "coordinates": [12.609517, 62.982715]}}, {"type": "Feature", "properties": {"score": 0.966, "elev_m": 929, "slope_deg": 1.9, "first_light": 6.5, "sun_morning_h": 4.0, "twi": 5.68, "tpi_m": 4.3, "rough_m": 0.61, "water_m": 158, "wetland_m": 1222, "hut_m": 446, "trail_m": 50, "route_km": 40.7, "off_route_m": 51, "patch_m2": 16800, "why": "mycket flackt (1.9\u00b0), morgonsol 06:30, liten hojd, kalluft rinner undan, vatten 160 m", "access": 1.0, "usefulness": 0.966, "rank": 3}, "geometry": {"type": "Point", "coordinates": [12.665028, 62.977267]}}, {"type": "Feature", "properties": {"score": 0.965, "elev_m": 855, "slope_deg": 2.0, "first_light": 6.5, "sun_morning_h": 4.0, "twi": 5.68, "tpi_m": 2.4, "rough_m": 0.9, "water_m": 399, "wetland_m": 504, "hut_m": 656, "trail_m": 40, "route_km": 72.0, "off_route_m": 41, "patch_m2": 38900, "why": "mycket flackt (2.0\u00b0), morgonsol 06:30, liten hojd, kalluft rinner undan, vatten 400 m", "access": 1.0, "usefulness": 0.965, "rank": 4}, "geometry": {"type": "Point", "coordinates": [13.125266, 63.087729]}}, {"type": "Feature", "properties": {"score": 0.965, "elev_m": 1059, "slope_deg": 1.9, "first_light": 6.5, "sun_morning_h": 4.0, "twi": 5.71, "tpi_m": 3.1, "rough_m": 0.5, "water_m": 162, "wetland_m": 4013, "hut_m": 3252, "trail_m": 92, "route_km": 43.6, "off_route_m": 101, "patch_m2": 5300, "why": "mycket flackt (1.9\u00b0), morgonsol 06:30, liten hojd, kalluft rinner undan, vatten 160 m", "access": 1.0, "usefulness": 0.965, "rank": 5}, "geometry": {"type": "Point", "coordinates": [12.707353, 62.993764]}}, {"type": "Feature", "properties": {"score": 0.965, "elev_m": 1059, "slope_deg": 2.0, "first_light": 6.5, "sun_morning_h": 4.0, "twi": 5.65, "tpi_m": 5.4, "rough_m": 0.71, "water_m": 274, "wetland_m": 3587, "hut_m": 2820, "trail_m": 56, "route_km": 43.2, "off_route_m": 58, "patch_m2": 34700, "why": "flackt (2.0\u00b0), morgonsol 06:30, liten hojd, kalluft rinner undan, vatten 270 m", "access": 1.0, "usefulness": 0.965, "rank": 6}, "geometry": {"type": "Point", "coordinates": [12.702289, 62.99036]}}, {"type": "Feature", "properties": {"score": 0.964, "elev_m": 636, "slope_deg": 2.1, "first_light": 6.5, "sun_morning_h": 4.0, "twi": 5.63, "tpi_m": 4.5, "rough_m": 0.94, "water_m": 240, "wetland_m": 1512, "hut_m": 2817, "trail_m": 252, "route_km": 6.0, "off_route_m": 263, "patch_m2": 4600, "why": "flackt (2.1\u00b0), morgonsol 06:30, liten hojd, kalluft rinner undan, vatten 240 m", "access": 1.0, "usefulness": 0.964, "rank": 7}, "geometry": {"type": "Point", "coordinates": [12.866129, 63.136859]}}, {"type": "Feature", "properties": {"score": 0.964, "elev_m": 855, "slope_deg": 1.9, "first_light": 6.5, "sun_morning_h": 4.0, "twi": 5.7, "tpi_m": 2.4, "rough_m": 0.5, "water_m": 176, "wetland_m": 710, "hut_m": 1665, "trail_m": 50, "route_km": 70.4, "off_route_m": 240, "patch_m2": 5200, "why": "mycket flackt (1.9\u00b0), morgonsol 06:30, liten hojd, kalluft rinner undan, vatten 180 m", "access": 1.0, "usefulness": 0.964, "rank": 8}, "geometry": {"type": "Point", "coordinates": [13.095407, 63.083919]}}, {"type": "Feature", "properties": {"score": 0.964, "elev_m": 926, "slope_deg": 1.9, "first_light": 6.5, "sun_morning_h": 4.0, "twi": 5.71, "tpi_m": 4.6, "rough_m": 0.79, "water_m": 140, "wetland_m": 690, "hut_m": 284, "trail_m": 50, "route_km": 40.3, "off_route_m": 285, "patch_m2": 4000, "why": "mycket flackt (1.9\u00b0), morgonsol 06:30, liten hojd, kalluft rinner undan, vatten 140 m", "access": 1.0, "usefulness": 0.964, "rank": 9}, "geometry": {"type": "Point", "coordinates": [12.657066, 62.973184]}}, {"type": "Feature", "properties": {"score": 0.963, "elev_m": 679, "slope_deg": 1.8, "first_light": 6.5, "sun_morning_h": 4.0, "twi": 5.75, "tpi_m": 2.4, "rough_m": 0.47, "water_m": 158, "wetland_m": 456, "hut_m": 2398, "trail_m": 82, "route_km": 79.8, "off_route_m": 91, "patch_m2": 5700, "why": "mycket flackt (1.8\u00b0), morgonsol 06:30, liten hojd, kalluft rinner undan, vatten 160 m", "access": 1.0, "usefulness": 0.963, "rank": 10}, "geometry": {"type": "Point", "coordinates": [13.0209, 63.107768]}}, {"type": "Feature", "properties": {"score": 0.963, "elev_m": 884, "slope_deg": 1.8, "first_light": 6.5, "sun_morning_h": 4.0, "twi": 5.75, "tpi_m": 2.0, "rough_m": 0.35, "water_m": 344, "wetland_m": 3722, "hut_m": 1888, "trail_m": 184, "route_km": 49.7, "off_route_m": 189, "patch_m2": 4500, "why": "mycket flackt (1.8\u00b0), morgonsol 06:30, liten hojd, kalluft rinner undan, vatten 340 m", "access": 1.0, "usefulness": 0.963, "rank": 11}, "geometry": {"type": "Point", "coordinates": [12.768496, 63.030929]}}, {"type": "Feature", "properties": {"score": 0.963, "elev_m": 892, "slope_deg": 2.1, "first_light": 6.5, "sun_morning_h": 4.0, "twi": 5.62, "tpi_m": 2.6, "rough_m": 0.43, "water_m": 183, "wetland_m": 4360, "hut_m": 2679, "trail_m": 106, "route_km": 48.7, "off_route_m": 112, "patch_m2": 10500, "why": "flackt (2.1\u00b0), morgonsol 06:30, liten hojd, kalluft rinner undan, vatten 180 m", "access": 1.0, "usefulness": 0.963, "rank": 12}, "geometry": {"type": "Point", "coordinates": [12.758252, 63.02529]}}, {"type": "Feature", "properties": {"score": 0.963, "elev_m": 942, "slope_deg": 2.0, "first_light": 6.5, "sun_morning_h": 4.0, "twi": 5.67, "tpi_m": 4.7, "rough_m": 0.61, "water_m": 125, "wetland_m": 411, "hut_m": 3235, "trail_m": 264, "route_km": 37.0, "off_route_m": 265, "patch_m2": 9100, "why": "mycket flackt (2.0\u00b0), morgonsol 06:30, liten hojd, kalluft rinner undan, vatten 130 m", "access": 1.0, "usefulness": 0.963, "rank": 13}, "geometry": {"type": "Point", "coordinates": [12.595257, 62.983281]}}, {"type": "Feature", "properties": {"score": 0.962, "elev_m": 599, "slope_deg": 2.0, "first_light": 6.5, "sun_morning_h": 4.0, "twi": 5.65, "tpi_m": 5.9, "rough_m": 0.43, "water_m": 230, "wetland_m": 233, "hut_m": 1652, "trail_m": 53, "route_km": 2.2, "off_route_m": 61, "patch_m2": 17700, "why": "flackt (2.0\u00b0), morgonsol 06:30, liten hojd, kalluft rinner undan, vatten 230 m", "access": 1.0, "usefulness": 0.962, "rank": 14}, "geometry": {"type": "Point", "coordinates": [12.926209, 63.143048]}}, {"type": "Feature", "properties": {"score": 0.962, "elev_m": 613, "slope_deg": 2.0, "first_light": 6.5, "sun_morning_h": 4.0, "twi": 5.66, "tpi_m": 4.1, "rough_m": 0.47, "water_m": 220, "wetland_m": 472, "hut_m": 2185, "trail_m": 245, "route_km": 3.9, "off_route_m": 246, "patch_m2": 4700, "why": "mycket flackt (2.0\u00b0), morgonsol 06:30, liten hojd, kalluft rinner undan, vatten 220 m", "access": 1.0, "usefulness": 0.962, "rank": 15}, "geometry": {"type": "Point", "coordinates": [12.896976, 63.135614]}}, {"type": "Feature", "properties": {"score": 0.962, "elev_m": 607, "slope_deg": 1.9, "first_light": 6.5, "sun_morning_h": 4.0, "twi": 5.73, "tpi_m": 4.5, "rough_m": 0.35, "water_m": 143, "wetland_m": 234, "hut_m": 2418, "trail_m": 230, "route_km": 4.1, "off_route_m": 233, "patch_m2": 7800, "why": "mycket flackt (1.9\u00b0), morgonsol 06:30, liten hojd, kalluft rinner undan, vatten 140 m", "access": 1.0, "usefulness": 0.962, "rank": 16}, "geometry": {"type": "Point", "coordinates": [12.906678, 63.133154]}}, {"type": "Feature", "properties": {"score": 0.962, "elev_m": 803, "slope_deg": 1.7, "first_light": 6.5, "sun_morning_h": 4.0, "twi": 5.84, "tpi_m": 3.0, "rough_m": 0.35, "water_m": 190, "wetland_m": 286, "hut_m": 5634, "trail_m": 235, "route_km": 60.7, "off_route_m": 237, "patch_m2": 20900, "why": "mycket flackt (1.7\u00b0), morgonsol 06:30, liten hojd, kalluft rinner undan, vatten 190 m", "access": 1.0, "usefulness": 0.962, "rank": 17}, "geometry": {"type": "Point", "coordinates": [12.952181, 63.056153]}}, {"type": "Feature", "properties": {"score": 0.962, "elev_m": 927, "slope_deg": 1.7, "first_light": 6.5, "sun_morning_h": 4.0, "twi": 5.8, "tpi_m": 2.0, "rough_m": 0.35, "water_m": 182, "wetland_m": 806, "hut_m": 287, "trail_m": 247, "route_km": 40.2, "off_route_m": 250, "patch_m2": 41000, "why": "mycket flackt (1.7\u00b0), morgonsol 06:30, liten hojd, kalluft rinner undan, vatten 180 m", "access": 1.0, "usefulness": 0.962, "rank": 18}, "geometry": {"type": "Point", "coordinates": [12.654116, 62.977984]}}, {"type": "Feature", "properties": {"score": 0.961, "elev_m": 680, "slope_deg": 1.8, "first_light": 6.5, "sun_morning_h": 4.0, "twi": 5.77, "tpi_m": 1.3, "rough_m": 0.61, "water_m": 345, "wetland_m": 364, "hut_m": 1527, "trail_m": 90, "route_km": 78.9, "off_route_m": 88, "patch_m2": 13900, "why": "mycket flackt (1.8\u00b0), morgonsol 06:30, liten hojd, kalluft rinner undan, vatten 350 m", "access": 1.0, "usefulness": 0.961, "rank": 19}, "geometry": {"type": "Point", "coordinates": [13.038285, 63.108638]}}, {"type": "Feature", "properties": {"score": 0.961, "elev_m": 886, "slope_deg": 1.9, "first_light": 6.5, "sun_morning_h": 4.0, "twi": 5.73, "tpi_m": 1.4, "rough_m": 0.5, "water_m": 140, "wetland_m": 3129, "hut_m": 1035, "trail_m": 85, "route_km": 50.6, "off_route_m": 273, "patch_m2": 17000, "why": "mycket flackt (1.9\u00b0), morgonsol 06:30, liten hojd, kalluft rinner undan, vatten 140 m", "access": 1.0, "usefulness": 0.961, "rank": 20}, "geometry": {"type": "Point", "coordinates": [12.779608, 63.038198]}}, {"type": "Feature", "properties": {"score": 0.957, "elev_m": 717, "slope_deg": 2.1, "first_light": 6.5, "sun_morning_h": 4.0, "twi": 5.63, "tpi_m": -0.1, "rough_m": 0.64, "water_m": 404, "wetland_m": 254, "hut_m": 675, "trail_m": 165, "route_km": 76.6, "off_route_m": 234, "patch_m2": 5700, "why": "flackt (2.1\u00b0), morgonsol 06:30, vatten 400 m", "access": 1.0, "usefulness": 0.957, "rank": 21}, "geometry": {"type": "Point", "coordinates": [13.074997, 63.102049]}}, {"type": "Feature", "properties": {"score": 0.957, "elev_m": 939, "slope_deg": 1.9, "first_light": 6.5, "sun_morning_h": 4.0, "twi": 5.7, "tpi_m": -0.4, "rough_m": 0.35, "water_m": 230, "wetland_m": 1399, "hut_m": 695, "trail_m": 247, "route_km": 41.0, "off_route_m": 250, "patch_m2": 4900, "why": "mycket flackt (1.9\u00b0), morgonsol 06:30, vatten 230 m", "access": 1.0, "usefulness": 0.957, "rank": 22}, "geometry": {"type": "Point", "coordinates": [12.663531, 62.981193]}}, {"type": "Feature", "properties": {"score": 0.956, "elev_m": 874, "slope_deg": 2.0, "first_light": 6.5, "sun_morning_h": 4.0, "twi": 5.67, "tpi_m": 1.1, "rough_m": 0.61, "water_m": 100, "wetland_m": 3703, "hut_m": 2093, "trail_m": 94, "route_km": 49.3, "off_route_m": 100, "patch_m2": 14300, "why": "mycket flackt (2.0\u00b0), morgonsol 06:30, liten hojd, kalluft rinner undan, vatten 100 m", "access": 1.0, "usefulness": 0.956, "rank": 23}, "geometry": {"type": "Point", "coordinates": [12.770786, 63.026835]}}, {"type": "Feature", "properties": {"score": 0.956, "elev_m": 934, "slope_deg": 1.6, "first_light": 6.5, "sun_morning_h": 4.0, "twi": 5.88, "tpi_m": 0.4, "rough_m": 0.43, "water_m": 177, "wetland_m": 247, "hut_m": 2857, "trail_m": 288, "route_km": 37.4, "off_route_m": 293, "patch_m2": 51800, "why": "mycket flackt (1.6\u00b0), morgonsol 06:30, vatten 180 m", "access": 1.0, "usefulness": 0.956, "rank": 24}, "geometry": {"type": "Point", "coordinates": [12.601757, 62.981056]}}, {"type": "Feature", "properties": {"score": 0.955, "elev_m": 656, "slope_deg": 2.0, "first_light": 6.5, "sun_morning_h": 4.0, "twi": 5.68, "tpi_m": -0.4, "rough_m": 0.47, "water_m": 343, "wetland_m": 231, "hut_m": 3237, "trail_m": 102, "route_km": 81.0, "off_route_m": 115, "patch_m2": 5200, "why": "mycket flackt (2.0\u00b0), morgonsol 06:30, vatten 340 m", "access": 1.0, "usefulness": 0.955, "rank": 25}, "geometry": {"type": "Point", "coordinates": [13.006887, 63.115563]}}, {"type": "Feature", "properties": {"score": 0.955, "elev_m": 929, "slope_deg": 1.7, "first_light": 6.5, "sun_morning_h": 4.0, "twi": 5.82, "tpi_m": -0.4, "rough_m": 0.35, "water_m": 277, "wetland_m": 254, "hut_m": 1268, "trail_m": 107, "route_km": 38.9, "off_route_m": 122, "patch_m2": 17600, "why": "mycket flackt (1.7\u00b0), morgonsol 06:30, vatten 280 m", "access": 1.0, "usefulness": 0.955, "rank": 26}, "geometry": {"type": "Point", "coordinates": [12.633092, 62.97925]}}, {"type": "Feature", "properties": {"score": 0.954, "elev_m": 595, "slope_deg": 2.0, "first_light": 6.5, "sun_morning_h": 4.0, "twi": 5.65, "tpi_m": 3.5, "rough_m": 0.68, "water_m": 236, "wetland_m": 161, "hut_m": 895, "trail_m": 177, "route_km": 0.7, "off_route_m": 188, "patch_m2": 4600, "why": "flackt (2.0\u00b0), morgonsol 06:30, liten hojd, kalluft rinner undan, vatten 240 m", "access": 1.0, "usefulness": 0.954, "rank": 27}, "geometry": {"type": "Point", "coordinates": [12.951545, 63.146827]}}, {"type": "Feature", "properties": {"score": 0.954, "elev_m": 1022, "slope_deg": 2.0, "first_light": 7.0, "sun_morning_h": 3.5, "twi": 5.66, "tpi_m": 4.1, "rough_m": 0.61, "water_m": 224, "wetland_m": 5624, "hut_m": 1217, "trail_m": 296, "route_km": 22.8, "off_route_m": 297, "patch_m2": 14400, "why": "mycket flackt (2.0\u00b0), morgonsol 07:00, liten hojd, kalluft rinner undan, vatten 220 m", "access": 1.0, "usefulness": 0.954, "rank": 28}, "geometry": {"type": "Point", "coordinates": [12.590098, 63.086552]}}, {"type": "Feature", "properties": {"score": 0.954, "elev_m": 796, "slope_deg": 2.0, "first_light": 7.0, "sun_morning_h": 3.5, "twi": 5.67, "tpi_m": 5.1, "rough_m": 0.66, "water_m": 231, "wetland_m": 354, "hut_m": 1051, "trail_m": 106, "route_km": 66.0, "off_route_m": 110, "patch_m2": 5100, "why": "mycket flackt (2.0\u00b0), morgonsol 07:00, liten hojd, kalluft rinner undan, vatten 230 m", "access": 1.0, "usefulness": 0.954, "rank": 29}, "geometry": {"type": "Point", "coordinates": [13.044471, 63.057907]}}, {"type": "Feature", "properties": {"score": 0.953, "elev_m": 989, "slope_deg": 2.0, "first_light": 7.0, "sun_morning_h": 3.5, "twi": 5.68, "tpi_m": 2.9, "rough_m": 0.56, "water_m": 183, "wetland_m": 1151, "hut_m": 3362, "trail_m": 244, "route_km": 17.0, "off_route_m": 258, "patch_m2": 7400, "why": "mycket flackt (2.0\u00b0), morgonsol 07:00, liten hojd, kalluft rinner undan, vatten 180 m", "access": 1.0, "usefulness": 0.953, "rank": 30}, "geometry": {"type": "Point", "coordinates": [12.676, 63.119774]}}, {"type": "Feature", "properties": {"score": 0.953, "elev_m": 993, "slope_deg": 2.0, "first_light": 7.0, "sun_morning_h": 3.5, "twi": 5.66, "tpi_m": 4.3, "rough_m": 0.66, "water_m": 140, "wetland_m": 4402, "hut_m": 3432, "trail_m": 278, "route_km": 47.6, "off_route_m": 285, "patch_m2": 10700, "why": "mycket flackt (2.0\u00b0), morgonsol 07:00, liten hojd, kalluft rinner undan, vatten 140 m", "access": 1.0, "usefulness": 0.953, "rank": 31}, "geometry": {"type": "Point", "coordinates": [12.763243, 63.014324]}}, {"type": "Feature", "properties": {"score": 0.954, "elev_m": 871, "slope_deg": 2.0, "first_light": 7.0, "sun_morning_h": 3.5, "twi": 5.67, "tpi_m": 4.6, "rough_m": 0.43, "water_m": 362, "wetland_m": 579, "hut_m": 550, "trail_m": 230, "route_km": 72.7, "off_route_m": 306, "patch_m2": 39000, "why": "mycket flackt (2.0\u00b0), morgonsol 07:00, liten hojd, kalluft rinner undan, vatten 360 m", "access": 0.996, "usefulness": 0.9527, "rank": 32}, "geometry": {"type": "Point", "coordinates": [13.142708, 63.084458]}}, {"type": "Feature", "properties": {"score": 0.952, "elev_m": 601, "slope_deg": 2.0, "first_light": 6.5, "sun_morning_h": 4.0, "twi": 5.66, "tpi_m": 3.9, "rough_m": 0.4, "water_m": 192, "wetland_m": 139, "hut_m": 1344, "trail_m": 228, "route_km": 2.9, "off_route_m": 225, "patch_m2": 9100, "why": "flackt (2.0\u00b0), morgonsol 06:30, liten hojd, kalluft rinner undan, vatten 190 m", "access": 1.0, "usefulness": 0.952, "rank": 33}, "geometry": {"type": "Point", "coordinates": [12.913878, 63.143406]}}, {"type": "Feature", "properties": {"score": 0.952, "elev_m": 1072, "slope_deg": 1.9, "first_light": 7.0, "sun_morning_h": 3.5, "twi": 5.72, "tpi_m": 3.7, "rough_m": 0.5, "water_m": 143, "wetland_m": 2198, "hut_m": 2741, "trail_m": 152, "route_km": 18.8, "off_route_m": 154, "patch_m2": 10300, "why": "mycket flackt (1.9\u00b0), morgonsol 07:00, liten hojd, kalluft rinner undan, vatten 140 m", "access": 1.0, "usefulness": 0.952, "rank": 34}, "geometry": {"type": "Point", "coordinates": [12.652762, 63.107898]}}, {"type": "Feature", "properties": {"score": 0.951, "elev_m": 1007, "slope_deg": 1.9, "first_light": 7.0, "sun_morning_h": 3.5, "twi": 5.73, "tpi_m": 2.1, "rough_m": 0.79, "water_m": 150, "wetland_m": 1578, "hut_m": 3617, "trail_m": 254, "route_km": 17.9, "off_route_m": 257, "patch_m2": 4300, "why": "mycket flackt (1.9\u00b0), morgonsol 07:00, liten hojd, kalluft rinner undan, vatten 150 m", "access": 1.0, "usefulness": 0.951, "rank": 35}, "geometry": {"type": "Point", "coordinates": [12.664166, 63.114013]}}, {"type": "Feature", "properties": {"score": 0.951, "elev_m": 802, "slope_deg": 2.0, "first_light": 7.0, "sun_morning_h": 3.5, "twi": 5.66, "tpi_m": 1.4, "rough_m": 0.56, "water_m": 222, "wetland_m": 341, "hut_m": 5262, "trail_m": 143, "route_km": 61.0, "off_route_m": 152, "patch_m2": 8900, "why": "flackt (2.0\u00b0), morgonsol 07:00, liten hojd, kalluft rinner undan, vatten 220 m", "access": 1.0, "usefulness": 0.951, "rank": 36}, "geometry": {"type": "Point", "coordinates": [12.959984, 63.054919]}}, {"type": "Feature", "properties": {"score": 0.951, "elev_m": 955, "slope_deg": 2.1, "first_light": 7.0, "sun_morning_h": 3.5, "twi": 5.63, "tpi_m": 6.0, "rough_m": 0.43, "water_m": 290, "wetland_m": 2258, "hut_m": 1484, "trail_m": 278, "route_km": 41.8, "off_route_m": 282, "patch_m2": 4500, "why": "flackt (2.1\u00b0), morgonsol 07:00, liten hojd, kalluft rinner undan, vatten 290 m", "access": 1.0, "usefulness": 0.951, "rank": 37}, "geometry": {"type": "Point", "coordinates": [12.684104, 62.980634]}}, {"type": "Feature", "properties": {"score": 0.95, "elev_m": 1046, "slope_deg": 1.7, "first_light": 6.5, "sun_morning_h": 4.0, "twi": 5.83, "tpi_m": -1.4, "rough_m": 0.5, "water_m": 170, "wetland_m": 6443, "hut_m": 1961, "trail_m": 148, "route_km": 23.6, "off_route_m": 150, "patch_m2": 4700, "why": "mycket flackt (1.7\u00b0), morgonsol 06:30, vatten 170 m", "access": 1.0, "usefulness": 0.95, "rank": 38}, "geometry": {"type": "Point", "coordinates": [12.587191, 63.0786]}}, {"type": "Feature", "properties": {"score": 0.949, "elev_m": 616, "slope_deg": 2.1, "first_light": 6.5, "sun_morning_h": 4.0, "twi": 5.63, "tpi_m": 9.5, "rough_m": 0.4, "water_m": 136, "wetland_m": 900, "hut_m": 2775, "trail_m": 170, "route_km": 5.1, "off_route_m": 170, "patch_m2": 5200, "why": "flackt (2.1\u00b0), morgonsol 06:30, liten hojd, kalluft rinner undan, vatten 140 m", "access": 1.0, "usefulness": 0.949, "rank": 39}, "geometry": {"type": "Point", "coordinates": [12.884354, 63.131835]}}, {"type": "Feature", "properties": {"score": 0.953, "elev_m": 836, "slope_deg": 1.8, "first_light": 7.0, "sun_morning_h": 3.5, "twi": 5.74, "tpi_m": 4.5, "rough_m": 0.5, "water_m": 172, "wetland_m": 264, "hut_m": 2050, "trail_m": 42, "route_km": 69.3, "off_route_m": 322, "patch_m2": 5300, "why": "mycket flackt (1.8\u00b0), morgonsol 07:00, liten hojd, kalluft rinner undan, vatten 170 m", "access": 0.987, "usefulness": 0.9481, "rank": 40}, "geometry": {"type": "Point", "coordinates": [13.079681, 63.079128]}}, {"type": "Feature", "properties": {"score": 0.948, "elev_m": 710, "slope_deg": 2.1, "first_light": 6.5, "sun_morning_h": 4.0, "twi": 5.62, "tpi_m": 2.9, "rough_m": 0.43, "water_m": 360, "wetland_m": 134, "hut_m": 367, "trail_m": 233, "route_km": 77.0, "off_route_m": 234, "patch_m2": 7800, "why": "flackt (2.1\u00b0), morgonsol 06:30, liten hojd, kalluft rinner undan, vatten 360 m", "access": 1.0, "usefulness": 0.948, "rank": 41}, "geometry": {"type": "Point", "coordinates": [13.075661, 63.106996]}}, {"type": "Feature", "properties": {"score": 0.948, "elev_m": 858, "slope_deg": 1.4, "first_light": 7.0, "sun_morning_h": 3.5, "twi": 6.0, "tpi_m": 3.4, "rough_m": 0.5, "water_m": 151, "wetland_m": 583, "hut_m": 1615, "trail_m": 130, "route_km": 53.7, "off_route_m": 143, "patch_m2": 4800, "why": "mycket flackt (1.4\u00b0), morgonsol 07:00, liten hojd, kalluft rinner undan, vatten 150 m", "access": 1.0, "usefulness": 0.948, "rank": 42}, "geometry": {"type": "Point", "coordinates": [12.831199, 63.038549]}}, {"type": "Feature", "properties": {"score": 0.948, "elev_m": 919, "slope_deg": 2.0, "first_light": 7.0, "sun_morning_h": 3.5, "twi": 5.65, "tpi_m": 0.4, "rough_m": 0.66, "water_m": 152, "wetland_m": 6685, "hut_m": 1939, "trail_m": 136, "route_km": 30.1, "off_route_m": 149, "patch_m2": 6400, "why": "flackt (2.0\u00b0), morgonsol 07:00, vatten 150 m", "access": 1.0, "usefulness": 0.948, "rank": 43}, "geometry": {"type": "Point", "coordinates": [12.523191, 63.02999]}}, {"type": "Feature", "properties": {"score": 0.948, "elev_m": 930, "slope_deg": 1.9, "first_light": 6.5, "sun_morning_h": 4.0, "twi": 5.7, "tpi_m": 0.8, "rough_m": 0.71, "water_m": 60, "wetland_m": 241, "hut_m": 723, "trail_m": 78, "route_km": 39.5, "off_route_m": 83, "patch_m2": 7100, "why": "mycket flackt (1.9\u00b0), morgonsol 06:30, vatten 60 m", "access": 1.0, "usefulness": 0.948, "rank": 44}, "geometry": {"type": "Point", "coordinates": [12.642631, 62.975997]}}, {"type": "Feature", "properties": {"score": 0.966, "elev_m": 811, "slope_deg": 2.0, "first_light": 6.5, "sun_morning_h": 4.0, "twi": 5.65, "tpi_m": 4.1, "rough_m": 0.66, "water_m": 240, "wetland_m": 497, "hut_m": 6567, "trail_m": 371, "route_km": 59.8, "off_route_m": 382, "patch_m2": 5300, "why": "flackt (2.0\u00b0), morgonsol 06:30, liten hojd, kalluft rinner undan, vatten 240 m", "access": 0.952, "usefulness": 0.9474, "rank": 45}, "geometry": {"type": "Point", "coordinates": [12.934364, 63.05347]}}, {"type": "Feature", "properties": {"score": 0.959, "elev_m": 867, "slope_deg": 1.7, "first_light": 6.5, "sun_morning_h": 4.0, "twi": 5.81, "tpi_m": 2.1, "rough_m": 0.56, "water_m": 130, "wetland_m": 3302, "hut_m": 1707, "trail_m": 349, "route_km": 49.7, "off_route_m": 352, "patch_m2": 14700, "why": "mycket flackt (1.7\u00b0), morgonsol 06:30, liten hojd, kalluft rinner undan, vatten 130 m", "access": 0.969, "usefulness": 0.9473, "rank": 46}, "geometry": {"type": "Point", "coordinates": [12.777969, 63.028564]}}, {"type": "Feature", "properties": {"score": 0.947, "elev_m": 759, "slope_deg": 2.0, "first_light": 6.5, "sun_morning_h": 4.0, "twi": 5.68, "tpi_m": -0.7, "rough_m": 0.5, "water_m": 447, "wetland_m": 272, "hut_m": 1232, "trail_m": 80, "route_km": 75.3, "off_route_m": 81, "patch_m2": 5500, "why": "mycket flackt (2.0\u00b0), morgonsol 06:30, vatten 450 m", "access": 1.0, "usefulness": 0.947, "rank": 47}, "geometry": {"type": "Point", "coordinates": [13.1016, 63.10133]}}, {"type": "Feature", "properties": {"score": 0.947, "elev_m": 1050, "slope_deg": 2.0, "first_light": 7.0, "sun_morning_h": 3.5, "twi": 5.66, "tpi_m": 1.9, "rough_m": 0.61, "water_m": 110, "wetland_m": 5692, "hut_m": 1207, "trail_m": 208, "route_km": 22.8, "off_route_m": 219, "patch_m2": 6100, "why": "mycket flackt (2.0\u00b0), morgonsol 07:00, liten hojd, kalluft rinner undan, vatten 110 m", "access": 1.0, "usefulness": 0.947, "rank": 48}, "geometry": {"type": "Point", "coordinates": [12.597874, 63.083541]}}, {"type": "Feature", "properties": {"score": 0.947, "elev_m": 1051, "slope_deg": 2.2, "first_light": 6.5, "sun_morning_h": 4.0, "twi": 5.56, "tpi_m": 3.7, "rough_m": 0.79, "water_m": 63, "wetland_m": 4457, "hut_m": 3694, "trail_m": 82, "route_km": 44.1, "off_route_m": 82, "patch_m2": 7300, "why": "flackt (2.2\u00b0), morgonsol 06:30, liten hojd, kalluft rinner undan, vatten 60 m", "access": 1.0, "usefulness": 0.947, "rank": 49}, "geometry": {"type": "Point", "coordinates": [12.715102, 62.995686]}}, {"type": "Feature", "properties": {"score": 0.947, "elev_m": 1022, "slope_deg": 2.0, "first_light": 7.0, "sun_morning_h": 3.5, "twi": 5.68, "tpi_m": 0.6, "rough_m": 0.5, "water_m": 133, "wetland_m": 4731, "hut_m": 3956, "trail_m": 252, "route_km": 44.4, "off_route_m": 254, "patch_m2": 12300, "why": "mycket flackt (2.0\u00b0), morgonsol 07:00, vatten 130 m", "access": 1.0, "usefulness": 0.947, "rank": 50}, "geometry": {"type": "Point", "coordinates": [12.724349, 62.99359]}}, {"type": "Feature", "properties": {"score": 0.946, "elev_m": 696, "slope_deg": 1.8, "first_light": 6.5, "sun_morning_h": 4.0, "twi": 5.74, "tpi_m": 4.0, "rough_m": 0.31, "water_m": 392, "wetland_m": 114, "hut_m": 871, "trail_m": 215, "route_km": 78.1, "off_route_m": 225, "patch_m2": 18800, "why": "mycket flackt (1.8\u00b0), morgonsol 06:30, liten hojd, kalluft rinner undan, vatten 390 m", "access": 1.0, "usefulness": 0.946, "rank": 51}, "geometry": {"type": "Point", "coordinates": [13.051542, 63.109001]}}, {"type": "Feature", "properties": {"score": 0.945, "elev_m": 855, "slope_deg": 2.0, "first_light": 7.0, "sun_morning_h": 3.5, "twi": 5.68, "tpi_m": -0.2, "rough_m": 0.66, "water_m": 138, "wetland_m": 924, "hut_m": 1263, "trail_m": 40, "route_km": 53.1, "off_route_m": 40, "patch_m2": 5400, "why": "mycket flackt (2.0\u00b0), morgonsol 07:00, vatten 140 m", "access": 1.0, "usefulness": 0.945, "rank": 52}, "geometry": {"type": "Point", "coordinates": [12.823043, 63.036538]}}, {"type": "Feature", "properties": {"score": 0.944, "elev_m": 997, "slope_deg": 1.3, "first_light": 6.5, "sun_morning_h": 4.0, "twi": 6.11, "tpi_m": 1.4, "rough_m": 0.35, "water_m": 72, "wetland_m": 4848, "hut_m": 440, "trail_m": 191, "route_km": 22.0, "off_route_m": 199, "patch_m2": 7700, "why": "mycket flackt (1.3\u00b0), morgonsol 06:30, liten hojd, kalluft rinner undan, vatten 70 m", "access": 1.0, "usefulness": 0.944, "rank": 53}, "geometry": {"type": "Point", "coordinates": [12.601584, 63.091416]}}, {"type": "Feature", "properties": {"score": 0.944, "elev_m": 872, "slope_deg": 1.9, "first_light": 6.5, "sun_morning_h": 4.0, "twi": 5.73, "tpi_m": 1.4, "rough_m": 0.56, "water_m": 113, "wetland_m": 2950, "hut_m": 1030, "trail_m": 111, "route_km": 50.5, "off_route_m": 127, "patch_m2": 5300, "why": "mycket flackt (1.9\u00b0), morgonsol 06:30, liten hojd, kalluft rinner undan, vatten 110 m", "access": 1.0, "usefulness": 0.944, "rank": 54}, "geometry": {"type": "Point", "coordinates": [12.783021, 63.034929]}}, {"type": "Feature", "properties": {"score": 0.943, "elev_m": 765, "slope_deg": 2.0, "first_light": 7.0, "sun_morning_h": 3.5, "twi": 5.68, "tpi_m": 5.4, "rough_m": 0.61, "water_m": 72, "wetland_m": 810, "hut_m": 1930, "trail_m": 123, "route_km": 64.9, "off_route_m": 129, "patch_m2": 4100, "why": "mycket flackt (2.0\u00b0), morgonsol 07:00, liten hojd, kalluft rinner undan, vatten 70 m", "access": 1.0, "usefulness": 0.943, "rank": 55}, "geometry": {"type": "Point", "coordinates": [13.024588, 63.06221]}}, {"type": "Feature", "properties": {"score": 0.942, "elev_m": 591, "slope_deg": 1.9, "first_light": 7.0, "sun_morning_h": 3.5, "twi": 5.7, "tpi_m": 2.1, "rough_m": 0.4, "water_m": 264, "wetland_m": 174, "hut_m": 846, "trail_m": 148, "route_km": 0.3, "off_route_m": 149, "patch_m2": 10400, "why": "mycket flackt (1.9\u00b0), morgonsol 07:00, liten hojd, kalluft rinner undan, vatten 260 m", "access": 1.0, "usefulness": 0.942, "rank": 56}, "geometry": {"type": "Point", "coordinates": [12.961076, 63.146785]}}, {"type": "Feature", "properties": {"score": 0.941, "elev_m": 584, "slope_deg": 2.0, "first_light": 6.5, "sun_morning_h": 4.0, "twi": 5.66, "tpi_m": 3.9, "rough_m": 0.5, "water_m": 177, "wetland_m": 63, "hut_m": 856, "trail_m": 141, "route_km": 84.5, "off_route_m": 146, "patch_m2": 7900, "why": "flackt (2.0\u00b0), morgonsol 06:30, liten hojd, kalluft rinner undan, vatten 180 m", "access": 1.0, "usefulness": 0.941, "rank": 57}, "geometry": {"type": "Point", "coordinates": [12.974906, 63.139172]}}, {"type": "Feature", "properties": {"score": 0.941, "elev_m": 701, "slope_deg": 1.6, "first_light": 6.5, "sun_morning_h": 4.0, "twi": 5.88, "tpi_m": 1.4, "rough_m": 0.35, "water_m": 308, "wetland_m": 114, "hut_m": 409, "trail_m": 162, "route_km": 77.6, "off_route_m": 268, "patch_m2": 4700, "why": "mycket flackt (1.6\u00b0), morgonsol 06:30, liten hojd, kalluft rinner undan, vatten 310 m", "access": 1.0, "usefulness": 0.941, "rank": 58}, "geometry": {"type": "Point", "coordinates": [13.061253, 63.109044]}}, {"type": "Feature", "properties": {"score": 0.941, "elev_m": 756, "slope_deg": 1.8, "first_light": 7.0, "sun_morning_h": 3.5, "twi": 5.75, "tpi_m": 3.0, "rough_m": 0.9, "water_m": 90, "wetland_m": 224, "hut_m": 5053, "trail_m": 275, "route_km": 57.8, "off_route_m": 276, "patch_m2": 10200, "why": "mycket flackt (1.8\u00b0), morgonsol 07:00, liten hojd, kalluft rinner undan, vatten 90 m", "access": 1.0, "usefulness": 0.941, "rank": 59}, "geometry": {"type": "Point", "coordinates": [12.898711, 63.045763]}}, {"type": "Feature", "properties": {"score": 0.939, "elev_m": 592, "slope_deg": 1.9, "first_light": 6.5, "sun_morning_h": 4.0, "twi": 5.7, "tpi_m": 1.3, "rough_m": 0.79, "water_m": 106, "wetland_m": 150, "hut_m": 1847, "trail_m": 264, "route_km": 2.8, "off_route_m": 267, "patch_m2": 10200, "why": "mycket flackt (1.9\u00b0), morgonsol 06:30, liten hojd, kalluft rinner undan, vatten 110 m", "access": 1.0, "usefulness": 0.939, "rank": 60}, "geometry": {"type": "Point", "coordinates": [12.918337, 63.139341]}}, {"type": "Feature", "properties": {"score": 0.939, "elev_m": 583, "slope_deg": 2.0, "first_light": 7.0, "sun_morning_h": 3.5, "twi": 5.67, "tpi_m": 3.2, "rough_m": 0.47, "water_m": 161, "wetland_m": 138, "hut_m": 1527, "trail_m": 36, "route_km": 84.0, "off_route_m": 247, "patch_m2": 11000, "why": "mycket flackt (2.0\u00b0), morgonsol 07:00, liten hojd, kalluft rinner undan, vatten 160 m", "access": 1.0, "usefulness": 0.939, "rank": 61}, "geometry": {"type": "Point", "coordinates": [12.988107, 63.140527]}}, {"type": "Feature", "properties": {"score": 0.939, "elev_m": 809, "slope_deg": 1.9, "first_light": 7.5, "sun_morning_h": 3.0, "twi": 5.73, "tpi_m": 2.9, "rough_m": 0.43, "water_m": 290, "wetland_m": 579, "hut_m": 1220, "trail_m": 170, "route_km": 68.6, "off_route_m": 175, "patch_m2": 9200, "why": "mycket flackt (1.9\u00b0), morgonsol 07:30, liten hojd, kalluft rinner undan, vatten 290 m", "access": 1.0, "usefulness": 0.939, "rank": 62}, "geometry": {"type": "Point", "coordinates": [13.0684, 63.073049]}}, {"type": "Feature", "properties": {"score": 0.94, "elev_m": 1080, "slope_deg": 1.4, "first_light": 7.0, "sun_morning_h": 3.5, "twi": 5.99, "tpi_m": 8.2, "rough_m": 0.71, "water_m": 388, "wetland_m": 6944, "hut_m": 2460, "trail_m": 298, "route_km": 24.0, "off_route_m": 306, "patch_m2": 4900, "why": "mycket flackt (1.4\u00b0), morgonsol 07:00, liten hojd, kalluft rinner undan, vatten 390 m", "access": 0.996, "usefulness": 0.9387, "rank": 63}, "geometry": {"type": "Point", "coordinates": [12.582977, 63.074487]}}, {"type": "Feature", "properties": {"score": 0.957, "elev_m": 815, "slope_deg": 1.9, "first_light": 6.5, "sun_morning_h": 4.0, "twi": 5.71, "tpi_m": 8.2, "rough_m": 0.35, "water_m": 376, "wetland_m": 488, "hut_m": 501, "trail_m": 384, "route_km": 74.2, "off_route_m": 389, "patch_m2": 19900, "why": "mycket flackt (1.9\u00b0), morgonsol 06:30, liten hojd, kalluft rinner undan, vatten 380 m", "access": 0.948, "usefulness": 0.937, "rank": 64}, "geometry": {"type": "Point", "coordinates": [13.122605, 63.098288]}}, {"type": "Feature", "properties": {"score": 0.936, "elev_m": 952, "slope_deg": 1.6, "first_light": 7.0, "sun_morning_h": 3.5, "twi": 5.89, "tpi_m": -1.0, "rough_m": 0.66, "water_m": 125, "wetland_m": 1118, "hut_m": 3756, "trail_m": 111, "route_km": 36.2, "off_route_m": 116, "patch_m2": 6100, "why": "mycket flackt (1.6\u00b0), morgonsol 07:00, vatten 130 m", "access": 1.0, "usefulness": 0.936, "rank": 65}, "geometry": {"type": "Point", "coordinates": [12.589038, 62.989281]}}, {"type": "Feature", "properties": {"score": 0.936, "elev_m": 931, "slope_deg": 2.0, "first_light": 6.5, "sun_morning_h": 4.0, "twi": 5.65, "tpi_m": -0.7, "rough_m": 0.43, "water_m": 80, "wetland_m": 165, "hut_m": 1745, "trail_m": 111, "route_km": 38.4, "off_route_m": 114, "patch_m2": 5500, "why": "flackt (2.0\u00b0), morgonsol 06:30, vatten 80 m", "access": 1.0, "usefulness": 0.936, "rank": 66}, "geometry": {"type": "Point", "coordinates": [12.62393, 62.980264]}}, {"type": "Feature", "properties": {"score": 0.95, "elev_m": 1218, "slope_deg": 1.8, "first_light": 6.5, "sun_morning_h": 4.0, "twi": 5.74, "tpi_m": 3.0, "rough_m": 0.5, "water_m": 528, "wetland_m": 8798, "hut_m": 1499, "trail_m": 360, "route_km": 26.1, "off_route_m": 365, "patch_m2": 5900, "why": "mycket flackt (1.8\u00b0), morgonsol 06:30, liten hojd, kalluft rinner undan, vatten 530 m", "access": 0.962, "usefulness": 0.9355, "rank": 67}, "geometry": {"type": "Point", "coordinates": [12.556255, 63.062534]}}, {"type": "Feature", "properties": {"score": 0.95, "elev_m": 1012, "slope_deg": 1.9, "first_light": 6.5, "sun_morning_h": 4.0, "twi": 5.71, "tpi_m": 8.2, "rough_m": 0.56, "water_m": 469, "wetland_m": 1089, "hut_m": 3011, "trail_m": 368, "route_km": 16.6, "off_route_m": 371, "patch_m2": 10100, "why": "mycket flackt (1.9\u00b0), morgonsol 06:30, liten hojd, kalluft rinner undan, vatten 470 m", "access": 0.958, "usefulness": 0.9341, "rank": 68}, "geometry": {"type": "Point", "coordinates": [12.681493, 63.123007]}}, {"type": "Feature", "properties": {"score": 0.95, "elev_m": 859, "slope_deg": 2.0, "first_light": 7.0, "sun_morning_h": 3.5, "twi": 5.68, "tpi_m": 3.1, "rough_m": 0.79, "water_m": 120, "wetland_m": 371, "hut_m": 2116, "trail_m": 233, "route_km": 70.0, "off_route_m": 371, "patch_m2": 4400, "why": "mycket flackt (2.0\u00b0), morgonsol 07:00, liten hojd, kalluft rinner undan, vatten 120 m", "access": 0.958, "usefulness": 0.9341, "rank": 69}, "geometry": {"type": "Point", "coordinates": [13.086801, 63.082277]}}, {"type": "Feature", "properties": {"score": 0.947, "elev_m": 835, "slope_deg": 1.5, "first_light": 7.0, "sun_morning_h": 3.5, "twi": 5.93, "tpi_m": 1.6, "rough_m": 0.66, "water_m": 151, "wetland_m": 590, "hut_m": 1778, "trail_m": 356, "route_km": 53.3, "off_route_m": 362, "patch_m2": 5600, "why": "mycket flackt (1.5\u00b0), morgonsol 07:00, liten hojd, kalluft rinner undan, vatten 150 m", "access": 0.964, "usefulness": 0.9332, "rank": 70}, "geometry": {"type": "Point", "coordinates": [12.831, 63.033248]}}, {"type": "Feature", "properties": {"score": 0.936, "elev_m": 1064, "slope_deg": 1.9, "first_light": 6.5, "sun_morning_h": 4.0, "twi": 5.68, "tpi_m": 6.5, "rough_m": 0.5, "water_m": 630, "wetland_m": 5214, "hut_m": 3967, "trail_m": 313, "route_km": 46.9, "off_route_m": 317, "patch_m2": 12800, "why": "mycket flackt (1.9\u00b0), morgonsol 06:30, liten hojd, kalluft rinner undan, vatten 630 m", "access": 0.99, "usefulness": 0.9323, "rank": 71}, "geometry": {"type": "Point", "coordinates": [12.746665, 63.014061]}}, {"type": "Feature", "properties": {"score": 0.936, "elev_m": 778, "slope_deg": 2.0, "first_light": 7.0, "sun_morning_h": 3.5, "twi": 5.67, "tpi_m": 4.7, "rough_m": 0.5, "water_m": 110, "wetland_m": 150, "hut_m": 1011, "trail_m": 300, "route_km": 65.7, "off_route_m": 322, "patch_m2": 4900, "why": "mycket flackt (2.0\u00b0), morgonsol 07:00, liten hojd, kalluft rinner undan, vatten 110 m", "access": 0.987, "usefulness": 0.9312, "rank": 72}, "geometry": {"type": "Point", "coordinates": [13.043073, 63.063993]}}, {"type": "Feature", "properties": {"score": 0.949, "elev_m": 578, "slope_deg": 1.7, "first_light": 6.5, "sun_morning_h": 4.0, "twi": 5.84, "tpi_m": 0.5, "rough_m": 0.25, "water_m": 143, "wetland_m": 190, "hut_m": 687, "trail_m": 340, "route_km": 0.9, "off_route_m": 384, "patch_m2": 5300, "why": "mycket flackt (1.7\u00b0), morgonsol 06:30, vatten 140 m", "access": 0.951, "usefulness": 0.9302, "rank": 73}, "geometry": {"type": "Point", "coordinates": [12.945357, 63.14171]}}, {"type": "Feature", "properties": {"score": 0.943, "elev_m": 999, "slope_deg": 1.9, "first_light": 6.5, "sun_morning_h": 4.0, "twi": 5.71, "tpi_m": -0.6, "rough_m": 0.66, "water_m": 50, "wetland_m": 4206, "hut_m": 692, "trail_m": 368, "route_km": 21.0, "off_route_m": 369, "patch_m2": 4400, "why": "mycket flackt (1.9\u00b0), morgonsol 06:30, vatten 50 m", "access": 0.959, "usefulness": 0.9277, "rank": 74}, "geometry": {"type": "Point", "coordinates": [12.623276, 63.09268]}}, {"type": "Feature", "properties": {"score": 0.927, "elev_m": 719, "slope_deg": 1.5, "first_light": 7.0, "sun_morning_h": 3.5, "twi": 5.93, "tpi_m": -2.1, "rough_m": 0.4, "water_m": 106, "wetland_m": 389, "hut_m": 2371, "trail_m": 152, "route_km": 64.1, "off_route_m": 158, "patch_m2": 16200, "why": "mycket flackt (1.5\u00b0), morgonsol 07:00, vatten 110 m", "access": 1.0, "usefulness": 0.927, "rank": 75}, "geometry": {"type": "Point", "coordinates": [13.018089, 63.055924]}}, {"type": "Feature", "properties": {"score": 0.927, "elev_m": 766, "slope_deg": 2.0, "first_light": 7.0, "sun_morning_h": 3.5, "twi": 5.66, "tpi_m": -0.3, "rough_m": 0.71, "water_m": 100, "wetland_m": 152, "hut_m": 4305, "trail_m": 223, "route_km": 56.7, "off_route_m": 229, "patch_m2": 5800, "why": "mycket flackt (2.0\u00b0), morgonsol 07:00, vatten 100 m", "access": 1.0, "usefulness": 0.927, "rank": 76}, "geometry": {"type": "Point", "coordinates": [12.88452, 63.042319]}}, {"type": "Feature", "properties": {"score": 0.956, "elev_m": 875, "slope_deg": 1.7, "first_light": 6.5, "sun_morning_h": 4.0, "twi": 5.8, "tpi_m": 0.6, "rough_m": 0.5, "water_m": 134, "wetland_m": 2080, "hut_m": 795, "trail_m": 424, "route_km": 52.3, "off_route_m": 435, "patch_m2": 35500, "why": "mycket flackt (1.7\u00b0), morgonsol 06:30, vatten 130 m", "access": 0.921, "usefulness": 0.9256, "rank": 77}, "geometry": {"type": "Point", "coordinates": [12.800551, 63.033227]}}, {"type": "Feature", "properties": {"score": 0.949, "elev_m": 713, "slope_deg": 1.9, "first_light": 7.0, "sun_morning_h": 3.5, "twi": 5.73, "tpi_m": 6.9, "rough_m": 0.4, "water_m": 250, "wetland_m": 264, "hut_m": 3071, "trail_m": 407, "route_km": 63.2, "off_route_m": 412, "patch_m2": 13100, "why": "mycket flackt (1.9\u00b0), morgonsol 07:00, liten hojd, kalluft rinner undan, vatten 250 m", "access": 0.934, "usefulness": 0.924, "rank": 78}, "geometry": {"type": "Point", "coordinates": [13.002011, 63.062432]}}, {"type": "Feature", "properties": {"score": 0.923, "elev_m": 767, "slope_deg": 1.8, "first_light": 7.0, "sun_morning_h": 3.5, "twi": 5.75, "tpi_m": 0.7, "rough_m": 0.43, "water_m": 218, "wetland_m": 63, "hut_m": 4736, "trail_m": 44, "route_km": 57.1, "off_route_m": 50, "patch_m2": 4400, "why": "mycket flackt (1.8\u00b0), morgonsol 07:00, vatten 220 m", "access": 1.0, "usefulness": 0.923, "rank": 79}, "geometry": {"type": "Point", "coordinates": [12.893145, 63.040652]}}, {"type": "Feature", "properties": {"score": 0.923, "elev_m": 825, "slope_deg": 1.7, "first_light": 7.0, "sun_morning_h": 3.5, "twi": 5.84, "tpi_m": -0.4, "rough_m": 0.25, "water_m": 70, "wetland_m": 177, "hut_m": 2340, "trail_m": 189, "route_km": 54.3, "off_route_m": 192, "patch_m2": 12800, "why": "mycket flackt (1.7\u00b0), morgonsol 07:00, vatten 70 m", "access": 1.0, "usefulness": 0.923, "rank": 80}, "geometry": {"type": "Point", "coordinates": [12.844995, 63.036515]}}, {"type": "Feature", "properties": {"score": 0.935, "elev_m": 774, "slope_deg": 1.6, "first_light": 6.5, "sun_morning_h": 4.0, "twi": 5.86, "tpi_m": -0.8, "rough_m": 0.43, "water_m": 70, "wetland_m": 200, "hut_m": 2235, "trail_m": 352, "route_km": 11.2, "off_route_m": 355, "patch_m2": 7500, "why": "mycket flackt (1.6\u00b0), morgonsol 06:30, vatten 70 m", "access": 0.968, "usefulness": 0.9229, "rank": 81}, "geometry": {"type": "Point", "coordinates": [12.784038, 63.130842]}}, {"type": "Feature", "properties": {"score": 0.922, "elev_m": 773, "slope_deg": 1.7, "first_light": 7.0, "sun_morning_h": 3.5, "twi": 5.83, "tpi_m": -2.1, "rough_m": 0.43, "water_m": 343, "wetland_m": 181, "hut_m": 655, "trail_m": 76, "route_km": 74.7, "off_route_m": 74, "patch_m2": 5600, "why": "mycket flackt (1.7\u00b0), morgonsol 07:00, vatten 340 m", "access": 1.0, "usefulness": 0.922, "rank": 82}, "geometry": {"type": "Point", "coordinates": [13.112659, 63.098874]}}, {"type": "Feature", "properties": {"score": 0.965, "elev_m": 785, "slope_deg": 2.0, "first_light": 6.5, "sun_morning_h": 4.0, "twi": 5.67, "tpi_m": 3.0, "rough_m": 0.56, "water_m": 378, "wetland_m": 380, "hut_m": 2710, "trail_m": 492, "route_km": 10.5, "off_route_m": 493, "patch_m2": 11200, "why": "mycket flackt (2.0\u00b0), morgonsol 06:30, liten hojd, kalluft rinner undan, vatten 380 m", "access": 0.886, "usefulness": 0.9212, "rank": 83}, "geometry": {"type": "Point", "coordinates": [12.792812, 63.132864]}}, {"type": "Feature", "properties": {"score": 0.928, "elev_m": 1031, "slope_deg": 1.8, "first_light": 6.5, "sun_morning_h": 4.0, "twi": 5.78, "tpi_m": 0.4, "rough_m": 0.35, "water_m": 645, "wetland_m": 6410, "hut_m": 2000, "trail_m": 339, "route_km": 23.6, "off_route_m": 346, "patch_m2": 39200, "why": "mycket flackt (1.8\u00b0), morgonsol 06:30, vatten 650 m", "access": 0.973, "usefulness": 0.918, "rank": 84}, "geometry": {"type": "Point", "coordinates": [12.579436, 63.081341]}}, {"type": "Feature", "properties": {"score": 0.918, "elev_m": 921, "slope_deg": 1.9, "first_light": 7.5, "sun_morning_h": 3.0, "twi": 5.68, "tpi_m": -2.2, "rough_m": 0.66, "water_m": 100, "wetland_m": 6186, "hut_m": 2214, "trail_m": 106, "route_km": 30.8, "off_route_m": 111, "patch_m2": 5100, "why": "mycket flackt (1.9\u00b0), morgonsol 07:30, vatten 100 m", "access": 1.0, "usefulness": 0.918, "rank": 85}, "geometry": {"type": "Point", "coordinates": [12.529805, 63.026604]}}, {"type": "Feature", "properties": {"score": 0.928, "elev_m": 827, "slope_deg": 1.9, "first_light": 7.5, "sun_morning_h": 3.0, "twi": 5.72, "tpi_m": 0.4, "rough_m": 0.5, "water_m": 461, "wetland_m": 297, "hut_m": 3912, "trail_m": 340, "route_km": 56.0, "off_route_m": 347, "patch_m2": 4200, "why": "mycket flackt (1.9\u00b0), morgonsol 07:30, vatten 460 m", "access": 0.972, "usefulness": 0.9177, "rank": 86}, "geometry": {"type": "Point", "coordinates": [12.875789, 63.034556]}}, {"type": "Feature", "properties": {"score": 0.96, "elev_m": 896, "slope_deg": 1.9, "first_light": 6.5, "sun_morning_h": 4.0, "twi": 5.71, "tpi_m": 0.8, "rough_m": 0.43, "water_m": 147, "wetland_m": 4321, "hut_m": 2485, "trail_m": 490, "route_km": 48.8, "off_route_m": 495, "patch_m2": 15500, "why": "mycket flackt (1.9\u00b0), morgonsol 06:30, vatten 150 m", "access": 0.885, "usefulness": 0.916, "rank": 87}, "geometry": {"type": "Point", "coordinates": [12.757173, 63.029044]}}, {"type": "Feature", "properties": {"score": 0.915, "elev_m": 701, "slope_deg": 1.8, "first_light": 6.5, "sun_morning_h": 4.0, "twi": 5.77, "tpi_m": 3.5, "rough_m": 0.43, "water_m": 749, "wetland_m": 260, "hut_m": 3854, "trail_m": 240, "route_km": 7.8, "off_route_m": 238, "patch_m2": 4600, "why": "mycket flackt (1.8\u00b0), morgonsol 06:30, liten hojd, kalluft rinner undan, vatten 750 m", "access": 1.0, "usefulness": 0.915, "rank": 88}, "geometry": {"type": "Point", "coordinates": [12.838239, 63.138323]}}, {"type": "Feature", "properties": {"score": 0.957, "elev_m": 601, "slope_deg": 1.8, "first_light": 6.5, "sun_morning_h": 4.0, "twi": 5.74, "tpi_m": -0.0, "rough_m": 0.61, "water_m": 158, "wetland_m": 241, "hut_m": 3010, "trail_m": 480, "route_km": 4.4, "off_route_m": 489, "patch_m2": 7900, "why": "mycket flackt (1.8\u00b0), morgonsol 06:30, vatten 160 m", "access": 0.889, "usefulness": 0.9144, "rank": 89}, "geometry": {"type": "Point", "coordinates": [12.90011, 63.127939]}}, {"type": "Feature", "properties": {"score": 0.922, "elev_m": 901, "slope_deg": 2.1, "first_light": 7.0, "sun_morning_h": 3.5, "twi": 5.61, "tpi_m": -2.3, "rough_m": 0.56, "water_m": 60, "wetland_m": 7151, "hut_m": 1910, "trail_m": 42, "route_km": 30.0, "off_route_m": 349, "patch_m2": 4000, "why": "flackt (2.1\u00b0), morgonsol 07:00, vatten 60 m", "access": 0.971, "usefulness": 0.9114, "rank": 90}, "geometry": {"type": "Point", "coordinates": [12.514677, 63.032445]}}, {"type": "Feature", "properties": {"score": 0.933, "elev_m": 704, "slope_deg": 1.9, "first_light": 6.5, "sun_morning_h": 4.0, "twi": 5.69, "tpi_m": 0.1, "rough_m": 0.4, "water_m": 596, "wetland_m": 220, "hut_m": 546, "trail_m": 254, "route_km": 77.6, "off_route_m": 416, "patch_m2": 7400, "why": "mycket flackt (1.9\u00b0), morgonsol 06:30, vatten 600 m", "access": 0.932, "usefulness": 0.9075, "rank": 91}, "geometry": {"type": "Point", "coordinates": [13.063441, 63.102969]}}, {"type": "Feature", "properties": {"score": 0.936, "elev_m": 927, "slope_deg": 2.0, "first_light": 6.5, "sun_morning_h": 4.0, "twi": 5.68, "tpi_m": 0.6, "rough_m": 0.35, "water_m": 158, "wetland_m": 67, "hut_m": 2074, "trail_m": 427, "route_km": 38.1, "off_route_m": 431, "patch_m2": 7200, "why": "mycket flackt (2.0\u00b0), morgonsol 06:30, vatten 160 m", "access": 0.923, "usefulness": 0.9071, "rank": 92}, "geometry": {"type": "Point", "coordinates": [12.615973, 62.976179]}}, {"type": "Feature", "properties": {"score": 0.945, "elev_m": 866, "slope_deg": 2.1, "first_light": 6.5, "sun_morning_h": 4.0, "twi": 5.59, "tpi_m": 0.9, "rough_m": 0.35, "water_m": 58, "wetland_m": 2585, "hut_m": 897, "trail_m": 473, "route_km": 50.7, "off_route_m": 475, "patch_m2": 7200, "why": "flackt (2.1\u00b0), morgonsol 06:30, vatten 60 m", "access": 0.897, "usefulness": 0.9061, "rank": 93}, "geometry": {"type": "Point", "coordinates": [12.790451, 63.033429]}}, {"type": "Feature", "properties": {"score": 0.929, "elev_m": 929, "slope_deg": 2.1, "first_light": 6.5, "sun_morning_h": 4.0, "twi": 5.63, "tpi_m": -0.3, "rough_m": 0.43, "water_m": 130, "wetland_m": 60, "hut_m": 1502, "trail_m": 359, "route_km": 38.7, "off_route_m": 423, "patch_m2": 4100, "why": "flackt (2.1\u00b0), morgonsol 06:30, vatten 130 m", "access": 0.928, "usefulness": 0.9021, "rank": 94}, "geometry": {"type": "Point", "coordinates": [12.627352, 62.974574]}}, {"type": "Feature", "properties": {"score": 0.934, "elev_m": 851, "slope_deg": 2.1, "first_light": 6.5, "sun_morning_h": 4.0, "twi": 5.6, "tpi_m": 11.8, "rough_m": 0.61, "water_m": 140, "wetland_m": 530, "hut_m": 424, "trail_m": 327, "route_km": 71.4, "off_route_m": 448, "patch_m2": 11300, "why": "flackt (2.1\u00b0), morgonsol 06:30, liten hojd, kalluft rinner undan, vatten 140 m", "access": 0.913, "usefulness": 0.9015, "rank": 95}, "geometry": {"type": "Point", "coordinates": [13.113538, 63.091434]}}, {"type": "Feature", "properties": {"score": 0.952, "elev_m": 1065, "slope_deg": 1.8, "first_light": 7.0, "sun_morning_h": 3.5, "twi": 5.75, "tpi_m": 2.8, "rough_m": 0.71, "water_m": 310, "wetland_m": 6099, "hut_m": 1630, "trail_m": 517, "route_km": 23.2, "off_route_m": 526, "patch_m2": 4100, "why": "mycket flackt (1.8\u00b0), morgonsol 07:00, liten hojd, kalluft rinner undan, vatten 310 m", "access": 0.867, "usefulness": 0.9014, "rank": 96}, "geometry": {"type": "Point", "coordinates": [12.598024, 63.079323]}}, {"type": "Feature", "properties": {"score": 0.954, "elev_m": 990, "slope_deg": 2.0, "first_light": 7.0, "sun_morning_h": 3.5, "twi": 5.67, "tpi_m": 4.4, "rough_m": 0.56, "water_m": 194, "wetland_m": 4615, "hut_m": 3837, "trail_m": 537, "route_km": 47.1, "off_route_m": 540, "patch_m2": 20000, "why": "mycket flackt (2.0\u00b0), morgonsol 07:00, liten hojd, kalluft rinner undan, vatten 190 m", "access": 0.859, "usefulness": 0.9001, "rank": 97}, "geometry": {"type": "Point", "coordinates": [12.76196, 63.010443]}}, {"type": "Feature", "properties": {"score": 0.94, "elev_m": 798, "slope_deg": 2.1, "first_light": 7.0, "sun_morning_h": 3.5, "twi": 5.59, "tpi_m": -0.5, "rough_m": 0.94, "water_m": 240, "wetland_m": 300, "hut_m": 736, "trail_m": 477, "route_km": 74.6, "off_route_m": 481, "patch_m2": 6900, "why": "flackt (2.1\u00b0), morgonsol 07:00, vatten 240 m", "access": 0.894, "usefulness": 0.9, "rank": 98}, "geometry": {"type": "Point", "coordinates": [13.105387, 63.094917]}}, {"type": "Feature", "properties": {"score": 0.9, "elev_m": 927, "slope_deg": 1.8, "first_light": 8.0, "sun_morning_h": 2.5, "twi": 5.77, "tpi_m": -3.2, "rough_m": 0.56, "water_m": 141, "wetland_m": 5770, "hut_m": 2538, "trail_m": 80, "route_km": 31.2, "off_route_m": 92, "patch_m2": 4600, "why": "mycket flackt (1.8\u00b0), morgonsol 08:00, vatten 140 m", "access": 1.0, "usefulness": 0.9, "rank": 99}, "geometry": {"type": "Point", "coordinates": [12.534224, 63.023448]}}, {"type": "Feature", "properties": {"score": 0.898, "elev_m": 934, "slope_deg": 1.8, "first_light": 8.0, "sun_morning_h": 2.5, "twi": 5.77, "tpi_m": -3.6, "rough_m": 0.83, "water_m": 192, "wetland_m": 5295, "hut_m": 2896, "trail_m": 82, "route_km": 31.7, "off_route_m": 83, "patch_m2": 14600, "why": "mycket flackt (1.8\u00b0), morgonsol 08:00, vatten 190 m", "access": 1.0, "usefulness": 0.898, "rank": 100}, "geometry": {"type": "Point", "coordinates": [12.540623, 63.020237]}}, {"type": "Feature", "properties": {"score": 0.948, "elev_m": 1136, "slope_deg": 1.8, "first_light": 6.5, "sun_morning_h": 4.0, "twi": 5.78, "tpi_m": -0.6, "rough_m": 0.35, "water_m": 100, "wetland_m": 8647, "hut_m": 1742, "trail_m": 524, "route_km": 25.8, "off_route_m": 527, "patch_m2": 4500, "why": "mycket flackt (1.8\u00b0), morgonsol 06:30, vatten 100 m", "access": 0.866, "usefulness": 0.8974, "rank": 101}, "geometry": {"type": "Point", "coordinates": [12.573546, 63.059329]}}, {"type": "Feature", "properties": {"score": 0.895, "elev_m": 786, "slope_deg": 1.7, "first_light": 6.5, "sun_morning_h": 4.0, "twi": 5.81, "tpi_m": -5.9, "rough_m": 0.5, "water_m": 80, "wetland_m": 114, "hut_m": 869, "trail_m": 206, "route_km": 14.3, "off_route_m": 216, "patch_m2": 4800, "why": "mycket flackt (1.7\u00b0), morgonsol 06:30, vatten 80 m", "access": 1.0, "usefulness": 0.895, "rank": 102}, "geometry": {"type": "Point", "coordinates": [12.723771, 63.130247]}}, {"type": "Feature", "properties": {"score": 0.947, "elev_m": 924, "slope_deg": 2.0, "first_light": 7.0, "sun_morning_h": 3.5, "twi": 5.68, "tpi_m": -0.1, "rough_m": 0.56, "water_m": 221, "wetland_m": 1905, "hut_m": 1150, "trail_m": 514, "route_km": 41.4, "off_route_m": 534, "patch_m2": 18400, "why": "mycket flackt (2.0\u00b0), morgonsol 07:00, vatten 220 m", "access": 0.862, "usefulness": 0.8949, "rank": 103}, "geometry": {"type": "Point", "coordinates": [12.679213, 62.977591]}}, {"type": "Feature", "properties": {"score": 0.949, "elev_m": 893, "slope_deg": 1.9, "first_light": 6.5, "sun_morning_h": 4.0, "twi": 5.71, "tpi_m": -2.1, "rough_m": 0.35, "water_m": 332, "wetland_m": 3179, "hut_m": 1012, "trail_m": 509, "route_km": 50.9, "off_route_m": 564, "patch_m2": 5200, "why": "mycket flackt (1.9\u00b0), morgonsol 06:30, vatten 330 m", "access": 0.845, "usefulness": 0.8901, "rank": 104}, "geometry": {"type": "Point", "coordinates": [12.7799, 63.042153]}}, {"type": "Feature", "properties": {"score": 0.958, "elev_m": 807, "slope_deg": 1.9, "first_light": 6.5, "sun_morning_h": 4.0, "twi": 5.71, "tpi_m": -0.1, "rough_m": 0.71, "water_m": 355, "wetland_m": 512, "hut_m": 5872, "trail_m": 602, "route_km": 60.4, "off_route_m": 602, "patch_m2": 5900, "why": "mycket flackt (1.9\u00b0), morgonsol 06:30, vatten 360 m", "access": 0.822, "usefulness": 0.8899, "rank": 105}, "geometry": {"type": "Point", "coordinates": [12.946833, 63.059039]}}, {"type": "Feature", "properties": {"score": 0.939, "elev_m": 1061, "slope_deg": 1.6, "first_light": 6.5, "sun_morning_h": 4.0, "twi": 5.88, "tpi_m": 2.3, "rough_m": 0.71, "water_m": 555, "wetland_m": 3586, "hut_m": 908, "trail_m": 291, "route_km": 20.8, "off_route_m": 533, "patch_m2": 4400, "why": "mycket flackt (1.6\u00b0), morgonsol 06:30, liten hojd, kalluft rinner undan, vatten 560 m", "access": 0.863, "usefulness": 0.8875, "rank": 106}, "geometry": {"type": "Point", "coordinates": [12.616693, 63.100471]}}, {"type": "Feature", "properties": {"score": 0.951, "elev_m": 797, "slope_deg": 2.1, "first_light": 7.0, "sun_morning_h": 3.5, "twi": 5.62, "tpi_m": 4.1, "rough_m": 0.56, "water_m": 363, "wetland_m": 538, "hut_m": 1497, "trail_m": 92, "route_km": 68.7, "off_route_m": 588, "patch_m2": 8200, "why": "flackt (2.1\u00b0), morgonsol 07:00, liten hojd, kalluft rinner undan, vatten 360 m", "access": 0.831, "usefulness": 0.8866, "rank": 107}, "geometry": {"type": "Point", "coordinates": [13.062473, 63.075841]}}, {"type": "Feature", "properties": {"score": 0.905, "elev_m": 914, "slope_deg": 0.8, "first_light": 6.5, "sun_morning_h": 4.0, "twi": 6.56, "tpi_m": -0.7, "rough_m": 0.0, "water_m": 40, "wetland_m": 1090, "hut_m": 473, "trail_m": 391, "route_km": 40.5, "off_route_m": 393, "patch_m2": 4800, "why": "mycket flackt (0.8\u00b0), morgonsol 06:30, vatten 40 m", "access": 0.945, "usefulness": 0.8852, "rank": 108}, "geometry": {"type": "Point", "coordinates": [12.664928, 62.973584]}}, {"type": "Feature", "properties": {"score": 0.923, "elev_m": 1131, "slope_deg": 1.9, "first_light": 7.5, "sun_morning_h": 3.0, "twi": 5.71, "tpi_m": -0.9, "rough_m": 0.61, "water_m": 100, "wetland_m": 8120, "hut_m": 2205, "trail_m": 474, "route_km": 25.4, "off_route_m": 477, "patch_m2": 7700, "why": "mycket flackt (1.9\u00b0), morgonsol 07:30, vatten 100 m", "access": 0.896, "usefulness": 0.8846, "rank": 109}, "geometry": {"type": "Point", "coordinates": [12.576928, 63.063877]}}, {"type": "Feature", "properties": {"score": 0.952, "elev_m": 749, "slope_deg": 2.1, "first_light": 7.0, "sun_morning_h": 3.5, "twi": 5.63, "tpi_m": 4.7, "rough_m": 0.71, "water_m": 250, "wetland_m": 284, "hut_m": 5468, "trail_m": 584, "route_km": 58.2, "off_route_m": 602, "patch_m2": 4000, "why": "flackt (2.1\u00b0), morgonsol 07:00, liten hojd, kalluft rinner undan, vatten 250 m", "access": 0.822, "usefulness": 0.8844, "rank": 110}, "geometry": {"type": "Point", "coordinates": [12.905292, 63.050529]}}, {"type": "Feature", "properties": {"score": 0.953, "elev_m": 974, "slope_deg": 1.9, "first_light": 7.0, "sun_morning_h": 3.5, "twi": 5.7, "tpi_m": 4.6, "rough_m": 0.61, "water_m": 276, "wetland_m": 6695, "hut_m": 1431, "trail_m": 610, "route_km": 29.5, "off_route_m": 610, "patch_m2": 4500, "why": "mycket flackt (1.9\u00b0), morgonsol 07:00, liten hojd, kalluft rinner undan, vatten 280 m", "access": 0.818, "usefulness": 0.8835, "rank": 111}, "geometry": {"type": "Point", "coordinates": [12.53576, 63.033353]}}, {"type": "Feature", "properties": {"score": 0.946, "elev_m": 884, "slope_deg": 2.1, "first_light": 7.0, "sun_morning_h": 3.5, "twi": 5.63, "tpi_m": 0.2, "rough_m": 0.56, "water_m": 312, "wetland_m": 3498, "hut_m": 2207, "trail_m": 576, "route_km": 49.2, "off_route_m": 583, "patch_m2": 4500, "why": "flackt (2.1\u00b0), morgonsol 07:00, vatten 310 m", "access": 0.834, "usefulness": 0.883, "rank": 112}, "geometry": {"type": "Point", "coordinates": [12.77718, 63.023344]}}, {"type": "Feature", "properties": {"score": 0.946, "elev_m": 998, "slope_deg": 2.1, "first_light": 7.0, "sun_morning_h": 3.5, "twi": 5.61, "tpi_m": 2.8, "rough_m": 0.9, "water_m": 120, "wetland_m": 5076, "hut_m": 4300, "trail_m": 579, "route_km": 44.8, "off_route_m": 583, "patch_m2": 6500, "why": "flackt (2.1\u00b0), morgonsol 07:00, liten hojd, kalluft rinner undan, vatten 120 m", "access": 0.834, "usefulness": 0.883, "rank": 113}, "geometry": {"type": "Point", "coordinates": [12.733962, 62.991859]}}, {"type": "Feature", "properties": {"score": 0.882, "elev_m": 1072, "slope_deg": 1.5, "first_light": 6.5, "sun_morning_h": 4.0, "twi": 5.97, "tpi_m": 5.8, "rough_m": 0.71, "water_m": 850, "wetland_m": 5787, "hut_m": 4668, "trail_m": 250, "route_km": 46.3, "off_route_m": 267, "patch_m2": 4100, "why": "mycket flackt (1.5\u00b0), morgonsol 06:30, liten hojd, kalluft rinner undan, vatten 850 m", "access": 1.0, "usefulness": 0.882, "rank": 114}, "geometry": {"type": "Point", "coordinates": [12.738363, 63.00899]}}, {"type": "Feature", "properties": {"score": 0.941, "elev_m": 983, "slope_deg": 1.7, "first_light": 7.0, "sun_morning_h": 3.5, "twi": 5.8, "tpi_m": -0.4, "rough_m": 0.61, "water_m": 136, "wetland_m": 5398, "hut_m": 4711, "trail_m": 571, "route_km": 46.1, "off_route_m": 575, "patch_m2": 5100, "why": "mycket flackt (1.7\u00b0), morgonsol 07:00, vatten 140 m", "access": 0.838, "usefulness": 0.8801, "rank": 115}, "geometry": {"type": "Point", "coordinates": [12.751378, 63.004169]}}, {"type": "Feature", "properties": {"score": 0.955, "elev_m": 785, "slope_deg": 1.5, "first_light": 6.5, "sun_morning_h": 4.0, "twi": 5.91, "tpi_m": 2.9, "rough_m": 0.56, "water_m": 438, "wetland_m": 235, "hut_m": 6473, "trail_m": 631, "route_km": 59.1, "off_route_m": 636, "patch_m2": 4900, "why": "mycket flackt (1.5\u00b0), morgonsol 06:30, liten hojd, kalluft rinner undan, vatten 440 m", "access": 0.802, "usefulness": 0.8795, "rank": 116}, "geometry": {"type": "Point", "coordinates": [12.924054, 63.053768]}}, {"type": "Feature", "properties": {"score": 0.954, "elev_m": 827, "slope_deg": 2.0, "first_light": 7.0, "sun_morning_h": 3.5, "twi": 5.66, "tpi_m": 3.1, "rough_m": 0.71, "water_m": 152, "wetland_m": 669, "hut_m": 2015, "trail_m": 94, "route_km": 69.0, "off_route_m": 646, "patch_m2": 4800, "why": "mycket flackt (2.0\u00b0), morgonsol 07:00, liten hojd, kalluft rinner undan, vatten 150 m", "access": 0.796, "usefulness": 0.8763, "rank": 117}, "geometry": {"type": "Point", "coordinates": [13.071899, 63.08001]}}, {"type": "Feature", "properties": {"score": 0.964, "elev_m": 601, "slope_deg": 2.0, "first_light": 6.5, "sun_morning_h": 4.0, "twi": 5.68, "tpi_m": 2.7, "rough_m": 0.73, "water_m": 272, "wetland_m": 241, "hut_m": 1800, "trail_m": 604, "route_km": 2.7, "off_route_m": 689, "patch_m2": 6200, "why": "mycket flackt (2.0\u00b0), morgonsol 06:30, liten hojd, kalluft rinner undan, vatten 270 m", "access": 0.771, "usefulness": 0.8758, "rank": 118}, "geometry": {"type": "Point", "coordinates": [12.922936, 63.136086]}}, {"type": "Feature", "properties": {"score": 0.95, "elev_m": 765, "slope_deg": 2.0, "first_light": 6.5, "sun_morning_h": 4.0, "twi": 5.64, "tpi_m": -0.9, "rough_m": 0.66, "water_m": 164, "wetland_m": 533, "hut_m": 1508, "trail_m": 625, "route_km": 11.8, "off_route_m": 633, "patch_m2": 5500, "why": "flackt (2.0\u00b0), morgonsol 06:30, vatten 160 m", "access": 0.804, "usefulness": 0.8756, "rank": 119}, "geometry": {"type": "Point", "coordinates": [12.769903, 63.12631]}}, {"type": "Feature", "properties": {"score": 0.952, "elev_m": 981, "slope_deg": 2.0, "first_light": 7.0, "sun_morning_h": 3.5, "twi": 5.65, "tpi_m": 1.8, "rough_m": 0.66, "water_m": 183, "wetland_m": 5732, "hut_m": 4956, "trail_m": 626, "route_km": 45.1, "off_route_m": 641, "patch_m2": 6600, "why": "flackt (2.0\u00b0), morgonsol 07:00, liten hojd, kalluft rinner undan, vatten 180 m", "access": 0.799, "usefulness": 0.8756, "rank": 120}, "geometry": {"type": "Point", "coordinates": [12.744546, 62.99544]}}, {"type": "Feature", "properties": {"score": 0.954, "elev_m": 893, "slope_deg": 2.0, "first_light": 6.5, "sun_morning_h": 4.0, "twi": 5.66, "tpi_m": 1.9, "rough_m": 0.75, "water_m": 72, "wetland_m": 4897, "hut_m": 3070, "trail_m": 504, "route_km": 48.6, "off_route_m": 662, "patch_m2": 8100, "why": "mycket flackt (2.0\u00b0), morgonsol 06:30, liten hojd, kalluft rinner undan, vatten 70 m", "access": 0.787, "usefulness": 0.8727, "rank": 121}, "geometry": {"type": "Point", "coordinates": [12.746457, 63.026988]}}, {"type": "Feature", "properties": {"score": 0.872, "elev_m": 936, "slope_deg": 1.9, "first_light": 8.5, "sun_morning_h": 2.0, "twi": 5.73, "tpi_m": -3.4, "rough_m": 0.25, "water_m": 86, "wetland_m": 4813, "hut_m": 3345, "trail_m": 53, "route_km": 32.2, "off_route_m": 64, "patch_m2": 12400, "why": "mycket flackt (1.9\u00b0), morgonsol 08:30, vatten 90 m", "access": 1.0, "usefulness": 0.872, "rank": 122}, "geometry": {"type": "Point", "coordinates": [12.544902, 63.01636]}}, {"type": "Feature", "properties": {"score": 0.871, "elev_m": 941, "slope_deg": 2.1, "first_light": 8.5, "sun_morning_h": 2.0, "twi": 5.61, "tpi_m": -3.3, "rough_m": 0.5, "water_m": 92, "wetland_m": 4385, "hut_m": 3751, "trail_m": 40, "route_km": 32.6, "off_route_m": 34, "patch_m2": 18100, "why": "flackt (2.1\u00b0), morgonsol 08:30, vatten 90 m", "access": 1.0, "usefulness": 0.871, "rank": 123}, "geometry": {"type": "Point", "coordinates": [12.548748, 63.012924]}}, {"type": "Feature", "properties": {"score": 0.929, "elev_m": 712, "slope_deg": 1.7, "first_light": 7.0, "sun_morning_h": 3.5, "twi": 5.82, "tpi_m": 0.7, "rough_m": 0.43, "water_m": 560, "wetland_m": 312, "hut_m": 844, "trail_m": 563, "route_km": 76.4, "off_route_m": 568, "patch_m2": 7400, "why": "mycket flackt (1.7\u00b0), morgonsol 07:00, vatten 560 m", "access": 0.842, "usefulness": 0.8704, "rank": 124}, "geometry": {"type": "Point", "coordinates": [13.085119, 63.107842]}}, {"type": "Feature", "properties": {"score": 0.954, "elev_m": 661, "slope_deg": 1.9, "first_light": 6.5, "sun_morning_h": 4.0, "twi": 5.69, "tpi_m": 2.2, "rough_m": 0.61, "water_m": 170, "wetland_m": 174, "hut_m": 2745, "trail_m": 670, "route_km": 81.9, "off_route_m": 673, "patch_m2": 4900, "why": "mycket flackt (1.9\u00b0), morgonsol 06:30, liten hojd, kalluft rinner undan, vatten 170 m", "access": 0.781, "usefulness": 0.8703, "rank": 125}, "geometry": {"type": "Point", "coordinates": [12.988025, 63.118798]}}, {"type": "Feature", "properties": {"score": 0.961, "elev_m": 618, "slope_deg": 2.0, "first_light": 6.5, "sun_morning_h": 4.0, "twi": 5.68, "tpi_m": 3.3, "rough_m": 1.2, "water_m": 407, "wetland_m": 751, "hut_m": 3270, "trail_m": 710, "route_km": 4.8, "off_route_m": 713, "patch_m2": 11700, "why": "mycket flackt (2.0\u00b0), morgonsol 06:30, liten hojd, kalluft rinner undan, vatten 410 m", "access": 0.757, "usefulness": 0.8676, "rank": 126}, "geometry": {"type": "Point", "coordinates": [12.887909, 63.12659]}}, {"type": "Feature", "properties": {"score": 0.947, "elev_m": 920, "slope_deg": 1.9, "first_light": 7.0, "sun_morning_h": 3.5, "twi": 5.69, "tpi_m": 3.7, "rough_m": 0.43, "water_m": 94, "wetland_m": 1523, "hut_m": 888, "trail_m": 659, "route_km": 40.7, "off_route_m": 662, "patch_m2": 13500, "why": "mycket flackt (1.9\u00b0), morgonsol 07:00, liten hojd, kalluft rinner undan, vatten 90 m", "access": 0.787, "usefulness": 0.8663, "rank": 127}, "geometry": {"type": "Point", "coordinates": [12.673628, 62.973368]}}, {"type": "Feature", "properties": {"score": 0.961, "elev_m": 682, "slope_deg": 1.9, "first_light": 6.5, "sun_morning_h": 4.0, "twi": 5.73, "tpi_m": 2.7, "rough_m": 0.5, "water_m": 152, "wetland_m": 228, "hut_m": 2005, "trail_m": 715, "route_km": 80.1, "off_route_m": 721, "patch_m2": 7100, "why": "mycket flackt (1.9\u00b0), morgonsol 06:30, liten hojd, kalluft rinner undan, vatten 150 m", "access": 0.752, "usefulness": 0.8658, "rank": 128}, "geometry": {"type": "Point", "coordinates": [13.032315, 63.114841]}}, {"type": "Feature", "properties": {"score": 0.941, "elev_m": 1003, "slope_deg": 1.9, "first_light": 7.0, "sun_morning_h": 3.5, "twi": 5.71, "tpi_m": 0.8, "rough_m": 0.61, "water_m": 89, "wetland_m": 4435, "hut_m": 3659, "trail_m": 652, "route_km": 44.3, "off_route_m": 653, "patch_m2": 11400, "why": "mycket flackt (1.9\u00b0), morgonsol 07:00, vatten 90 m", "access": 0.792, "usefulness": 0.8628, "rank": 129}, "geometry": {"type": "Point", "coordinates": [12.722501, 62.98943]}}, {"type": "Feature", "properties": {"score": 0.945, "elev_m": 876, "slope_deg": 1.8, "first_light": 7.0, "sun_morning_h": 3.5, "twi": 5.76, "tpi_m": 6.1, "rough_m": 1.0, "water_m": 458, "wetland_m": 961, "hut_m": 912, "trail_m": 246, "route_km": 72.7, "off_route_m": 673, "patch_m2": 9100, "why": "mycket flackt (1.8\u00b0), morgonsol 07:00, liten hojd, kalluft rinner undan, vatten 460 m", "access": 0.781, "usefulness": 0.8621, "rank": 130}, "geometry": {"type": "Point", "coordinates": [13.150138, 63.082849]}}, {"type": "Feature", "properties": {"score": 0.937, "elev_m": 767, "slope_deg": 2.0, "first_light": 6.5, "sun_morning_h": 4.0, "twi": 5.67, "tpi_m": -0.5, "rough_m": 0.43, "water_m": 120, "wetland_m": 123, "hut_m": 783, "trail_m": 275, "route_km": 12.7, "off_route_m": 645, "patch_m2": 4400, "why": "mycket flackt (2.0\u00b0), morgonsol 06:30, vatten 120 m", "access": 0.797, "usefulness": 0.8609, "rank": 131}, "geometry": {"type": "Point", "coordinates": [12.754334, 63.124987]}}, {"type": "Feature", "properties": {"score": 0.932, "elev_m": 842, "slope_deg": 2.0, "first_light": 7.0, "sun_morning_h": 3.5, "twi": 5.67, "tpi_m": -2.4, "rough_m": 0.35, "water_m": 116, "wetland_m": 1261, "hut_m": 1475, "trail_m": 620, "route_km": 52.9, "off_route_m": 629, "patch_m2": 5500, "why": "mycket flackt (2.0\u00b0), morgonsol 07:00, vatten 120 m", "access": 0.806, "usefulness": 0.8599, "rank": 132}, "geometry": {"type": "Point", "coordinates": [12.81914, 63.030552]}}, {"type": "Feature", "properties": {"score": 0.858, "elev_m": 964, "slope_deg": 2.0, "first_light": 7.5, "sun_morning_h": 3.0, "twi": 5.66, "tpi_m": -9.3, "rough_m": 0.56, "water_m": 63, "wetland_m": 2032, "hut_m": 4390, "trail_m": 212, "route_km": 35.4, "off_route_m": 211, "patch_m2": 5700, "why": "mycket flackt (2.0\u00b0), morgonsol 07:30, vatten 60 m", "access": 1.0, "usefulness": 0.858, "rank": 133}, "geometry": {"type": "Point", "coordinates": [12.584237, 62.997191]}}, {"type": "Feature", "properties": {"score": 0.953, "elev_m": 609, "slope_deg": 2.0, "first_light": 6.5, "sun_morning_h": 4.0, "twi": 5.66, "tpi_m": 5.0, "rough_m": 0.59, "water_m": 134, "wetland_m": 165, "hut_m": 2455, "trail_m": 736, "route_km": 4.1, "off_route_m": 735, "patch_m2": 7900, "why": "flackt (2.0\u00b0), morgonsol 06:30, liten hojd, kalluft rinner undan, vatten 130 m", "access": 0.744, "usefulness": 0.8555, "rank": 134}, "geometry": {"type": "Point", "coordinates": [12.914064, 63.129761]}}, {"type": "Feature", "properties": {"score": 0.946, "elev_m": 720, "slope_deg": 1.9, "first_light": 7.0, "sun_morning_h": 3.5, "twi": 5.68, "tpi_m": 3.4, "rough_m": 0.56, "water_m": 89, "wetland_m": 364, "hut_m": 2738, "trail_m": 704, "route_km": 64.6, "off_route_m": 708, "patch_m2": 4700, "why": "mycket flackt (1.9\u00b0), morgonsol 07:00, liten hojd, kalluft rinner undan, vatten 90 m", "access": 0.76, "usefulness": 0.8552, "rank": 135}, "geometry": {"type": "Point", "coordinates": [13.008797, 63.064503]}}, {"type": "Feature", "properties": {"score": 0.899, "elev_m": 1082, "slope_deg": 1.8, "first_light": 7.0, "sun_morning_h": 3.5, "twi": 5.75, "tpi_m": -0.3, "rough_m": 0.61, "water_m": 734, "wetland_m": 3210, "hut_m": 1276, "trail_m": 410, "route_km": 20.4, "off_route_m": 510, "patch_m2": 5600, "why": "mycket flackt (1.8\u00b0), morgonsol 07:00, vatten 730 m", "access": 0.876, "usefulness": 0.8546, "rank": 136}, "geometry": {"type": "Point", "coordinates": [12.62346, 63.10256]}}, {"type": "Feature", "properties": {"score": 0.957, "elev_m": 766, "slope_deg": 2.0, "first_light": 6.5, "sun_morning_h": 4.0, "twi": 5.64, "tpi_m": 0.2, "rough_m": 0.5, "water_m": 268, "wetland_m": 235, "hut_m": 1164, "trail_m": 378, "route_km": 12.3, "off_route_m": 762, "patch_m2": 7600, "why": "flackt (2.0\u00b0), morgonsol 06:30, vatten 270 m", "access": 0.728, "usefulness": 0.853, "rank": 137}, "geometry": {"type": "Point", "coordinates": [12.762279, 63.124844]}}, {"type": "Feature", "properties": {"score": 0.938, "elev_m": 984, "slope_deg": 2.0, "first_light": 7.5, "sun_morning_h": 3.0, "twi": 5.65, "tpi_m": 6.1, "rough_m": 0.43, "water_m": 156, "wetland_m": 5988, "hut_m": 2072, "trail_m": 671, "route_km": 31.0, "off_route_m": 687, "patch_m2": 8600, "why": "flackt (2.0\u00b0), morgonsol 07:30, liten hojd, kalluft rinner undan, vatten 160 m", "access": 0.772, "usefulness": 0.8526, "rank": 138}, "geometry": {"type": "Point", "coordinates": [12.542167, 63.027717]}}, {"type": "Feature", "properties": {"score": 0.918, "elev_m": 758, "slope_deg": 2.1, "first_light": 7.0, "sun_morning_h": 3.5, "twi": 5.63, "tpi_m": 0.4, "rough_m": 0.5, "water_m": 67, "wetland_m": 150, "hut_m": 4429, "trail_m": 601, "route_km": 56.8, "off_route_m": 608, "patch_m2": 12600, "why": "flackt (2.1\u00b0), morgonsol 07:00, vatten 70 m", "access": 0.819, "usefulness": 0.8515, "rank": 139}, "geometry": {"type": "Point", "coordinates": [12.886242, 63.045846]}}, {"type": "Feature", "properties": {"score": 0.911, "elev_m": 996, "slope_deg": 1.6, "first_light": 7.0, "sun_morning_h": 3.5, "twi": 5.89, "tpi_m": -3.9, "rough_m": 0.56, "water_m": 50, "wetland_m": 4032, "hut_m": 1100, "trail_m": 578, "route_km": 20.7, "off_route_m": 582, "patch_m2": 5400, "why": "mycket flackt (1.6\u00b0), morgonsol 07:00, vatten 50 m", "access": 0.834, "usefulness": 0.8506, "rank": 140}, "geometry": {"type": "Point", "coordinates": [12.631382, 63.092905]}}, {"type": "Feature", "properties": {"score": 0.95, "elev_m": 941, "slope_deg": 1.9, "first_light": 7.0, "sun_morning_h": 3.5, "twi": 5.73, "tpi_m": 5.5, "rough_m": 0.5, "water_m": 424, "wetland_m": 2731, "hut_m": 1990, "trail_m": 760, "route_km": 42.2, "off_route_m": 765, "patch_m2": 5900, "why": "mycket flackt (1.9\u00b0), morgonsol 07:00, liten hojd, kalluft rinner undan, vatten 420 m", "access": 0.726, "usefulness": 0.8461, "rank": 141}, "geometry": {"type": "Point", "coordinates": [12.695735, 62.97831]}}, {"type": "Feature", "properties": {"score": 0.93, "elev_m": 864, "slope_deg": 1.5, "first_light": 7.0, "sun_morning_h": 3.5, "twi": 5.98, "tpi_m": 0.4, "rough_m": 0.35, "water_m": 50, "wetland_m": 2886, "hut_m": 1436, "trail_m": 687, "route_km": 50.3, "off_route_m": 689, "patch_m2": 4300, "why": "mycket flackt (1.5\u00b0), morgonsol 07:00, vatten 50 m", "access": 0.771, "usefulness": 0.8449, "rank": 142}, "geometry": {"type": "Point", "coordinates": [12.786242, 63.028963]}}, {"type": "Feature", "properties": {"score": 0.964, "elev_m": 711, "slope_deg": 1.8, "first_light": 6.5, "sun_morning_h": 4.0, "twi": 5.78, "tpi_m": 4.5, "rough_m": 0.59, "water_m": 183, "wetland_m": 284, "hut_m": 1293, "trail_m": 706, "route_km": 78.6, "off_route_m": 828, "patch_m2": 9700, "why": "mycket flackt (1.8\u00b0), morgonsol 06:30, liten hojd, kalluft rinner undan, vatten 180 m", "access": 0.689, "usefulness": 0.8442, "rank": 143}, "geometry": {"type": "Point", "coordinates": [13.049159, 63.114983]}}, {"type": "Feature", "properties": {"score": 0.964, "elev_m": 937, "slope_deg": 1.9, "first_light": 6.5, "sun_morning_h": 4.0, "twi": 5.69, "tpi_m": 2.1, "rough_m": 0.43, "water_m": 210, "wetland_m": 380, "hut_m": 2118, "trail_m": 384, "route_km": 38.1, "off_route_m": 831, "patch_m2": 7000, "why": "mycket flackt (1.9\u00b0), morgonsol 06:30, liten hojd, kalluft rinner undan, vatten 210 m", "access": 0.688, "usefulness": 0.8436, "rank": 144}, "geometry": {"type": "Point", "coordinates": [12.615674, 62.972582]}}, {"type": "Feature", "properties": {"score": 0.935, "elev_m": 609, "slope_deg": 1.8, "first_light": 7.0, "sun_morning_h": 3.5, "twi": 5.74, "tpi_m": 2.1, "rough_m": 1.1, "water_m": 403, "wetland_m": 147, "hut_m": 2405, "trail_m": 92, "route_km": 83.1, "off_route_m": 716, "patch_m2": 5300, "why": "mycket flackt (1.8\u00b0), morgonsol 07:00, liten hojd, kalluft rinner undan, vatten 400 m", "access": 0.755, "usefulness": 0.8435, "rank": 145}, "geometry": {"type": "Point", "coordinates": [13.005762, 63.13485]}}, {"type": "Feature", "properties": {"score": 0.942, "elev_m": 847, "slope_deg": 2.0, "first_light": 6.5, "sun_morning_h": 4.0, "twi": 5.63, "tpi_m": -0.0, "rough_m": 0.71, "water_m": 545, "wetland_m": 591, "hut_m": 2399, "trail_m": 63, "route_km": 69.5, "off_route_m": 745, "patch_m2": 7300, "why": "flackt (2.0\u00b0), morgonsol 06:30, vatten 550 m", "access": 0.738, "usefulness": 0.8434, "rank": 146}, "geometry": {"type": "Point", "coordinates": [13.078617, 63.083244]}}, {"type": "Feature", "properties": {"score": 0.944, "elev_m": 941, "slope_deg": 1.7, "first_light": 6.5, "sun_morning_h": 4.0, "twi": 5.8, "tpi_m": -2.7, "rough_m": 0.56, "water_m": 300, "wetland_m": 520, "hut_m": 3695, "trail_m": 750, "route_km": 36.7, "off_route_m": 753, "patch_m2": 4400, "why": "mycket flackt (1.7\u00b0), morgonsol 06:30, vatten 300 m", "access": 0.734, "usefulness": 0.8434, "rank": 147}, "geometry": {"type": "Point", "coordinates": [12.585132, 62.981582]}}, {"type": "Feature", "properties": {"score": 0.931, "elev_m": 883, "slope_deg": 1.9, "first_light": 7.5, "sun_morning_h": 3.0, "twi": 5.71, "tpi_m": 4.3, "rough_m": 0.25, "water_m": 480, "wetland_m": 694, "hut_m": 841, "trail_m": 302, "route_km": 72.7, "off_route_m": 704, "patch_m2": 19100, "why": "mycket flackt (1.9\u00b0), morgonsol 07:30, liten hojd, kalluft rinner undan, vatten 480 m", "access": 0.762, "usefulness": 0.8425, "rank": 148}, "geometry": {"type": "Point", "coordinates": [13.154394, 63.087573]}}, {"type": "Feature", "properties": {"score": 0.932, "elev_m": 987, "slope_deg": 2.4, "first_light": 6.5, "sun_morning_h": 4.0, "twi": 5.46, "tpi_m": -1.6, "rough_m": 0.61, "water_m": 348, "wetland_m": 4496, "hut_m": 708, "trail_m": 237, "route_km": 21.6, "off_route_m": 709, "patch_m2": 4200, "why": "flackt (2.4\u00b0), torr mark, morgonsol 06:30, vatten 350 m", "access": 0.759, "usefulness": 0.8423, "rank": 149}, "geometry": {"type": "Point", "coordinates": [12.597988, 63.096564]}}, {"type": "Feature", "properties": {"score": 0.948, "elev_m": 869, "slope_deg": 1.9, "first_light": 7.0, "sun_morning_h": 3.5, "twi": 5.71, "tpi_m": 2.2, "rough_m": 0.71, "water_m": 122, "wetland_m": 2112, "hut_m": 1238, "trail_m": 778, "route_km": 52.3, "off_route_m": 781, "patch_m2": 4800, "why": "mycket flackt (1.9\u00b0), morgonsol 07:00, liten hojd, kalluft rinner undan, vatten 120 m", "access": 0.717, "usefulness": 0.8407, "rank": 150}, "geometry": {"type": "Point", "coordinates": [12.802033, 63.029299]}}]}