{"type": "FeatureCollection", "features": [{"type": "Feature", "properties": {"name": "\u00c5re kommun"}, "geometry": {"type": "MultiPolygon", "coordinates": [[[[11.9745821, 63.2692252], [11.9983213, 63.2425823], [12.0241266, 63.2146064], [12.0471432, 63.1893065], [12.0525454, 63.1833504], [12.0727694, 63.1610421], [12.1008335, 63.1304859], [12.1187086, 63.1109751], [12.1412902, 63.0863088], [12.1699309, 63.0543585], [12.199477, 63.0213377], [12.218233, 63.0003344], [12.1704156, 62.9674106], [12.1500352, 62.9535836], [12.1347803, 62.9432195], [12.0973102, 62.9178768], [12.0746891, 62.9025463], [12.1634925, 62.9135417], [12.6496025, 62.9720466], [12.6598896, 62.9732954], [12.6604268, 62.973359], [12.7582901, 62.9731257], [12.8468462, 62.9727997], [13.0442062, 62.97221], [13.0949376, 62.9720276], [13.1716015, 63.0074104], [13.1760773, 63.0145674], [13.187749, 63.0172681], [13.1880289, 63.0172498], [13.1882511, 63.0172392], [13.1884952, 63.0172505], [13.1886899, 63.0172861], [13.1891047, 63.0174331], [13.1893753, 63.0176028], [13.1895139, 63.0177451], [13.1896849, 63.0178772], [13.189843, 63.0179732], [13.1898565, 63.0180991], [13.1898459, 63.0182282], [13.1898632, 63.0183074], [13.1900371, 63.0183068], [13.1902801, 63.0182355], [13.190428, 63.0181847], [13.1906756, 63.0182313], [13.1907689, 63.0182509], [13.1909925, 63.0182223], [13.1911863, 63.0181717], [13.1912501, 63.0181656], [13.1915041, 63.0182489], [13.1915181, 63.0184645], [13.1914453, 63.0185817], [13.1914377, 63.018675], [13.1915044, 63.0187299], [13.191771, 63.0187559], [13.1920388, 63.0186707], [13.1923931, 63.0185905], [13.1927413, 63.0184887], [13.1930059, 63.0184429], [13.1933175, 63.0184014], [13.1937136, 63.0183901], [13.1940317, 63.0183668], [13.1944047, 63.0183479], [13.1949874, 63.0182787], [13.1952324, 63.0182793], [13.1954542, 63.0182722], [13.1956638, 63.0183188], [13.1958384, 63.0184079], [13.1958957, 63.0184807], [13.1959218, 63.0187431], [13.1961244, 63.0189727], [13.1961975, 63.0191426], [13.1964638, 63.0193661], [13.1966808, 63.01942], [13.1969264, 63.0195103], [13.197131, 63.0196178], [13.1972284, 63.0196841], [13.1975793, 63.0199377], [13.1980602, 63.0200498], [13.1983701, 63.0201268], [13.1989486, 63.0203538], [13.1997865, 63.0206926], [13.2002546, 63.0208656], [13.2006066, 63.0210079], [13.2010756, 63.0210732], [13.2016975, 63.0212021], [13.2029189, 63.0214451], [13.2033069, 63.0215342], [13.2037513, 63.0216098], [13.2040958, 63.0217484], [13.2044675, 63.0219413], [13.2048377, 63.0221521], [13.2051109, 63.0222931], [13.2054761, 63.0224679], [13.2064555, 63.0227715], [13.2070666, 63.0229361], [13.2078334, 63.023132], [13.208501, 63.0232831], [13.2091112, 63.0233615], [13.2095253, 63.0235304], [13.2098027, 63.0237069], [13.2101996, 63.0239792], [13.2105291, 63.0244011], [13.2108769, 63.0245972], [13.2112498, 63.0247757], [13.2115692, 63.0248349], [13.2120762, 63.0248218], [13.2124481, 63.0248172], [13.2126111, 63.0248558], [13.2130104, 63.0250994], [13.2133204, 63.0252733], [13.2136173, 63.0254147], [13.2139526, 63.025571], [13.2141442, 63.0257429], [13.2144953, 63.0258995], [13.2147304, 63.0260219], [13.2150281, 63.02635], [13.2151376, 63.02656], [13.2153942, 63.0267114], [13.2157125, 63.0269788], [13.2160747, 63.0274874], [13.2159144, 63.0278078], [13.2157754, 63.0280604], [13.2156135, 63.0282049], [13.2153174, 63.028444], [13.2151109, 63.0287493], [13.2148607, 63.0290072], [13.2147132, 63.0291699], [13.2147558, 63.0294254], [13.2148758, 63.0296033], [13.2149882, 63.0297775], [13.2152948, 63.0298975], [13.2155119, 63.0299514], [13.2157537, 63.0301887], [13.2157242, 63.030357], [13.2156015, 63.0305057], [13.2155641, 63.0305769], [13.215592, 63.0307209], [13.2157226, 63.0309636], [13.2157348, 63.0311074], [13.215722, 63.0312651], [13.2157784, 63.0315461], [13.2160728, 63.0317197], [13.2164663, 63.0319381], [13.2164472, 63.0321747], [13.216272, 63.032484], [13.2163163, 63.0327181], [13.2166232, 63.0328345], [13.2169357, 63.0329797], [13.2166172, 63.033398], [13.2168452, 63.0339044], [13.2172055, 63.0341437], [13.2176273, 63.0342081], [13.2183511, 63.034353], [13.2187806, 63.0344212], [13.2193888, 63.0345282], [13.2199392, 63.0347635], [13.220121, 63.0349604], [13.2202733, 63.0350953], [13.2202968, 63.0351767], [13.2206131, 63.0352514], [13.2209402, 63.0353116], [13.2212401, 63.0352789], [13.2217117, 63.0350941], [13.2219919, 63.0349555], [13.2220688, 63.034781], [13.2220691, 63.0346681], [13.2222208, 63.0345947], [13.2223451, 63.0345046], [13.222486, 63.0344441], [13.2228102, 63.0344647], [13.2229819, 63.0345309], [13.22312, 63.0345759], [13.2234937, 63.0345842], [13.2239691, 63.0345387], [13.2243287, 63.0345247], [13.2245336, 63.0346164], [13.2245952, 63.0347597], [13.2245536, 63.0348645], [13.224635, 63.0350023], [13.2249153, 63.0351555], [13.2254028, 63.0351908], [13.2256955, 63.0351668], [13.2261705, 63.0351989], [13.22655, 63.0352513], [13.2275132, 63.0352029], [13.2279733, 63.0352567], [13.2283059, 63.0353287], [13.2286275, 63.0354152], [13.2287727, 63.0354897], [13.2292933, 63.0355534], [13.2299232, 63.0355487], [13.2302659, 63.03547], [13.2303009, 63.0351833], [13.2302887, 63.0350441], [13.2304113, 63.0348953], [13.2307312, 63.0348504], [13.230971, 63.0348184], [13.231217, 63.0348081], [13.2315639, 63.0348423], [13.2318855, 63.0350131], [13.2321812, 63.0351738], [13.2324364, 63.0352488], [13.2328032, 63.0352094], [13.2329733, 63.0349165], [13.2332947, 63.0346651], [13.233656, 63.0344461], [13.2341245, 63.034343], [13.2344963, 63.0341872], [13.2349245, 63.0341173], [13.2354285, 63.0340974], [13.2357663, 63.0340235], [13.2360576, 63.0339851], [13.2364124, 63.0339483], [13.2366239, 63.0339639], [13.2367958, 63.0340166], [13.2370264, 63.0341103], [13.2371666, 63.0342284], [13.2373115, 63.0342924], [13.2374654, 63.034314], [13.2379176, 63.0343081], [13.2381893, 63.0343484], [13.2386513, 63.0344086], [13.2392651, 63.0345141], [13.239565, 63.0345879], [13.2402045, 63.0346372], [13.2404916, 63.0346188], [13.2408429, 63.0346394], [13.2413856, 63.0347859], [13.2420531, 63.0349301], [13.2426875, 63.0350382], [13.2430726, 63.0350877], [13.24349, 63.0350056], [13.243571, 63.0348515], [13.2435971, 63.0347317], [13.2437417, 63.0346825], [13.2442362, 63.0346089], [13.2444, 63.0343997], [13.2443509, 63.0340711], [13.2443781, 63.0338806], [13.2445053, 63.033732], [13.2447322, 63.0336323], [13.2455266, 63.0333355], [13.2460989, 63.0332121], [13.2470804, 63.0328473], [13.2473045, 63.0327193], [13.2475443, 63.0325892], [13.2477234, 63.0325005], [13.2478783, 63.0323925], [13.2483314, 63.032139], [13.2487349, 63.0320378], [13.249562, 63.0320198], [13.2502821, 63.0320965], [13.2506898, 63.032125], [13.2510677, 63.0322568], [13.2513962, 63.0324184], [13.2517125, 63.0326009], [13.2521633, 63.0326704], [13.2525614, 63.0327483], [13.2528206, 63.032753], [13.2532773, 63.0326362], [13.2535775, 63.0325285], [13.2538213, 63.0323537], [13.2541446, 63.0321002], [13.2545012, 63.0320595], [13.2548292, 63.0320489], [13.2556123, 63.0319993], [13.2564034, 63.031858], [13.2569517, 63.031882], [13.2573513, 63.0320613], [13.257574, 63.0322469], [13.2576259, 63.0323657], [13.2575463, 63.0326826], [13.257693, 63.0329045], [13.2579449, 63.0331118], [13.2579948, 63.0333131], [13.2581731, 63.0335308], [13.2587869, 63.0335183], [13.2594913, 63.0333589], [13.2600465, 63.033185], [13.2604219, 63.0331069], [13.2606865, 63.0331093], [13.2609864, 63.033183], [13.2613458, 63.0332885], [13.2616555, 63.0334285], [13.2618657, 63.0335195], [13.2623868, 63.0335572], [13.2628175, 63.0336191], [13.2636797, 63.033795], [13.264096, 63.0337836], [13.2644769, 63.0337621], [13.264802, 63.0337255], [13.265188, 63.0336452], [13.2658524, 63.0335888], [13.2663344, 63.0335385], [13.2669678, 63.0334202], [13.2677451, 63.0331984], [13.2686814, 63.0329393], [13.2690793, 63.0327225], [13.2693389, 63.0325432], [13.2697652, 63.0324778], [13.2702675, 63.0324326], [13.270751, 63.0323658], [13.2709068, 63.032246], [13.2709039, 63.0320997], [13.2707803, 63.0319679], [13.2705429, 63.0317726], [13.2704869, 63.0315806], [13.2708188, 63.0312872], [13.2712289, 63.0311082], [13.2716013, 63.0310041], [13.2721015, 63.0307443], [13.2723971, 63.0306293], [13.2730741, 63.0305448], [13.2734648, 63.0304103], [13.2737854, 63.030185], [13.2740725, 63.0301076], [13.274678, 63.030069], [13.2751227, 63.030209], [13.2754564, 63.0304318], [13.2757488, 63.0305927], [13.2761664, 63.0307463], [13.2766087, 63.0307943], [13.2770481, 63.0306961], [13.277291, 63.0304694], [13.2777074, 63.0302764], [13.2782167, 63.0300309], [13.2791249, 63.0297948], [13.2799439, 63.0296892], [13.2805644, 63.0296578], [13.2810606, 63.029563], [13.2816265, 63.0295023], [13.2823278, 63.0293168], [13.2827241, 63.0291164], [13.2830084, 63.0288904], [13.2830612, 63.0285801], [13.2831698, 63.0284052], [13.2834967, 63.0281659], [13.2842947, 63.0280622], [13.2852479, 63.028025], [13.2859733, 63.0280403], [13.2865153, 63.0281961], [13.287151, 63.0283489], [13.2877281, 63.0283992], [13.2881738, 63.0284072], [13.2884366, 63.0283694], [13.2886419, 63.0282764], [13.2888208, 63.0278882], [13.288971, 63.0274712], [13.2895017, 63.0271553], [13.2899504, 63.027069], [13.2905952, 63.0269956], [13.2910756, 63.0269027], [13.291371, 63.0267877], [13.291499, 63.0266273], [13.2914232, 63.026303], [13.2914289, 63.025815], [13.2917061, 63.0254286], [13.2920731, 63.0252654], [13.2922797, 63.0252172], [13.2924695, 63.0250626], [13.2927477, 63.0249661], [13.2932354, 63.0249088], [13.293814, 63.02482], [13.2950987, 63.0246684], [13.2955798, 63.0245661], [13.2960689, 63.0244923], [13.2974258, 63.0241651], [13.2977836, 63.0241077], [13.2983409, 63.0239644], [13.2986229, 63.0238845], [13.2989184, 63.0237671], [13.2992164, 63.0236215], [13.2994379, 63.0234604], [13.2995807, 63.0233686], [13.2998421, 63.023286], [13.300239, 63.0232577], [13.300581, 63.0232638], [13.3007812, 63.0232296], [13.3010287, 63.0231279], [13.3012854, 63.0229792], [13.3016796, 63.0227999], [13.3019577, 63.0227647], [13.3023027, 63.0227968], [13.3035728, 63.0228146], [13.3042621, 63.0228857], [13.3047815, 63.0230033], [13.3052778, 63.0231465], [13.3057942, 63.0232381], [13.3060534, 63.0233017], [13.3063811, 63.0235362], [13.3070436, 63.0237388], [13.3076352, 63.0238012], [13.3081261, 63.0238263], [13.3083613, 63.0238069], [13.3084874, 63.0236677], [13.308585, 63.023377], [13.3088179, 63.023202], [13.309039, 63.0229843], [13.3093474, 63.0228978], [13.3098282, 63.0228591], [13.3106755, 63.0228434], [13.3112085, 63.0229235], [13.3117979, 63.0230707], [13.312414, 63.0233314], [13.3128239, 63.0235155], [13.3132707, 63.0235705], [13.3135019, 63.0236595], [13.313736, 63.0237744], [13.3142772, 63.0238193], [13.3147844, 63.0238353], [13.3152627, 63.0237659], [13.3155914, 63.0236845], [13.3159873, 63.0236066], [13.3162915, 63.0235695], [13.3166501, 63.023564], [13.3168325, 63.0236168], [13.3171175, 63.0236831], [13.3175305, 63.0237092], [13.3179201, 63.0237043], [13.3182495, 63.0236771], [13.3185692, 63.0237015], [13.318848, 63.0237795], [13.3191399, 63.023886], [13.3195232, 63.0240177], [13.3198328, 63.0241599], [13.3201366, 63.0243114], [13.3205458, 63.0243823], [13.3210478, 63.0244595], [13.3214686, 63.0244551], [13.321706, 63.0244097], [13.3220005, 63.0243041], [13.3222858, 63.0242455], [13.3227062, 63.0241232], [13.3231499, 63.0240932], [13.3234995, 63.0243163], [13.3239303, 63.0244983], [13.3243617, 63.0246756], [13.3249196, 63.0247066], [13.3254773, 63.0246787], [13.3257839, 63.0246133], [13.3258984, 63.024488], [13.3258843, 63.0243487], [13.3256944, 63.0241402], [13.325624, 63.0239905], [13.3255033, 63.0238233], [13.3255691, 63.0237207], [13.3260153, 63.0235399], [13.3263905, 63.0234003], [13.3267907, 63.0232706], [13.3271946, 63.0231598], [13.3275195, 63.0230618], [13.3281237, 63.0228531], [13.3284963, 63.0226828], [13.3287484, 63.0225859], [13.3290359, 63.0225626], [13.3293077, 63.0226004], [13.3295041, 63.0226722], [13.3295557, 63.0227367], [13.3293183, 63.0227821], [13.3291522, 63.0229041], [13.3290714, 63.0230607], [13.3292289, 63.0232851], [13.3294374, 63.0233972], [13.3297511, 63.0234309], [13.3302085, 63.0234225], [13.3307407, 63.0233893], [13.3313979, 63.02329], [13.3317073, 63.023253], [13.3321528, 63.0232631], [13.3324673, 63.0234101], [13.3328195, 63.0236025], [13.3333586, 63.0238548], [13.3337682, 63.0241661], [13.3342199, 63.0244097], [13.3345165, 63.0245847], [13.3347591, 63.024662], [13.335048, 63.0246835], [13.3352857, 63.0246335], [13.3355676, 63.0245535], [13.3358194, 63.0245226], [13.3360723, 63.0246001], [13.3361644, 63.0247384], [13.3361539, 63.0248019], [13.3359787, 63.0248483], [13.3357725, 63.0248919], [13.3356808, 63.0249327], [13.3357191, 63.0249711], [13.3359458, 63.0250529], [13.3361291, 63.0251551], [13.336614, 63.0255597], [13.3368474, 63.0256227], [13.3374937, 63.0257141], [13.338185, 63.0258865], [13.3385546, 63.0259354], [13.3388456, 63.0259923], [13.339223, 63.026072], [13.3396819, 63.0261083], [13.3401322, 63.0260619], [13.3405199, 63.0259579], [13.3408008, 63.0258897], [13.3412766, 63.0258485], [13.3419057, 63.0258971], [13.3423338, 63.0260531], [13.3423711, 63.0262259], [13.3425575, 63.0264767], [13.3427824, 63.0266409], [13.3428638, 63.0268451], [13.3427921, 63.026957], [13.3427413, 63.0270669], [13.3428232, 63.0271415], [13.3431422, 63.0272366], [13.343342, 63.0272684], [13.3436286, 63.0272545], [13.3438264, 63.0272485], [13.3441298, 63.0273434], [13.3442945, 63.0274217], [13.3444957, 63.027437], [13.3446464, 63.0273736], [13.3447476, 63.027281], [13.3448834, 63.0272103], [13.3450887, 63.0271762], [13.3452298, 63.0271645], [13.3453219, 63.0271189], [13.3454809, 63.0269567], [13.3463858, 63.0265669], [13.3464649, 63.0264292], [13.3465723, 63.0262023], [13.3467544, 63.0260735], [13.3469834, 63.0259431], [13.3471775, 63.0258569], [13.3473872, 63.0258322], [13.3476482, 63.0258155], [13.3480627, 63.0257001], [13.3483988, 63.0255315], [13.3486224, 63.0254034], [13.3488208, 63.0252041], [13.3489741, 63.0251101], [13.3494026, 63.0250751], [13.3501996, 63.0250418], [13.3508311, 63.0250622], [13.3511879, 63.0251391], [13.3513716, 63.0253002], [13.3514704, 63.0254835], [13.3514627, 63.0256366], [13.3513669, 63.0257882], [13.351181, 63.0259005], [13.3508898, 63.0259685], [13.350531, 63.0260377], [13.3503301, 63.0261427], [13.3503196, 63.0262675], [13.3505339, 63.0263726], [13.3509945, 63.0264513], [13.3514802, 63.0265399], [13.3519138, 63.0266299], [13.3521098, 63.0267677], [13.3520049, 63.0269663], [13.3518776, 63.027122], [13.3523585, 63.0273284], [13.3533652, 63.0275793], [13.356849, 63.0288643], [13.3625912, 63.0308069], [13.3631872, 63.0310343], [13.3633659, 63.0311864], [13.363413, 63.0313859], [13.3636327, 63.0315926], [13.3640182, 63.0316696], [13.3647703, 63.031724], [13.365291, 63.0318199], [13.3656914, 63.0319386], [13.3659877, 63.032101], [13.3661417, 63.0323314], [13.3662883, 63.0325409], [13.3665881, 63.032662], [13.3668067, 63.0327734], [13.3670441, 63.0330963], [13.3671272, 63.0331929], [13.3674246, 63.0333429], [13.3678662, 63.0334044], [13.3682693, 63.03349], [13.3689386, 63.033663], [13.3694033, 63.0337745], [13.3698092, 63.033827], [13.370082, 63.0338358], [13.3702703, 63.0337645], [13.3701987, 63.0336391], [13.3699868, 63.0335568], [13.3698333, 63.03343], [13.3697806, 63.0332966], [13.3697734, 63.033164], [13.3700801, 63.0328753], [13.3704184, 63.0326452], [13.3708427, 63.0325862], [13.371334, 63.0325988], [13.3724174, 63.0327251], [13.3734202, 63.0330529], [13.3740007, 63.0333071], [13.3746876, 63.0334886], [13.3751866, 63.0335179], [13.3759599, 63.0334277], [13.3766702, 63.0333281], [13.3773964, 63.0333654], [13.3778099, 63.0335237], [13.3780647, 63.0337702], [13.3782813, 63.0339064], [13.3785992, 63.0339102], [13.3789715, 63.0338239], [13.3793151, 63.0337559], [13.3796032, 63.033691], [13.3797206, 63.0336827], [13.3806088, 63.0337642], [13.3810809, 63.0337888], [13.3815249, 63.0338213], [13.381887, 63.0338523], [13.3822101, 63.0340234], [13.3823882, 63.0341838], [13.38245, 63.0343173], [13.3824664, 63.0344501], [13.3825617, 63.0345097], [13.3827036, 63.0345577], [13.3831928, 63.034595], [13.383618, 63.0346354], [13.3840172, 63.0346588], [13.3845701, 63.0346973], [13.3849147, 63.0347197], [13.3851325, 63.0347317], [13.385379, 63.0347277], [13.3858568, 63.0347938], [13.3861328, 63.034873], [13.3863073, 63.0349671], [13.3864498, 63.0351186], [13.3866515, 63.0353249], [13.3868772, 63.0354612], [13.3870715, 63.0356467], [13.3871958, 63.0357978], [13.3873274, 63.0359698], [13.3875922, 63.0361855], [13.3878323, 63.0363676], [13.3880064, 63.0365776], [13.3881576, 63.0367333], [13.3885394, 63.0369676], [13.3889864, 63.037294], [13.3892815, 63.0375847], [13.3895561, 63.0377922], [13.3897669, 63.0379987], [13.3898545, 63.0383727], [13.3900079, 63.0386113], [13.3902731, 63.0388229], [13.3904937, 63.0390212], [13.3907036, 63.0392401], [13.3910315, 63.0394651], [13.3914181, 63.0396414], [13.3917932, 63.0398465], [13.3921972, 63.0401432], [13.3927334, 63.0404959], [13.3930809, 63.0407047], [13.3937339, 63.0409684], [13.3940679, 63.041119], [13.3944306, 63.0413653], [13.3946655, 63.0415018], [13.3948664, 63.0416087], [13.3951714, 63.0417795], [13.3954105, 63.0418663], [13.3957059, 63.0419335], [13.3959729, 63.0420125], [13.3963144, 63.042184], [13.3966367, 63.0423675], [13.3967475, 63.0424604], [13.396826, 63.0426149], [13.39693, 63.0427906], [13.3971983, 63.0429649], [13.3974374, 63.0430517], [13.3976805, 63.043089], [13.3979422, 63.0431224], [13.3981139, 63.0431419], [13.3983216, 63.0432779], [13.3984759, 63.0433965], [13.3987544, 63.0435585], [13.399165, 63.0437766], [13.3993535, 63.043813], [13.399729, 63.0437945], [13.4003992, 63.0437397], [13.4008027, 63.0437134], [13.4010813, 63.0437637], [13.401295, 63.0438253], [13.4015465, 63.0439827], [13.4019161, 63.0441463], [13.4023983, 63.0442704], [13.4029366, 63.0443789], [13.4034034, 63.0444696], [13.4037538, 63.0445335], [13.4041258, 63.0445564], [13.4046044, 63.0446142], [13.4049916, 63.0446746], [13.4053043, 63.0447544], [13.405629, 63.044909], [13.405895, 63.0451122], [13.4061799, 63.0453075], [13.4062628, 63.0454082], [13.4068327, 63.0461299], [13.406892, 63.0462965], [13.406933, 63.0464628], [13.4070627, 63.0467714], [13.4070318, 63.0470358], [13.4069874, 63.0473538], [13.4067891, 63.0476568], [13.4066125, 63.0479188], [13.4065317, 63.0482362], [13.4066692, 63.0483379], [13.4069974, 63.0484511], [13.4072518, 63.0484636], [13.4075227, 63.0483854], [13.4076294, 63.0483086], [13.4076631, 63.0478993], [13.4079277, 63.0476761], [13.408469, 63.0473044], [13.4087296, 63.0471308], [13.408921, 63.0469105], [13.4091791, 63.0467659], [13.4091168, 63.0466365], [13.4090532, 63.0464118], [13.4089461, 63.0461616], [13.4090292, 63.0459271], [13.4092169, 63.0457522], [13.409478, 63.0456821], [13.409783, 63.0456335], [13.4100889, 63.0456842], [13.4103169, 63.0457957], [13.4104301, 63.0459715], [13.4105956, 63.0461771], [13.4109341, 63.0466093], [13.4110042, 63.0467553], [13.4110064, 63.04695], [13.410897, 63.0471717], [13.4107832, 63.0473353], [13.410856, 63.0474483], [13.411248, 63.0475626], [13.4115836, 63.0476966], [13.411795, 63.0478989], [13.4119082, 63.0480747], [13.4121284, 63.0482813], [13.4123584, 63.0484797], [13.4126053, 63.0485833], [13.4129416, 63.048709], [13.4130865, 63.0489433], [13.4131728, 63.0492263], [13.4129482, 63.0496282], [13.4127294, 63.0499598], [13.4127439, 63.0501173], [13.4129468, 63.050423], [13.4132167, 63.0505807], [13.4134251, 63.0507084], [13.4134949, 63.0508587], [13.4135015, 63.0511113], [13.4139038, 63.0515445], [13.4141, 63.0519328], [13.4142456, 63.0522706], [13.4141476, 63.0525753], [13.4141853, 63.0527829], [13.4142578, 63.0530118], [13.4140384, 63.0531282], [13.413789, 63.0531654], [13.4133676, 63.0531872], [13.4130214, 63.0531814], [13.412798, 63.0532356], [13.4127423, 63.0533588], [13.4128981, 63.0534608], [13.4133522, 63.0535968], [13.4137075, 63.0537146], [13.4140408, 63.0538775], [13.4144986, 63.0539681], [13.4150135, 63.0540306], [13.4152183, 63.054092], [13.415364, 63.0542062], [13.4155188, 63.0543206], [13.4158495, 63.0544049], [13.416138, 63.054447], [13.4164251, 63.0546174], [13.4168606, 63.0547573], [13.4171332, 63.0548819], [13.4176387, 63.0549484], [13.4182245, 63.0550369], [13.4188426, 63.0551757], [13.4191949, 63.0553307], [13.4195653, 63.0557095], [13.419829, 63.0561652], [13.4201975, 63.0564571], [13.4205609, 63.0565874], [13.4213447, 63.05682], [13.4217017, 63.0569171], [13.4219771, 63.0570087], [13.4220996, 63.0571846], [13.4223425, 63.0573377], [13.4224319, 63.0574717], [13.4224848, 63.0577168], [13.4224946, 63.058044], [13.422668, 63.0583782], [13.4228451, 63.058555], [13.423133, 63.0586054], [13.4233341, 63.0586005], [13.4235758, 63.0585466], [13.4237216, 63.0584373], [13.4238333, 63.0582984], [13.4239622, 63.058284], [13.4241728, 63.0583869], [13.4244819, 63.0585122], [13.4249493, 63.0585987], [13.4252767, 63.0586125], [13.4257032, 63.0585286], [13.4261565, 63.0584534], [13.427284, 63.0583896], [13.4276404, 63.0583831], [13.4277443, 63.0584511], [13.4278513, 63.0585937], [13.4280865, 63.0587301], [13.4284109, 63.0588929], [13.4286963, 63.0588604], [13.4289815, 63.0588321], [13.4296082, 63.0587556], [13.4299437, 63.058782], [13.430264, 63.0588826], [13.4307219, 63.0589731], [13.4312103, 63.0590268], [13.4315181, 63.0590568], [13.4316948, 63.059097], [13.4319627, 63.0591653], [13.4321186, 63.0592686], [13.4321764, 63.0593665], [13.4320719, 63.05954], [13.4319278, 63.0596941], [13.4317817, 63.0597737], [13.4316774, 63.0598428], [13.4316361, 63.0599465], [13.4316452, 63.0600361], [13.4317358, 63.0601345], [13.4321006, 63.0602972], [13.4324215, 63.0603921], [13.441149, 63.0627079], [13.4661072, 63.0597276], [13.4681791, 63.058107], [13.4803415, 63.0565829], [13.4823584, 63.0583506], [13.4822314, 63.0587243], [13.4821907, 63.0589554], [13.4821926, 63.0590714], [13.4821167, 63.0593272], [13.481775, 63.0594324], [13.4814136, 63.0595071], [13.4812927, 63.0596311], [13.4811106, 63.0598247], [13.4808085, 63.0599911], [13.4804817, 63.0603284], [13.4806082, 63.0605522], [13.4809155, 63.0607387], [13.4813428, 63.0609523], [13.4816872, 63.0612301], [13.4818158, 63.0614288], [13.4818251, 63.0615902], [13.4818117, 63.0618974], [13.4818511, 63.0620996], [13.4818375, 63.0622707], [13.4817937, 63.062401], [13.4818717, 63.0625384], [13.4820181, 63.0626517], [13.4822724, 63.062807], [13.4825346, 63.0628617], [13.4829681, 63.0628588], [13.4838867, 63.062763], [13.484203, 63.0626976], [13.4846302, 63.0626341], [13.4852099, 63.0626083], [13.4858189, 63.0626334], [13.4861137, 63.0626987], [13.4864749, 63.0629062], [13.4870322, 63.0631622], [13.4875507, 63.0633471], [13.4884461, 63.0635432], [13.4893625, 63.0637548], [13.4897127, 63.063821], [13.4904192, 63.0638779], [13.4911495, 63.063915], [13.4918235, 63.0639613], [13.4929972, 63.0640107], [13.4938361, 63.0640799], [13.4943693, 63.0642196], [13.4949121, 63.0643796], [13.4957841, 63.0647315], [13.4959176, 63.0648698], [13.4960502, 63.0650181], [13.4963997, 63.0650943], [13.4966477, 63.0651891], [13.4970935, 63.0653123], [13.4975143, 63.0653292], [13.4978674, 63.0653602], [13.4980833, 63.0654393], [13.4984304, 63.0655457], [13.4989681, 63.0656301], [13.4995752, 63.0656803], [13.4998911, 63.065761], [13.5003019, 63.0659038], [13.5008516, 63.0659783], [13.5016148, 63.0660209], [13.5022278, 63.0662778], [13.5023993, 63.0663562], [13.5026799, 63.0664616], [13.5028697, 63.0665906], [13.5033096, 63.0666482], [13.5039088, 63.0665168], [13.5043706, 63.0662976], [13.5048156, 63.0661486], [13.5057132, 63.0661783], [13.5071573, 63.0663227], [13.5075488, 63.0664298], [13.5078092, 63.0665096], [13.5085981, 63.0665901], [13.5091194, 63.0667027], [13.5111962, 63.0671641], [13.5122241, 63.0673785], [13.5133426, 63.0675476], [13.5146165, 63.0677552], [13.5158379, 63.067926], [13.5168997, 63.0681122], [13.5174637, 63.0682865], [13.5177518, 63.0684457], [13.5179467, 63.0685817], [13.5181544, 63.0689549], [13.5182122, 63.0692215], [13.5182009, 63.0694619], [13.5183133, 63.0696397], [13.5184989, 63.0697935], [13.5187643, 63.0700384], [13.5189382, 63.0701418], [13.51922, 63.0703798], [13.5196, 63.0706768], [13.5198485, 63.0709358], [13.5200063, 63.0711395], [13.5200694, 63.0713416], [13.5201479, 63.0715475], [13.5200982, 63.0717729], [13.51996, 63.0718173], [13.5190901, 63.0718031], [13.5184487, 63.0718033], [13.517934, 63.0717052], [13.517654, 63.0715426], [13.5171049, 63.0713792], [13.5166813, 63.0713292], [13.5158011, 63.0712466], [13.514934, 63.0710995], [13.5143129, 63.0709457], [13.5141724, 63.0708213], [13.5141502, 63.0706056], [13.5140595, 63.0704533], [13.5136776, 63.0702783], [13.5129795, 63.0700981], [13.5119403, 63.0700236], [13.5088859, 63.0699016], [13.5054911, 63.0696806], [13.5012523, 63.0701063], [13.5009066, 63.0702693], [13.5005782, 63.0705117], [13.5001637, 63.0713306], [13.5002724, 63.0729266], [13.5007948, 63.0746945], [13.5008556, 63.0749217], [13.5010967, 63.0752704], [13.5014031, 63.0754981], [13.5047392, 63.0772405], [13.5052691, 63.0774467], [13.5062248, 63.0775773], [13.5071791, 63.0777259], [13.5085426, 63.0779062], [13.5097844, 63.0781241], [13.5108711, 63.0782999], [13.5124237, 63.0784942], [13.5139547, 63.0787598], [13.5153202, 63.0790156], [13.5168203, 63.0792735], [13.5175412, 63.0794684], [13.5185949, 63.0797622], [13.5196754, 63.0802143], [13.5207755, 63.0805231], [13.5228192, 63.081016], [13.5241387, 63.0813535], [13.5250304, 63.0815845], [13.5254752, 63.0816716], [13.5256784, 63.0817498], [13.5257551, 63.0818958], [13.5259032, 63.0819731], [13.526148, 63.0819421], [13.5265338, 63.0819383], [13.5268179, 63.0819679], [13.5274093, 63.0820123], [13.5279444, 63.0820709], [13.5285358, 63.0821153], [13.5288387, 63.0821851], [13.5290262, 63.082323], [13.5289756, 63.082407], [13.5287364, 63.082508], [13.5284952, 63.082634], [13.5284167, 63.0827925], [13.5284513, 63.0829129], [13.5284727, 63.0832029], [13.5283938, 63.0833664], [13.5282513, 63.083499], [13.5281913, 63.0837027], [13.5281535, 63.0839466], [13.5282807, 63.0842395], [13.5285534, 63.0844953], [13.5294138, 63.0847319], [13.5304864, 63.0849899], [13.5317349, 63.0852293], [13.5329608, 63.0853533], [13.5333668, 63.0854281], [13.5335466, 63.0855166], [13.5339145, 63.0857422], [13.534196, 63.0859464], [13.534462, 63.0863502], [13.5346353, 63.0863879], [13.5347976, 63.0864255], [13.5348759, 63.0865516], [13.5349307, 63.0866973], [13.5349714, 63.0870225], [13.5349699, 63.0871823], [13.5350208, 63.0873779], [13.5354268, 63.0878133], [13.5455905, 63.0882257], [13.5521962, 63.0894525], [13.5582384, 63.0906987], [13.5645733, 63.0921248], [13.5678558, 63.0933164], [13.5831878, 63.092418], [13.5833465, 63.0921583], [13.5836904, 63.0918568], [13.5841743, 63.0916023], [13.5846438, 63.0912851], [13.585406, 63.0909373], [13.5858281, 63.0907333], [13.5863383, 63.0903904], [13.586557, 63.0900604], [13.5867398, 63.0896947], [13.5874059, 63.0895911], [13.588382, 63.089738], [13.5888974, 63.0898338], [13.5895255, 63.0902297], [13.5901602, 63.0905379], [13.5907443, 63.0907488], [13.5914951, 63.0908045], [13.5937982, 63.0908141], [13.5967427, 63.0910443], [13.5982724, 63.0910418], [13.6017297, 63.0911483], [13.6052025, 63.091562], [13.6063682, 63.0917644], [13.6073764, 63.0917449], [13.6085659, 63.0916318], [13.6102176, 63.0915521], [13.6119012, 63.0915606], [13.6134116, 63.0915577], [13.6152212, 63.0914365], [13.6162968, 63.0915496], [13.6183413, 63.0916514], [13.6196888, 63.0915941], [13.6205566, 63.0915653], [13.6218239, 63.0915365], [13.6231106, 63.0916046], [13.624439, 63.0916492], [13.625654, 63.0916076], [13.6265888, 63.0915737], [13.6270945, 63.0916654], [13.6274159, 63.091749], [13.6276414, 63.0917869], [13.6278688, 63.0917991], [13.6282325, 63.0917702], [13.6287697, 63.0917094], [13.6290757, 63.0916883], [13.6294571, 63.0916769], [13.6299898, 63.0916764], [13.6301995, 63.091671], [13.6305239, 63.0916588], [13.6309635, 63.091631], [13.6314766, 63.0916389], [13.63201, 63.0916299], [13.632487, 63.0916113], [13.6330578, 63.0916114], [13.6337071, 63.0915783], [13.6342247, 63.0915259], [13.6349868, 63.0915117], [13.6355772, 63.0915035], [13.6359959, 63.0915013], [13.6364337, 63.0914994], [13.6367554, 63.0915215], [13.6371735, 63.0915279], [13.637534, 63.0915421], [13.6380439, 63.091593], [13.638574, 63.091627], [13.6391999, 63.0916538], [13.639673, 63.0916869], [13.6403585, 63.0916801], [13.6410597, 63.0917167], [13.6416481, 63.0917343], [13.6421252, 63.0917157], [13.6428715, 63.0916581], [13.6431755, 63.0916628], [13.643498, 63.0916763], [13.643821, 63.0916812], [13.6443576, 63.0916291], [13.6446839, 63.091591], [13.6449702, 63.0915781], [13.6452636, 63.0914705], [13.6456881, 63.0913907], [13.6461309, 63.0913199], [13.6465712, 63.0912835], [13.6468955, 63.0912712], [13.647204, 63.0912155], [13.6474378, 63.0911415], [13.648122, 63.0911519], [13.6484856, 63.0911229], [13.6487896, 63.0911276], [13.6490354, 63.0911486], [13.6491646, 63.0912023], [13.6493141, 63.091239], [13.6495016, 63.0912764], [13.6497499, 63.0912629], [13.6499457, 63.0911883], [13.6502732, 63.0911329], [13.6506185, 63.091095], [13.6511544, 63.0910515], [13.6517074, 63.091034], [13.6520305, 63.0910389], [13.6524283, 63.0910622], [13.6528615, 63.0911205], [13.6532371, 63.0911866], [13.6535956, 63.0912265], [13.6539345, 63.0912748], [13.6542728, 63.0913317], [13.6545933, 63.091371], [13.654917, 63.0913673], [13.6554307, 63.0913665], [13.6560952, 63.0913852], [13.6565317, 63.0914004], [13.6568915, 63.0914231], [13.6573653, 63.0914476], [13.6576105, 63.0914771], [13.6579494, 63.0915254], [13.6583066, 63.0915825], [13.6587735, 63.0917017], [13.6594854, 63.0918504], [13.6598028, 63.0919329], [13.6601791, 63.0919903], [13.6606111, 63.0920658], [13.6609652, 63.092166], [13.6613206, 63.092249], [13.6616234, 63.0922708], [13.6620421, 63.0922685], [13.66226, 63.0921511], [13.6623849, 63.0920064], [13.6627175, 63.0918821], [13.6633915, 63.0917716], [13.6637703, 63.0917946], [13.6641459, 63.0918606], [13.664386, 63.0919591], [13.6646413, 63.0921095], [13.6649752, 63.0922266], [13.6653622, 63.0923963], [13.6656986, 63.092479], [13.6660179, 63.0925355], [13.6664556, 63.0925335], [13.6672006, 63.0924931], [13.6682433, 63.0925433], [13.6688895, 63.092553], [13.6694014, 63.092578], [13.6698923, 63.0926285], [13.6702129, 63.0926678], [13.6706094, 63.0927083], [13.6710003, 63.0928263], [13.6713519, 63.0929609], [13.6717938, 63.093199], [13.6719911, 63.0932945], [13.6726284, 63.0935723], [13.6736277, 63.0938079], [13.6739136, 63.0942144], [13.6740384, 63.0944496], [13.6742562, 63.0946074], [13.6745842, 63.09467], [13.6748353, 63.0948068], [13.6748514, 63.0950116], [13.674587, 63.0951546], [13.6743337, 63.0953588], [13.6741931, 63.0955397], [13.6741893, 63.0957981], [13.6744527, 63.0959817], [13.6750733, 63.0961566], [13.6754585, 63.0964067], [13.6759413, 63.0967266], [13.6767512, 63.0970192], [13.6776872, 63.0973211], [13.6784026, 63.0972928], [13.6789569, 63.0972979], [13.679442, 63.0972768], [13.6798304, 63.0972757], [13.679998, 63.0973644], [13.680179, 63.0974857], [13.6804678, 63.0976482], [13.6808088, 63.0977504], [13.681133, 63.0977591], [13.6814199, 63.0978426], [13.6816495, 63.0979502], [13.6819927, 63.0980238], [13.682445, 63.0980165], [13.6840666, 63.0980562], [13.684787, 63.0980675], [13.6850968, 63.098058], [13.685402, 63.0981094], [13.6857967, 63.0981299], [13.6860677, 63.098109], [13.6864084, 63.0981108], [13.6866833, 63.0981438], [13.6870709, 63.0981534], [13.68737, 63.0980755], [13.6878392, 63.09795], [13.6885458, 63.0978282], [13.6897467, 63.0976675], [13.6903598, 63.0976304], [13.6914544, 63.0976187], [13.6921574, 63.0975435], [13.6927676, 63.0973341], [13.693544, 63.0971272], [13.6941966, 63.0969866], [13.6948745, 63.0968248], [13.6954113, 63.096747], [13.6962125, 63.096842], [13.6966936, 63.0966628], [13.6970063, 63.0965098], [13.6973848, 63.0964295], [13.6976527, 63.0963439], [13.6979762, 63.0963633], [13.6983801, 63.096366], [13.6990564, 63.0962257], [13.6995369, 63.0960537], [13.6999579, 63.0959346], [13.7002534, 63.0957992], [13.7002728, 63.0955411], [13.7002606, 63.0952824], [13.7002337, 63.0951133], [13.7005622, 63.0949605], [13.7014158, 63.0947799], [13.7019876, 63.0945518], [13.702787, 63.0942437], [13.7031724, 63.0941952], [13.7035519, 63.0940886], [13.7040346, 63.0939834], [13.7044699, 63.0939618], [13.7050469, 63.0939797], [13.7057924, 63.0939533], [13.7062531, 63.0938665], [13.7066759, 63.0937324], [13.7069377, 63.0935397], [13.7070536, 63.0933636], [13.7071622, 63.0932903], [13.7073705, 63.0932653], [13.7075968, 63.093278], [13.7077798, 63.0933182], [13.7081079, 63.0933511], [13.7085851, 63.0933208], [13.7096076, 63.0931768], [13.7100896, 63.0930809], [13.7105536, 63.0929474], [13.7108864, 63.0929149], [13.7112831, 63.0928552], [13.7115175, 63.0927557], [13.7119581, 63.0926593], [13.7122145, 63.0925414], [13.7124062, 63.09246], [13.7126173, 63.0923976], [13.7130539, 63.0923572], [13.7132022, 63.0923716], [13.7134416, 63.0923752], [13.7136646, 63.0923988], [13.713991, 63.0924444], [13.7142449, 63.0924549], [13.7144853, 63.0924449], [13.7148527, 63.0923349], [13.7150652, 63.0922973], [13.7153554, 63.0922201], [13.7155847, 63.0921556], [13.7157522, 63.0921173], [13.7158889, 63.0920922], [13.7161337, 63.0920211], [13.716349, 63.0919428], [13.7164886, 63.091877], [13.716715, 63.0918532], [13.7169858, 63.0918368], [13.7171977, 63.091806], [13.71747, 63.0917693], [13.7177428, 63.0917258], [13.7180904, 63.0916834], [13.7185562, 63.0916631], [13.7189197, 63.0916073], [13.7190573, 63.0915686], [13.7191824, 63.0914958], [13.719309, 63.0914026], [13.7194509, 63.0913029], [13.7198073, 63.0911384], [13.7199753, 63.0910933], [13.7201882, 63.0910489], [13.7203552, 63.0910175], [13.7204943, 63.0909584], [13.7206907, 63.0909341], [13.720815, 63.0909719], [13.7209128, 63.0910598], [13.7211937, 63.0911975], [13.7213362, 63.091119], [13.7215104, 63.0908338], [13.7257255, 63.0844318], [13.7331636, 63.0735805], [13.7357643, 63.0698057], [13.7373098, 63.0702537], [13.7382494, 63.0704702], [13.7394115, 63.0706772], [13.7405683, 63.0708446], [13.7414708, 63.070967], [13.7422851, 63.0710487], [13.7430649, 63.0711118], [13.7437922, 63.0710736], [13.7440998, 63.0710348], [13.7443227, 63.0709606], [13.7443956, 63.0708197], [13.7442792, 63.0704944], [13.7442926, 63.0703562], [13.7443904, 63.0702569], [13.7447107, 63.0702057], [13.7450912, 63.0702003], [13.7454561, 63.0702504], [13.7459435, 63.0703633], [13.7464583, 63.0704803], [13.7468741, 63.0705383], [13.7474759, 63.0705414], [13.7480683, 63.0705066], [13.7486887, 63.0704093], [13.7493425, 63.0702873], [13.7499959, 63.07023], [13.750545, 63.0702503], [13.7510343, 63.0702752], [13.751383, 63.0703304], [13.7515942, 63.0704287], [13.7521842, 63.070721], [13.7528884, 63.071024], [13.7533201, 63.071199], [13.7535083, 63.0712269], [13.7541235, 63.0712067], [13.7545773, 63.0711736], [13.755219, 63.0711718], [13.7558269, 63.0712001], [13.7564075, 63.071282], [13.7567704, 63.0714201], [13.7571013, 63.0716225], [13.7573441, 63.0718381], [13.7574029, 63.0720816], [13.7574249, 63.0722833], [13.7573743, 63.0724461], [13.757149, 63.0726731], [13.757223, 63.0730427], [13.7574059, 63.0733832], [13.7576831, 63.0737359], [13.7580034, 63.0740945], [13.7584555, 63.0743795], [13.7586465, 63.0744829], [13.7588369, 63.0745377], [13.7591003, 63.0745665], [13.7595972, 63.0744818], [13.7603513, 63.0743414], [13.7606566, 63.0743367], [13.7609627, 63.0743194], [13.7614166, 63.0743438], [13.7621184, 63.0743913], [13.7626888, 63.0745072], [13.7632533, 63.0745942], [13.7640198, 63.0747973], [13.7647401, 63.0750411], [13.7654018, 63.0752139], [13.7657428, 63.0752672], [13.7660073, 63.0752799], [13.7664961, 63.0752562], [13.7670635, 63.0751832], [13.7674068, 63.0751431], [13.7677115, 63.0751473], [13.7679942, 63.0751837], [13.7684329, 63.0753156], [13.7697845, 63.0757138], [13.7705222, 63.0759362], [13.7713411, 63.0762461], [13.77218, 63.0766119], [13.7728612, 63.0770259], [13.7734889, 63.0774122], [13.7740655, 63.077733], [13.7744479, 63.0779379], [13.7746559, 63.0780253], [13.7748852, 63.0780914], [13.7765344, 63.0781899], [13.7784859, 63.0782691], [13.7803967, 63.0783064], [13.7820096, 63.0784744], [13.78297, 63.0785669], [13.7831445, 63.0787419], [13.783379, 63.0789662], [13.7837731, 63.0792342], [13.7844015, 63.0795539], [13.7852927, 63.08003], [13.7858045, 63.0803158], [13.7860641, 63.0805448], [13.7866517, 63.0810376], [13.787746, 63.0819156], [13.7883942, 63.0824136], [13.788554, 63.0825722], [13.7887922, 63.0828631], [13.7889647, 63.0831873], [13.7894533, 63.0834655], [13.7899495, 63.0836899], [13.7903122, 63.0838351], [13.7909268, 63.0839479], [13.7912504, 63.084026], [13.7917209, 63.0841008], [13.7921166, 63.0842267], [13.7923277, 63.0843303], [13.7926107, 63.084363], [13.7929278, 63.084362], [13.7932845, 63.084419], [13.7935103, 63.084539], [13.7936364, 63.0846684], [13.7939528, 63.0849765], [13.7941432, 63.0852111], [13.7944274, 63.085704], [13.7944687, 63.0860371], [13.7942944, 63.0865147], [13.7940355, 63.0869516], [13.7937236, 63.0875908], [13.7936743, 63.0877969], [13.7934572, 63.0881409], [13.793219, 63.0885061], [13.7928261, 63.0889321], [13.7922791, 63.0894711], [13.7919232, 63.0899372], [13.7917415, 63.0902259], [13.791611, 63.0905189], [13.7916453, 63.091314], [13.7917114, 63.0918093], [13.7919301, 63.0922761], [13.7921492, 63.0926171], [13.7923301, 63.0928156], [13.7925118, 63.0929439], [13.7927248, 63.0930188], [13.7932186, 63.0931029], [13.7939635, 63.0931653], [13.7942306, 63.0932013], [13.7945164, 63.0933149], [13.7946351, 63.093437], [13.7947757, 63.0936475], [13.7948376, 63.0937885], [13.7950511, 63.0938562], [13.7955324, 63.0938898], [13.7961362, 63.0938693], [13.796431, 63.0939057], [13.79667, 63.0939486], [13.7971288, 63.0940214], [13.7973662, 63.0940876], [13.7984627, 63.0945863], [13.7990159, 63.0947916], [13.7994417, 63.0950042], [13.8000062, 63.0951594], [13.8005692, 63.095275], [13.8013461, 63.0953953], [13.802314, 63.0954427], [13.8034081, 63.0954991], [13.8039325, 63.0955422], [13.8045571, 63.095567], [13.8052745, 63.095566], [13.8055362, 63.0955642], [13.8058039, 63.095593], [13.8059868, 63.0956441], [13.8071043, 63.0960818], [13.8076058, 63.0962298], [13.8081633, 63.0962972], [13.8087863, 63.096329], [13.8103532, 63.0962877], [13.810648, 63.0963308], [13.8121821, 63.0965735], [13.8123684, 63.0966562], [13.8124922, 63.0967785], [13.8128677, 63.0974429], [13.8132299, 63.0978578], [13.8132598, 63.0980681], [13.8135465, 63.0983205], [13.8136295, 63.0983847], [13.8145387, 63.098851], [13.8158511, 63.0990111], [13.8170219, 63.0991036], [13.8171885, 63.0990706], [13.8174469, 63.0989878], [13.8184651, 63.0982239], [13.8188237, 63.0981469], [13.8195911, 63.0982071], [13.8199433, 63.0983707], [13.820141, 63.0986569], [13.820169, 63.098758], [13.8201782, 63.0990006], [13.8203172, 63.0991849], [13.821218, 63.0992738], [13.821527, 63.0991289], [13.821602, 63.098884], [13.8216224, 63.0986271], [13.8217545, 63.0984948], [13.8220122, 63.0983796], [13.8232103, 63.0983639], [13.8246911, 63.0982004], [13.8261215, 63.0978627], [13.8265547, 63.0977442], [13.8272781, 63.0976108], [13.8277935, 63.0975044], [13.8292383, 63.097311], [13.8299075, 63.0972125], [13.8301457, 63.0971555], [13.8307397, 63.0970055], [13.8311684, 63.0968924], [13.8315902, 63.0968167], [13.8325888, 63.0967075], [13.8332013, 63.0966745], [13.8341561, 63.0965681], [13.8345211, 63.0965095], [13.8348222, 63.096457], [13.8352121, 63.0963844], [13.8355457, 63.0962715], [13.835661, 63.096216], [13.837511, 63.095875], [13.8384947, 63.0957163], [13.83924, 63.0956009], [13.8397089, 63.0955139], [13.8399064, 63.0954426], [13.8409123, 63.0954154], [13.841428, 63.0953742], [13.8422742, 63.0952808], [13.8426554, 63.0951972], [13.8431498, 63.0951699], [13.8435713, 63.0950801], [13.8441365, 63.0950202], [13.8444095, 63.0950259], [13.8447255, 63.0949985], [13.8449448, 63.0948307], [13.8455905, 63.0944474], [13.8459473, 63.0942143], [13.8462312, 63.0939581], [13.8464897, 63.0936779], [13.8467856, 63.0935369], [13.847414, 63.0933221], [13.8477178, 63.0930645], [13.8486258, 63.0928304], [13.8497141, 63.0925768], [13.8508025, 63.0923609], [13.8516532, 63.0921435], [13.8520073, 63.091975], [13.8525666, 63.0916994], [13.8532553, 63.091281], [13.8542633, 63.09053], [13.8550187, 63.0898849], [13.8552137, 63.0895262], [13.8554398, 63.0890173], [13.8555546, 63.0883175], [13.8556332, 63.0875828], [13.8555312, 63.0870652], [13.8557031, 63.0866216], [13.8560304, 63.0861705], [13.8563221, 63.0856396], [13.8564466, 63.0849992], [13.8566891, 63.0841332], [13.8566687, 63.083788], [13.8564753, 63.0834678], [13.856401, 63.083107], [13.8567847, 63.0824901], [13.8571358, 63.0820377], [13.857407, 63.0816698], [13.8574775, 63.0814432], [13.857477, 63.0811756], [13.8575533, 63.0809311], [13.8578422, 63.0805834], [13.858212, 63.0802589], [13.8585393, 63.0799622], [13.8590878, 63.0795948], [13.859312, 63.0792601], [13.8593528, 63.0790526], [13.8594849, 63.0787662], [13.8596228, 63.0785787], [13.8596611, 63.0779276], [13.8594661, 63.0775068], [13.859064, 63.0771733], [13.8584902, 63.0768541], [13.8576008, 63.0765983], [13.8560297, 63.0766191], [13.8543603, 63.0767096], [13.8533272, 63.0768154], [13.8521904, 63.0770069], [13.8506458, 63.0773497], [13.8496952, 63.0773853], [13.8491359, 63.077352], [13.8476732, 63.0772026], [13.8470102, 63.0770592], [13.8465433, 63.0768195], [13.8461638, 63.0765385], [13.8456364, 63.076037], [13.8454564, 63.075859], [13.8449784, 63.0756118], [13.8444627, 63.0754626], [13.8435794, 63.0752661], [13.842617, 63.0751452], [13.8416245, 63.0750092], [13.8409864, 63.0748951], [13.8400336, 63.074681], [13.8394694, 63.074502], [13.8389743, 63.0743065], [13.8383338, 63.0740613], [13.8375621, 63.0738581], [13.8366103, 63.0737122], [13.8356456, 63.0736145], [13.8349702, 63.0736721], [13.8343848, 63.0738177], [13.8339222, 63.0740019], [13.8329714, 63.0743499], [13.8325328, 63.0743765], [13.8317026, 63.0743589], [13.830936, 63.074339], [13.830184, 63.0743697], [13.8295989, 63.0744345], [13.8288622, 63.0745482], [13.827684, 63.0747943], [13.8269732, 63.0749642], [13.8262677, 63.0750273], [13.8257305, 63.0749335], [13.8253769, 63.0747886], [13.8251686, 63.0746027], [13.8239431, 63.0741475], [13.8232046, 63.0737425], [13.822524, 63.0731912], [13.8218461, 63.0724929], [13.8213022, 63.0719113], [13.8211476, 63.0715289], [13.8211715, 63.0710846], [13.8215726, 63.0707856], [13.8222228, 63.0705439], [13.8225876, 63.0704201], [13.8228995, 63.0701521], [13.82331, 63.0698317], [13.8237778, 63.0697057], [13.8241274, 63.0694633], [13.8241983, 63.0692456], [13.8235935, 63.0689644], [13.8231281, 63.0687246], [13.8228526, 63.0684839], [13.8226791, 63.0681443], [13.8224794, 63.0677291], [13.8222022, 63.0670688], [13.8220208, 63.0668403], [13.8216819, 63.0666023], [13.8212242, 63.0663662], [13.8205204, 63.065811], [13.8201073, 63.0655038], [13.8199517, 63.0652469], [13.8202146, 63.0647774], [13.8206285, 63.0642993], [13.8212916, 63.0637638], [13.8216769, 63.0634645], [13.8223461, 63.0629542], [13.8226765, 63.0625358], [13.8228867, 63.0621408], [13.8231475, 63.0616999], [13.8234336, 63.0612379], [13.823792, 63.0608701], [13.8246192, 63.0602509], [13.8254355, 63.0597821], [13.8267519, 63.0591771], [13.8273619, 63.0589204], [13.8284432, 63.0587284], [13.8292724, 63.0585197], [13.8298756, 63.0583906], [13.8310869, 63.0581631], [13.8314778, 63.0581355], [13.8319234, 63.0581917], [13.832357, 63.0582889], [13.8330905, 63.0583961], [13.8337019, 63.0583803], [13.8346006, 63.0583437], [13.8355084, 63.058257], [13.8364243, 63.0580896], [13.8368137, 63.0579991], [13.8370898, 63.0578936], [13.8373327, 63.0578413], [13.8378543, 63.0577751], [13.8381676, 63.0577314], [13.8384351, 63.0576707], [13.8388299, 63.0576054], [13.8392602, 63.0575014], [13.8397164, 63.0574158], [13.8400286, 63.0573829], [13.8402651, 63.0573933], [13.8408344, 63.0573246], [13.8411247, 63.0573128], [13.8416879, 63.0573426], [13.8419349, 63.0574053], [13.8425734, 63.0575123], [13.8432092, 63.0576065], [13.8435609, 63.0576912], [13.8440855, 63.0577508], [13.8445041, 63.0577615], [13.8450494, 63.0577335], [13.8457462, 63.0577356], [13.8462577, 63.0577285], [13.8468937, 63.0577042], [13.8475915, 63.0577351], [13.848225, 63.0578132], [13.8487521, 63.0579249], [13.8493013, 63.0580155], [13.8497557, 63.0581023], [13.8500893, 63.0581704], [13.8504952, 63.0581898], [13.8508969, 63.0581731], [13.8512529, 63.0581771], [13.8515944, 63.0582058], [13.8520178, 63.0583261], [13.8522618, 63.0584192], [13.8524693, 63.0585206], [13.8528149, 63.0585872], [13.8530193, 63.0586023], [13.8533188, 63.0586553], [13.8536257, 63.0587138], [13.8540535, 63.0588683], [13.8542379, 63.0589243], [13.854391, 63.058976], [13.8546316, 63.0590637], [13.8547961, 63.0591983], [13.8549616, 63.0593239], [13.8551054, 63.059467], [13.8553451, 63.0596032], [13.8558074, 63.0597692], [13.8563239, 63.0599471], [13.8566556, 63.0600349], [13.8569776, 63.060101], [13.8573951, 63.0601223], [13.8578628, 63.0600801], [13.8585098, 63.0599087], [13.8587675, 63.059828], [13.8589943, 63.0596998], [13.8591234, 63.0595984], [13.8593625, 63.0594274], [13.8596203, 63.0592281], [13.8600016, 63.0590601], [13.8604149, 63.0589287], [13.8613236, 63.0585581], [13.8616854, 63.0583879], [13.8627949, 63.0581059], [13.8634054, 63.0579822], [13.8639781, 63.0578002], [13.8645507, 63.0576596], [13.8657793, 63.0574142], [13.8670209, 63.057196], [13.8678108, 63.0570599], [13.8682787, 63.0570141], [13.8690134, 63.0570313], [13.8694971, 63.0569858], [13.8696946, 63.0568732], [13.8697568, 63.0567667], [13.8700136, 63.0566158], [13.8702053, 63.0564816], [13.8704118, 63.0563584], [13.8705534, 63.05625], [13.8709628, 63.0561167], [13.8713259, 63.0559716], [13.8719532, 63.055798], [13.8726084, 63.0557004], [13.8729193, 63.0556404], [13.8730785, 63.055633], [13.8735657, 63.0555516], [13.8737926, 63.0555797], [13.8739976, 63.0556271], [13.8743106, 63.0556642], [13.8746745, 63.0556682], [13.875183, 63.0556519], [13.8755538, 63.0556256], [13.8758826, 63.055663], [13.8760825, 63.0557229], [13.8763525, 63.0559907], [13.8768443, 63.0564931], [13.877229, 63.0567221], [13.8779235, 63.057218], [13.8781838, 63.0574245], [13.8786039, 63.0574998], [13.8793248, 63.0574969], [13.8797927, 63.05753], [13.8801433, 63.0575086], [13.8804882, 63.0574655], [13.8811852, 63.0575035], [13.8817317, 63.0575418], [13.8824514, 63.0575119], [13.8828829, 63.0573952], [13.8832334, 63.0571385], [13.8836597, 63.0569948], [13.8844142, 63.0568543], [13.8869048, 63.056538], [13.8884807, 63.0563805], [13.8892981, 63.0562844], [13.890054, 63.0563271], [13.8910145, 63.0565411], [13.8920175, 63.0569625], [13.8924233, 63.0572206], [13.8930093, 63.0574177], [13.8940511, 63.0576513], [13.89531, 63.0576937], [13.8964409, 63.0575897], [13.8975886, 63.0575166], [13.8991176, 63.057313], [13.8995923, 63.0572385], [13.9002583, 63.0573098], [13.9007567, 63.0575123], [13.9010962, 63.057681], [13.901396, 63.0577716], [13.9019442, 63.0578333], [13.9027035, 63.0579622], [13.9031942, 63.0581232], [13.9037085, 63.0582865], [13.9053435, 63.0586078], [13.9061582, 63.0588564], [13.9077864, 63.0592062], [13.909189, 63.0593968], [13.9107025, 63.0595072], [13.9110076, 63.0596248], [13.9119386, 63.0597788], [13.9127339, 63.0599048], [13.9138007, 63.0599681], [13.9151139, 63.060103], [13.916163, 63.0602648], [13.9169056, 63.0604435], [13.9174882, 63.0605974], [13.9185121, 63.0608538], [13.9195111, 63.0609229], [13.9201786, 63.0608613], [13.9207933, 63.0606925], [13.9214269, 63.0604524], [13.9222974, 63.06042], [13.9233036, 63.0603761], [13.9243905, 63.0603176], [13.925318, 63.060229], [13.9261846, 63.0601823], [13.9263091, 63.0602029], [13.9267636, 63.0603194], [13.9275641, 63.0604663], [13.9286783, 63.0606521], [13.9299066, 63.0608487], [13.9303452, 63.0609649], [13.9310365, 63.0612502], [13.9317715, 63.0615343], [13.9328361, 63.0620173], [13.9339754, 63.062401], [13.9352913, 63.0626437], [13.9360799, 63.0626324], [13.937236, 63.0625208], [13.9380705, 63.0623164], [13.9386568, 63.0620955], [13.9389682, 63.0620052], [13.939147, 63.0619433], [13.939629, 63.0617406], [13.9398766, 63.0614816], [13.9288976, 63.0591549], [13.9368024, 63.0463113], [13.9673509, 63.0487369], [14.0135909, 63.0523113], [14.0323191, 63.0538806], [14.044016, 63.0548501], [14.1229802, 63.0586042], [14.124206, 63.0564646], [14.1262732, 63.0529433], [14.1344624, 63.0391421], [14.1713894, 63.0464381], [14.1720038, 63.0463595], [14.1731812, 63.0454302], [14.1731479, 63.0453275], [14.1729781, 63.0451945], [14.1730269, 63.0450443], [14.1731593, 63.0448863], [14.1731152, 63.0447673], [14.1732545, 63.0446273], [14.1734765, 63.0445564], [14.1736725, 63.0444584], [14.1737694, 63.0443627], [14.1739899, 63.0443169], [14.1741481, 63.0443189], [14.1743679, 63.0444131], [14.1746003, 63.0444949], [14.1747648, 63.0445866], [14.1749428, 63.0445888], [14.1751269, 63.0444923], [14.1752625, 63.0444097], [14.1756001, 63.0443259], [14.1757012, 63.0442266], [14.1757482, 63.044107], [14.1760589, 63.0440103], [14.1763097, 63.0439865], [14.1765986, 63.0439864], [14.1769725, 63.0440197], [14.1773595, 63.0440334], [14.1775747, 63.0440737], [14.1778479, 63.0440071], [14.1780689, 63.044017], [14.1783705, 63.0440673], [14.1786977, 63.0440893], [14.1790868, 63.0440043], [14.1794118, 63.0438683], [14.1794744, 63.0437507], [14.1794233, 63.0436155], [14.1795956, 63.0435171], [14.1798977, 63.0434311], [14.1801534, 63.0434557], [14.1804189, 63.04345], [14.1805459, 63.0433798], [14.180697, 63.0433691], [14.1809137, 63.0434489], [14.1810639, 63.0434507], [14.1810374, 63.0433033], [14.1810947, 63.0432071], [14.1811174, 63.0431607], [14.1813526, 63.0431313], [14.1816468, 63.0431097], [14.1818585, 63.0430782], [14.1817461, 63.0429746], [14.1817075, 63.0428306], [14.18181, 63.0427726], [14.1821012, 63.0427349], [14.1823389, 63.0427306], [14.1824751, 63.0427036], [14.1825469, 63.0426309], [14.1824265, 63.0425935], [14.1823822, 63.0424764], [14.182493, 63.0424131], [14.1826138, 63.0423141], [14.1826205, 63.0422048], [14.1827448, 63.0421776], [14.1829165, 63.0421528], [14.1831588, 63.0421378], [14.1833289, 63.0420752], [14.1833903, 63.0419773], [14.1832468, 63.0418643], [14.1831667, 63.0418167], [14.1831839, 63.041729], [14.1833074, 63.0416515], [14.1834767, 63.0416016], [14.1836183, 63.0416141], [14.1836888, 63.0414983], [14.1836388, 63.0414098], [14.1835665, 63.0413622], [14.1834847, 63.0412769], [14.183479, 63.0411764], [14.1834683, 63.0410919], [14.1834078, 63.0410463], [14.183503, 63.0409775], [14.183576, 63.0408851], [14.1834643, 63.0407707], [14.1833391, 63.040683], [14.1833709, 63.0406152], [14.1835537, 63.0406031], [14.1837764, 63.0406489], [14.1839793, 63.0406316], [14.1839364, 63.040493], [14.1839173, 63.0403528], [14.1839822, 63.040262], [14.1841555, 63.0402103], [14.1844481, 63.0402139], [14.184633, 63.0402323], [14.1847273, 63.0401778], [14.1848558, 63.0400825], [14.1849103, 63.0399683], [14.1848777, 63.0398549], [14.1847775, 63.039746], [14.1847581, 63.0396758], [14.1849483, 63.0396064], [14.1853041, 63.0396125], [14.1855593, 63.0396443], [14.1858848, 63.0396931], [14.1861381, 63.0397554], [14.1864643, 63.0397917], [14.1867492, 63.0397288], [14.1869775, 63.0396185], [14.1872027, 63.0395584], [14.1874704, 63.0395168], [14.1876774, 63.039496], [14.1877625, 63.0394002], [14.1878169, 63.039286], [14.1878862, 63.0391882], [14.1879286, 63.0390774], [14.1879688, 63.0390026], [14.1879974, 63.0389222], [14.1880683, 63.0388638], [14.1882052, 63.0388242], [14.1884777, 63.0388975], [14.1886902, 63.0389826], [14.1888823, 63.0390119], [14.1892151, 63.0390052], [14.1894612, 63.0389274], [14.1896538, 63.0388185], [14.1898966, 63.03873], [14.1902181, 63.0387141], [14.1905204, 63.0387537], [14.1908256, 63.0388094], [14.1911832, 63.0387851], [14.1913903, 63.0386979], [14.1915157, 63.0385881], [14.191649, 63.0384785], [14.191843, 63.0384127], [14.19211, 63.0384464], [14.1923492, 63.0385462], [14.192596, 63.0385869], [14.1929118, 63.0385351], [14.1931371, 63.0384732], [14.1934236, 63.0383816], [14.1937, 63.0383921], [14.1939167, 63.0384719], [14.1941456, 63.0384819], [14.1944773, 63.0384267], [14.1947522, 63.0383313], [14.1949667, 63.0382532], [14.1951584, 63.0381586], [14.1954463, 63.0380437], [14.1956851, 63.0379569], [14.1960213, 63.0379591], [14.1962676, 63.038007], [14.1965484, 63.0380086], [14.1966967, 63.0379781], [14.1968376, 63.0378739], [14.1968192, 63.0377858], [14.1969551, 63.0376977], [14.1971402, 63.0375815], [14.1972707, 63.0375185], [14.1973634, 63.0374909], [14.197546, 63.0375452], [14.19778, 63.0376018], [14.1979319, 63.0375767], [14.1979704, 63.0375288], [14.1979533, 63.0374191], [14.1978596, 63.0373982], [14.1977949, 63.0373562], [14.1978228, 63.0372884], [14.1979637, 63.0372488], [14.1980719, 63.0372268], [14.198165, 63.037192], [14.1981713, 63.0371526], [14.1980832, 63.0371049], [14.1980584, 63.037058], [14.198151, 63.0370322], [14.19823, 63.0370331], [14.1983512, 63.0369915], [14.1984435, 63.0369065], [14.1985208, 63.0368052], [14.198627, 63.0367508], [14.1987547, 63.0367326], [14.1989134, 63.0367256], [14.1989372, 63.0366595], [14.198857, 63.0365473], [14.1987726, 63.0364386], [14.1987929, 63.0363653], [14.1990556, 63.0363397], [14.1992638, 63.0363638], [14.1994439, 63.0363301], [14.1996359, 63.0362301], [14.1999047, 63.0360396], [14.1999406, 63.0359037], [14.1998546, 63.0358219], [14.1999689, 63.0356995], [14.2000612, 63.0356127], [14.1999552, 63.0355342], [14.199997, 63.0354307], [14.2001908, 63.0353666], [14.2003664, 63.0352772], [14.2005898, 63.0351813], [14.2007467, 63.0351383], [14.2009401, 63.0350814], [14.2010341, 63.0349659], [14.2010892, 63.0349056], [14.2012565, 63.0348215], [14.2015103, 63.0347474], [14.2016596, 63.034699], [14.2016217, 63.034607], [14.2016236, 63.0345101], [14.2017624, 63.03444], [14.2019674, 63.0343851], [14.2020382, 63.0343267], [14.2020079, 63.0342403], [14.2020755, 63.0341047], [14.2021888, 63.0339966], [14.2024829, 63.0338441], [14.2026398, 63.0338011], [14.2027813, 63.0337508], [14.2028304, 63.0336599], [14.2028541, 63.0335292], [14.2029922, 63.0334698], [14.2030653, 63.0333738], [14.2030232, 63.0332854], [14.2030497, 63.0331745], [14.2031484, 63.0330465], [14.2033078, 63.0328977], [14.2033303, 63.0327867], [14.2034398, 63.0326786], [14.2036394, 63.0326487], [14.2037413, 63.0325979], [14.2036846, 63.0324896], [14.2037625, 63.0323793], [14.2038225, 63.0322382], [14.2037946, 63.0321105], [14.2037226, 63.031993], [14.2036963, 63.0319048], [14.2037639, 63.0318338], [14.2038509, 63.0317685], [14.2038221, 63.0316569], [14.203777, 63.0315523], [14.2037955, 63.0314431], [14.2038219, 63.0313339], [14.2040122, 63.0312609], [14.2042824, 63.0312408], [14.2045993, 63.0312339], [14.2049535, 63.0311986], [14.2053021, 63.0311257], [14.2055759, 63.0310465], [14.2057872, 63.0309539], [14.2058583, 63.0308256], [14.2058217, 63.0307103], [14.205821, 63.0305919], [14.2058681, 63.0304669], [14.2059627, 63.0303424], [14.2060669, 63.0302539], [14.2060843, 63.0301626], [14.2060467, 63.0300653], [14.2059928, 63.0299749], [14.2060582, 63.0298752], [14.2062244, 63.0298091], [14.2062861, 63.0297685], [14.2063006, 63.0297256], [14.2273338, 63.0368397], [14.2299152, 63.0352572], [14.2465516, 63.0396001], [14.2516235, 63.0409], [14.2471976, 63.0435473], [14.2475226, 63.0436627], [14.2509845, 63.0448541], [14.262934, 63.0488838], [14.2734605, 63.0518425], [14.2868852, 63.055648], [14.2950329, 63.0541626], [14.3030257, 63.0527003], [14.3040067, 63.0524902], [14.3105781, 63.0510625], [14.3140589, 63.0502634], [14.3173556, 63.0495627], [14.3174048, 63.0495441], [14.3176334, 63.0495625], [14.3178359, 63.0495726], [14.3180376, 63.0495988], [14.3182399, 63.0496129], [14.3183981, 63.0496266], [14.3186979, 63.0496338], [14.3189365, 63.0496283], [14.3192008, 63.049639], [14.3194478, 63.0496416], [14.3196936, 63.0496683], [14.3200369, 63.0496879], [14.3203264, 63.049723], [14.3206426, 63.0497543], [14.3209243, 63.0497693], [14.3212405, 63.0498007], [14.3215221, 63.0498197], [14.3217599, 63.0498302], [14.3220069, 63.0498327], [14.3223149, 63.0498045], [14.3230118, 63.049748], [14.3232596, 63.0497007], [14.3235895, 63.0496704], [14.3238272, 63.0496642], [14.3240386, 63.0497025], [14.3243137, 63.0498044], [14.3245261, 63.0498948], [14.3246115, 63.0499945], [14.324929, 63.0503265], [14.3250588, 63.0504105], [14.3252874, 63.0504939], [14.3254616, 63.0505623], [14.325728, 63.0506067], [14.3259949, 63.050642], [14.3263226, 63.050653], [14.3266742, 63.0506589], [14.3269176, 63.0506204], [14.3271821, 63.0505589], [14.3274038, 63.0504843], [14.3275466, 63.0504071], [14.3276895, 63.0503262], [14.3278421, 63.0502149], [14.3280044, 63.0500697], [14.3281327, 63.0499689], [14.3285209, 63.0499573], [14.3287682, 63.0499906], [14.3291305, 63.0500181], [14.3297756, 63.0500794], [14.3300089, 63.0500803], [14.3302086, 63.050045], [14.3303929, 63.0499323], [14.3305353, 63.0498604], [14.330781, 63.0497807], [14.3312978, 63.0495911], [14.3315036, 63.0495181], [14.3317645, 63.0494494], [14.3319807, 63.0494016], [14.3322402, 63.049358], [14.3323342, 63.0494452], [14.3323296, 63.0495277], [14.3323188, 63.0495796], [14.3323681, 63.0496178], [14.332414, 63.0496453], [14.3326264, 63.0496657], [14.3329139, 63.0496869], [14.3330761, 63.0496852], [14.333225, 63.0496403], [14.3334791, 63.0495499], [14.3336706, 63.0494498], [14.3339198, 63.0493774], [14.3342188, 63.049336], [14.3346183, 63.0493334], [14.3347386, 63.0493743], [14.33484, 63.0494723], [14.3349817, 63.0495547], [14.3352265, 63.0495611], [14.3356013, 63.0495062], [14.3359964, 63.0494426], [14.3367215, 63.0494169], [14.336884, 63.0494246], [14.3371347, 63.0494539], [14.3373833, 63.0495357], [14.352584, 63.0542469], [14.3540207, 63.0546895], [14.3565375, 63.056714], [14.3594087, 63.0590306], [14.36379, 63.062606], [14.364355, 63.0630705], [14.3643712, 63.0630816], [14.3644804, 63.0630806], [14.3814744, 63.0652509], [14.3816884, 63.0652767], [14.3931259, 63.0686097], [14.4045276, 63.0693446], [14.4057493, 63.0779055], [14.4055058, 63.0838426], [14.4059229, 63.0900204], [14.3969803, 63.1028443], [14.3958443, 63.1119618], [14.3781887, 63.1188018], [14.3572014, 63.1210982], [14.3430602, 63.1246123], [14.3343882, 63.1273846], [14.3308152, 63.1288756], [14.328399, 63.1300611], [14.3179135, 63.1378991], [14.3178125, 63.1379707], [14.309805, 63.1423376], [14.3020945, 63.1435592], [14.2931084, 63.1466404], [14.2871332, 63.1492253], [14.2647107, 63.164133], [14.2748952, 63.1780534], [14.275024, 63.1782232], [14.2848153, 63.1914183], [14.3000062, 63.2121201], [14.2915449, 63.2158096], [14.2719137, 63.2249159], [14.240141, 63.235125], [14.1793364, 63.2717997], [14.1122116, 63.2826382], [14.0883976, 63.2879078], [14.0796082, 63.2898655], [14.0725844, 63.2975964], [14.0642526, 63.3011561], [14.0626673, 63.3017993], [14.0593125, 63.3067151], [14.0512764, 63.3097695], [14.0473334, 63.3131762], [14.0406291, 63.3164372], [14.0327019, 63.3193121], [14.0187186, 63.3229294], [14.0155758, 63.3238151], [14.0086777, 63.3259895], [14.0059875, 63.3272891], [13.9937805, 63.3288394], [13.9846514, 63.3322582], [13.9821657, 63.3314355], [13.9760858, 63.3326413], [13.9736451, 63.3331271], [13.9691942, 63.3340063], [13.9676178, 63.3343116], [13.9630019, 63.335224], [13.9601965, 63.3357894], [13.9591901, 63.3359886], [13.9516396, 63.3375401], [13.9454352, 63.3387858], [13.9453832, 63.3387977], [13.9431302, 63.3392635], [13.9406777, 63.3397522], [13.9315611, 63.3416031], [13.9281841, 63.3422916], [13.9276075, 63.342411], [13.9245048, 63.3430352], [13.9228934, 63.3433579], [13.9163129, 63.344701], [13.9075156, 63.3463989], [13.9024662, 63.3474129], [13.9021049, 63.3474624], [13.9020523, 63.347475], [13.9019254, 63.3475372], [13.8912256, 63.3483458], [13.8722725, 63.3494854], [13.8644217, 63.3494406], [13.8582437, 63.3465876], [13.8576091, 63.3420138], [13.8541595, 63.3417578], [13.8394207, 63.3380357], [13.831592, 63.342806], [13.8372027, 63.3498321], [13.8348361, 63.3566232], [13.8035776, 63.3503455], [13.7662319, 63.3428103], [13.7576689, 63.3453007], [13.7704882, 63.3500211], [13.7404937, 63.3565828], [13.7347191, 63.357835], [13.7299758, 63.3588542], [13.7283664, 63.3592324], [13.7244766, 63.3602127], [13.7108997, 63.3636114], [13.7063876, 63.3647906], [13.6956553, 63.367535], [13.7028036, 63.3764746], [13.6767522, 63.3844752], [13.6756446, 63.3849715], [13.6641688, 63.3899191], [13.6639994, 63.3899977], [13.6415637, 63.4000698], [13.6413672, 63.4001625], [13.6471403, 63.4030822], [13.6474286, 63.4032315], [13.6148679, 63.4159465], [13.611602, 63.4172234], [13.6027695, 63.4124924], [13.5916745, 63.4066869], [13.5801606, 63.4008096], [13.5800824, 63.4009446], [13.5801508, 63.4010983], [13.5804332, 63.4012823], [13.5803804, 63.4013964], [13.5802089, 63.4015968], [13.5798531, 63.401798], [13.579635, 63.4019258], [13.5793289, 63.4020001], [13.5789807, 63.4020487], [13.5786925, 63.4021503], [13.5784695, 63.4022906], [13.5783484, 63.4024594], [13.5781639, 63.40262], [13.5780317, 63.4026719], [13.5777673, 63.4028295], [13.5776625, 63.4029429], [13.5777732, 63.4030668], [13.5779963, 63.4031366], [13.5783075, 63.4032582], [13.5789359, 63.4034762], [13.5791592, 63.4035946], [13.5792305, 63.4037107], [13.5792039, 63.4038486], [13.5790064, 63.4039695], [13.578678, 63.4041262], [13.5787333, 63.4043324], [13.578951, 63.4044861], [13.5791115, 63.4045764], [13.5791716, 63.4046758], [13.5791137, 63.4047918], [13.5790675, 63.4048736], [13.5787748, 63.4050379], [13.578301, 63.4052676], [13.5781281, 63.4053295], [13.5778838, 63.4053833], [13.5773978, 63.4054549], [13.5770641, 63.4055252], [13.5768294, 63.4055575], [13.5765685, 63.4056182], [13.5763623, 63.4056976], [13.5762625, 63.4057463], [13.5762243, 63.4058283], [13.576209, 63.405925], [13.576253, 63.4059795], [13.5763833, 63.4060568], [13.5765398, 63.4061059], [13.5766553, 63.4061686], [13.5768158, 63.4062716], [13.5768578, 63.4063512], [13.5767815, 63.4064074], [13.5766579, 63.4064533], [13.5766169, 63.406466], [13.5765121, 63.4064751], [13.5763306, 63.4064109], [13.576286, 63.4063927], [13.5761126, 63.4063542], [13.5759073, 63.4063152], [13.575715, 63.4063159], [13.5755675, 63.4063603], [13.5754898, 63.4064351], [13.5754737, 63.4065419], [13.5755425, 63.406586], [13.5757275, 63.4066822], [13.5759067, 63.4067495], [13.5759626, 63.406858], [13.575907, 63.4069577], [13.5757968, 63.4070385], [13.5755023, 63.4071202], [13.5753267, 63.4072181], [13.5750809, 63.4073974], [13.5749253, 63.4075493], [13.574819, 63.4076841], [13.5745512, 63.4080497], [13.5743687, 63.4083449], [13.5743552, 63.4085241], [13.5743135, 63.4086527], [13.5742648, 63.4087668], [13.574153, 63.4088692], [13.5740276, 63.4089391], [13.5737837, 63.4089856], [13.5735857, 63.4090616], [13.5733326, 63.4091259], [13.5731951, 63.4092495], [13.5730864, 63.4093089], [13.5730552, 63.4094053], [13.5731489, 63.4095431], [13.5732534, 63.4096452], [13.5732053, 63.4097521], [13.5730388, 63.4098357], [13.5728373, 63.4098506], [13.5725524, 63.4099109], [13.5724755, 63.4099743], [13.5724669, 63.4100891], [13.5725038, 63.4102368], [13.5725861, 63.4103134], [13.5726191, 63.4104072], [13.5725206, 63.4105457], [13.5724167, 63.4106482], [13.5723065, 63.4107291], [13.5721807, 63.4108026], [13.5720113, 63.4108179], [13.5717305, 63.4108244], [13.5713317, 63.4108004], [13.5710674, 63.4108], [13.5706359, 63.4108903], [13.5704705, 63.4109596], [13.5703698, 63.4110191], [13.5702494, 63.4111285], [13.5702838, 63.4112044], [13.5703421, 63.4112807], [13.5702023, 63.4113288], [13.5700432, 63.4114197], [13.5698871, 63.4114712], [13.5697824, 63.4115844], [13.569761, 63.4116559], [13.5697251, 63.4118133], [13.5698138, 63.4119115], [13.5699111, 63.4120027], [13.5698544, 63.4121167], [13.5696777, 63.4122289], [13.5695153, 63.4123628], [13.5694493, 63.4124946], [13.5693457, 63.4125935], [13.5691767, 63.4127094], [13.5690251, 63.4128076], [13.5687181, 63.4129465], [13.5684161, 63.4130859], [13.5685214, 63.413324], [13.5685108, 63.4134638], [13.5683578, 63.4135799], [13.5682854, 63.4136901], [13.5680449, 63.4137977], [13.5674389, 63.4139715], [13.5669743, 63.4140757], [13.5667986, 63.4141735], [13.5667358, 63.4142623], [13.5666706, 63.4143833], [13.5666211, 63.4145082], [13.5665667, 63.4146976], [13.5664659, 63.4148647], [13.5663618, 63.4149708], [13.5662162, 63.4150942], [13.5659715, 63.4151515], [13.5657093, 63.4151224], [13.5655843, 63.4149733], [13.5653148, 63.4148292], [13.5650676, 63.414707], [13.5648001, 63.4146419], [13.5645124, 63.414738], [13.5644586, 63.4149203], [13.5643015, 63.4150902], [13.5640821, 63.4151299], [13.5636767, 63.4150878], [13.5634881, 63.4150383], [13.5630654, 63.4151179], [13.562723, 63.4151953], [13.5622911, 63.4151851], [13.5621613, 63.4153123], [13.5622353, 63.4153924], [13.5626047, 63.4154878], [13.5629445, 63.4155504], [13.5633072, 63.4156277], [13.5634944, 63.4156952], [13.563525, 63.4158213], [13.5634459, 63.4159134], [13.5632812, 63.4159719], [13.5630778, 63.4160119], [13.56303, 63.4161152], [13.5630885, 63.4161879], [13.5633211, 63.4162919], [13.5634539, 63.416337], [13.563501, 63.4164562], [13.5632142, 63.4166457], [13.5628974, 63.4167018], [13.5623845, 63.4168089], [13.562072, 63.4168077], [13.561905, 63.4167908], [13.5617489, 63.4166305], [13.5616842, 63.4165326], [13.5613961, 63.4165281], [13.5611213, 63.4166639], [13.5608937, 63.4167071], [13.5605251, 63.4168127], [13.5605365, 63.4168739], [13.5605217, 63.4169634], [13.5603886, 63.4171337], [13.5602711, 63.4172037], [13.5601283, 63.4171836], [13.5599911, 63.4170917], [13.5598103, 63.4170459], [13.5596111, 63.4171362], [13.5594492, 63.4172629], [13.5593941, 63.4173554], [13.5594994, 63.4174467], [13.5595867, 63.4175629], [13.559699, 63.4177728], [13.5598558, 63.4178183], [13.5600387, 63.4179431], [13.5598528, 63.4180695], [13.5593138, 63.4180971], [13.5592886, 63.4182188], [13.5593754, 63.4183421], [13.5590084, 63.4184263], [13.5586219, 63.4186608], [13.5586799, 63.4188484], [13.5589094, 63.4189919], [13.5589532, 63.419154], [13.5587087, 63.4192077], [13.5583659, 63.4192886], [13.5580011, 63.4193441], [13.5577015, 63.4192785], [13.5573648, 63.4192805], [13.5570235, 63.4193435], [13.5567931, 63.4194225], [13.5564134, 63.4193557], [13.5563441, 63.4193187], [13.5560571, 63.4192999], [13.5558667, 63.4193796], [13.5555449, 63.4193962], [13.5551515, 63.4194045], [13.5549413, 63.41943], [13.5547454, 63.4195813], [13.5544363, 63.4196412], [13.5544869, 63.4193979], [13.5544915, 63.419337], [13.5543469, 63.4193419], [13.5534932, 63.4193971], [13.5531893, 63.4193888], [13.5529834, 63.4193569], [13.5527143, 63.4194174], [13.5525962, 63.4194946], [13.5525259, 63.419576], [13.552507, 63.4197193], [13.5524223, 63.419779], [13.5521968, 63.4197935], [13.5519846, 63.4198441], [13.5517705, 63.4199198], [13.5515889, 63.4199888], [13.5512624, 63.4199622], [13.5512705, 63.4198547], [13.5514043, 63.4197814], [13.5515456, 63.4197153], [13.5515276, 63.4196361], [13.5513939, 63.4194976], [13.5513201, 63.419414], [13.551189, 63.4193473], [13.5508884, 63.4194001], [13.5508327, 63.4194998], [13.5509016, 63.419648], [13.5506289, 63.419651], [13.5503255, 63.4196356], [13.5501428, 63.4196148], [13.5497817, 63.4196201], [13.5496046, 63.4197358], [13.5492966, 63.4197813], [13.5491064, 63.4197533], [13.5487921, 63.4197771], [13.5486188, 63.4198427], [13.5486026, 63.4199501], [13.5485121, 63.419981], [13.5482305, 63.4199946], [13.5477817, 63.4199949], [13.5478094, 63.4200528], [13.5477603, 63.4201705], [13.5476803, 63.4202733], [13.5476106, 63.4203476], [13.54749, 63.420457], [13.5473722, 63.4205306], [13.5471978, 63.4206105], [13.5469877, 63.4206324], [13.5468064, 63.4205937], [13.5466195, 63.4205226], [13.546506, 63.4205388], [13.546429, 63.4206022], [13.5462624, 63.4206858], [13.5462525, 63.4208149], [13.5463658, 63.4209063], [13.5463829, 63.4209964], [13.5462687, 63.4210233], [13.5461089, 63.4210173], [13.5459592, 63.4209827], [13.5457113, 63.4209753], [13.5455565, 63.4210088], [13.5451782, 63.4211357], [13.5452997, 63.4212238], [13.545433, 63.4212617], [13.5453533, 63.421361], [13.5451797, 63.4214301], [13.544999, 63.4214883], [13.5447879, 63.4216286], [13.5447526, 63.4217753], [13.5447373, 63.421976], [13.5449302, 63.4219682], [13.545217, 63.4218865], [13.5453245, 63.4221573], [13.5453903, 63.4222409], [13.5454955, 63.4223323], [13.5456695, 63.4223637], [13.5458082, 63.4225417], [13.5458888, 63.4225357], [13.5461349, 63.4223565], [13.5465659, 63.4224851], [13.5461774, 63.4228488], [13.5454476, 63.4233796], [13.5446481, 63.4240887], [13.5445099, 63.4243235], [13.543818, 63.4246718], [13.5430786, 63.4249081], [13.5427172, 63.4250209], [13.5422977, 63.4251616], [13.5415242, 63.4253184], [13.5412532, 63.4255081], [13.5413819, 63.425711], [13.5415212, 63.4258819], [13.5415942, 63.4260804], [13.5417245, 63.4261578], [13.541983, 63.4262372], [13.5422793, 63.4263458], [13.542525, 63.426486], [13.5429135, 63.4269622], [13.5432989, 63.4274778], [13.5432334, 63.4278106], [13.5428808, 63.4282287], [13.5427942, 63.4284176], [13.5426711, 63.4285593], [13.5424644, 63.4287463], [13.5425882, 63.4288056], [13.5428502, 63.4288384], [13.5429049, 63.4289613], [13.5429124, 63.4290726], [13.5429365, 63.4291771], [13.5427858, 63.4292609], [13.5426476, 63.4293916], [13.5427545, 63.4294614], [13.543053, 63.4296455], [13.5429413, 63.4297443], [13.5428356, 63.4298683], [13.5429392, 63.4299812], [13.5432665, 63.4301046], [13.5426899, 63.4300958], [13.5426386, 63.430138], [13.5426917, 63.4302824], [13.5428295, 63.4303671], [13.5431333, 63.430483], [13.5433112, 63.4305683], [13.5431889, 63.4306993], [13.5429061, 63.4306231], [13.5427389, 63.4307139], [13.5426591, 63.4308131], [13.5422632, 63.4309578], [13.5420824, 63.431016], [13.5419623, 63.4311183], [13.5418086, 63.4312415], [13.5417427, 63.4313697], [13.5415654, 63.4314854], [13.541455, 63.4315663], [13.5416219, 63.4316909], [13.5415653, 63.4318013], [13.5411641, 63.4318059], [13.5408869, 63.4318662], [13.5404327, 63.4319346], [13.5408141, 63.4321881], [13.5406468, 63.4322789], [13.5402815, 63.4323378], [13.5400676, 63.432514], [13.5398205, 63.4325999], [13.5395915, 63.4324492], [13.5394255, 63.4323139], [13.5393103, 63.4322475], [13.5390189, 63.4321784], [13.5387242, 63.4320482], [13.5382297, 63.4321195], [13.5382187, 63.4322629], [13.5382408, 63.4323925], [13.5381743, 63.4324238], [13.5379835, 63.4324029], [13.5378062, 63.4323104], [13.5376379, 63.4322037], [13.5374314, 63.432179], [13.5373767, 63.4322643], [13.5373619, 63.4323538], [13.5372633, 63.4324887], [13.5371266, 63.4324937], [13.536919, 63.4324834], [13.5369071, 63.4324293], [13.5367027, 63.4323759], [13.536341, 63.4323883], [13.5360579, 63.4324198], [13.5359641, 63.4324937], [13.5363306, 63.4327327], [13.5362525, 63.4328104], [13.5359109, 63.4328734], [13.5354914, 63.4329064], [13.535152, 63.4329406], [13.5347928, 63.4329207], [13.5344117, 63.4329758], [13.5342582, 63.4330955], [13.5340263, 63.4331924], [13.5336993, 63.4331694], [13.533488, 63.4332056], [13.5330495, 63.4332778], [13.5324995, 63.4334452], [13.5324583, 63.433563], [13.5321049, 63.4335719], [13.5316633, 63.4335794], [13.5315224, 63.43343], [13.5313399, 63.4334057], [13.5295441, 63.4337153], [13.5290122, 63.4338542], [13.5284825, 63.4340685], [13.5279592, 63.4340963], [13.5277817, 63.4340074], [13.5276176, 63.4338469], [13.5274955, 63.4337661], [13.5271479, 63.4335955], [13.5268927, 63.4334732], [13.5265768, 63.4334108], [13.5261189, 63.4334217], [13.5258985, 63.4334721], [13.5255956, 63.4335535], [13.5253711, 63.4335536], [13.5252559, 63.4333831], [13.5252759, 63.4332291], [13.5250997, 63.4331223], [13.5246871, 63.4330656], [13.5243458, 63.4331249], [13.5241226, 63.4332112], [13.5238338, 63.433318], [13.5233071, 63.4334929], [13.5230561, 63.4335248], [13.5226612, 63.433551], [13.5221464, 63.4335717], [13.5216706, 63.4336074], [13.5208792, 63.4335771], [13.5205041, 63.4336575], [13.5202556, 63.4337613], [13.51988, 63.4338487], [13.5196866, 63.4339642], [13.5195126, 63.4340368], [13.5190351, 63.434094], [13.5186352, 63.4341847], [13.5183074, 63.4342765], [13.5180061, 63.4344405], [13.517776, 63.4346164], [13.517587, 63.4346745], [13.5173749, 63.4348255], [13.5171942, 63.4349842], [13.5169039, 63.4351089], [13.5165996, 63.4351042], [13.5161643, 63.4351333], [13.5156901, 63.4351474], [13.5154979, 63.4352485], [13.5150201, 63.4353092], [13.514629, 63.4352852], [13.5141286, 63.4353277], [13.5136094, 63.4353016], [13.5133804, 63.4353591], [13.5130399, 63.4355117], [13.5126659, 63.4354735], [13.5122066, 63.4355022], [13.5114739, 63.4355411], [13.5111479, 63.4356364], [13.5110886, 63.4356499], [13.5107439, 63.4356481], [13.5106004, 63.4355346], [13.5102589, 63.4353893], [13.5098486, 63.4351998], [13.509599, 63.4351097], [13.5092643, 63.435083], [13.5089011, 63.4351132], [13.5085633, 63.4352299], [13.5081595, 63.4352667], [13.5075356, 63.4353503], [13.5070084, 63.4353241], [13.5064989, 63.4352766], [13.5057383, 63.4352611], [13.5053881, 63.4352269], [13.5049499, 63.4351913], [13.5046569, 63.4351437], [13.5042312, 63.4352555], [13.5039195, 63.4352434], [13.5037725, 63.435277], [13.5033961, 63.4352711], [13.502941, 63.435246], [13.502707, 63.4353679], [13.5026135, 63.4355388], [13.5025419, 63.4356346], [13.5023692, 63.4356893], [13.5021121, 63.435696], [13.5016976, 63.4356644], [13.50132, 63.4356728], [13.501093, 63.4357051], [13.5001513, 63.4356473], [13.4998092, 63.4356132], [13.499591, 63.4355308], [13.4994851, 63.4351415], [13.4993448, 63.4348845], [13.4992333, 63.4347714], [13.4992001, 63.4345807], [13.4988853, 63.434504], [13.4984653, 63.434544], [13.4980488, 63.4345375], [13.49774, 63.4342814], [13.4975205, 63.4340123], [13.4973525, 63.4338015], [13.4971343, 63.4336186], [13.4968374, 63.4336211], [13.4964031, 63.4335353], [13.4960023, 63.4334321], [13.4957903, 63.4332708], [13.495458, 63.4331113], [13.4947762, 63.4331149], [13.4942765, 63.433046], [13.4940265, 63.4330636], [13.4934477, 63.4330832], [13.4929454, 63.4330466], [13.4925248, 63.4332984], [13.4921885, 63.4332931], [13.4920086, 63.4331323], [13.4921395, 63.4328939], [13.4923049, 63.4327278], [13.492481, 63.432526], [13.4925306, 63.4324047], [13.4923096, 63.4322577], [13.4918439, 63.4321642], [13.4915332, 63.4321377], [13.4913951, 63.4319561], [13.4913586, 63.4316038], [13.4912706, 63.4312937], [13.4911188, 63.4311836], [13.4908049, 63.4312002], [13.4904624, 63.4312738], [13.490128, 63.431448], [13.4897477, 63.4314922], [13.4894637, 63.4314339], [13.489221, 63.4313583], [13.4888539, 63.431234], [13.4889301, 63.4310809], [13.4889246, 63.4308439], [13.4884572, 63.4307719], [13.4879459, 63.4307495], [13.487584, 63.4308658], [13.4870822, 63.4307215], [13.4866682, 63.4303776], [13.4863157, 63.4304761], [13.4858153, 63.4305184], [13.4854246, 63.4304907], [13.4853749, 63.4307161], [13.485158, 63.4310285], [13.4849404, 63.431043], [13.4845255, 63.4309144], [13.4843664, 63.4305925], [13.4835726, 63.4306948], [13.4831317, 63.430695], [13.4827906, 63.4307506], [13.4829829, 63.4308541], [13.4828781, 63.4309637], [13.4826306, 63.4311536], [13.482237, 63.4312659], [13.4814898, 63.4313868], [13.4809821, 63.4315224], [13.4806933, 63.431525], [13.4805448, 63.431476], [13.4803593, 63.4315915], [13.4801689, 63.4316674], [13.4799912, 63.4315821], [13.4796654, 63.4314441], [13.4793947, 63.4316229], [13.4791384, 63.4318234], [13.4788574, 63.4317256], [13.4785918, 63.4317393], [13.478117, 63.43166], [13.4778209, 63.4315513], [13.4775542, 63.4313747], [13.4771265, 63.4313069], [13.4768198, 63.4311298], [13.4764896, 63.4312502], [13.4760138, 63.4312857], [13.4758966, 63.4313484], [13.4760988, 63.431427], [13.4764312, 63.4314825], [13.4763459, 63.4316499], [13.4760529, 63.4318068], [13.4756638, 63.4319621], [13.4747496, 63.4320661], [13.4741362, 63.4321173], [13.4737987, 63.4321263], [13.4734639, 63.4322036], [13.4731136, 63.4321729], [13.4728403, 63.4322834], [13.4725332, 63.4324149], [13.4723388, 63.432545], [13.4905179, 63.470603], [13.5042116, 63.4774673], [13.5064488, 63.4785936], [13.508096, 63.4794256], [13.5090474, 63.4799387], [13.5117988, 63.481292], [13.5145912, 63.482701], [13.5282108, 63.4897492], [13.495381, 63.52956], [13.486248, 63.5394], [13.4836573, 63.5424298], [13.4835868, 63.5425052], [13.4931666, 63.557986], [13.4977518, 63.5675216], [13.5162317, 63.5737115], [13.5159155, 63.5738499], [13.5151382, 63.5740064], [13.5141396, 63.5740301], [13.5130514, 63.5739465], [13.5116677, 63.5738569], [13.5111907, 63.5737545], [13.5109604, 63.5733703], [13.5092381, 63.5728858], [13.5083089, 63.5726921], [13.5082307, 63.5724064], [13.5079823, 63.5722705], [13.5075283, 63.57239], [13.5067331, 63.572829], [13.5055838, 63.5728599], [13.5049848, 63.5728399], [13.4219875, 63.6066425], [13.4174134, 63.6050363], [13.4084369, 63.6031518], [13.4078724, 63.6036261], [13.3958197, 63.6130892], [13.3955308, 63.6131139], [13.3793652, 63.6147484], [13.3641844, 63.6162767], [13.3483686, 63.6178706], [13.321139, 63.6206865], [13.3115559, 63.6217437], [13.3071985, 63.6263968], [13.2807809, 63.6532354], [13.2810659, 63.6532112], [13.281888, 63.653308], [13.282915, 63.6533378], [13.2829034, 63.6536795], [13.2832151, 63.6537059], [13.2837387, 63.6535219], [13.2839742, 63.653482], [13.2839144, 63.6537735], [13.2841229, 63.6538777], [13.284643, 63.6537343], [13.2845974, 63.6539924], [13.2848466, 63.6540211], [13.2853365, 63.6538137], [13.286989, 63.6539248], [13.2874789, 63.6537381], [13.2877348, 63.6538406], [13.2875366, 63.6540546], [13.2876184, 63.6542165], [13.2879703, 63.6542043], [13.2883416, 63.6540897], [13.2887145, 63.6540867], [13.2890356, 63.6542059], [13.2886145, 63.6544353], [13.2885447, 63.654605], [13.2883589, 63.6552655], [13.2886565, 63.6554601], [13.2894778, 63.6556421], [13.2895521, 63.6559208], [13.2897494, 63.6560675], [13.2901638, 63.6559767], [13.2906069, 63.6560524], [13.2906079, 63.656212], [13.2901377, 63.6563253], [13.2900887, 63.6565048], [13.2913753, 63.6580982], [13.2912808, 63.6588663], [13.2915536, 63.6589381], [13.2923414, 63.6588367], [13.2924617, 63.6588945], [13.2925712, 63.6588642], [13.2928093, 63.6590511], [13.2927376, 63.6592208], [13.2922842, 63.6594848], [13.2921093, 63.6596711], [13.2921401, 63.6598229], [13.2920648, 63.6598283], [13.291969, 63.6603249], [13.292308, 63.6605437], [13.2923307, 63.6608512], [13.2924681, 63.6612064], [13.2927177, 63.6615296], [13.2924834, 63.6616517], [13.292155, 63.6616321], [13.2911143, 63.6613918], [13.2909345, 63.6615148], [13.2907864, 63.6615859], [13.2907679, 63.661959], [13.2901813, 63.6622341], [13.2893759, 63.6622763], [13.2887444, 63.6621752], [13.2882605, 63.6622396], [13.2879662, 63.6624737], [13.288422, 63.6628538], [13.2889306, 63.6631598], [13.2898406, 63.6633781], [13.2909143, 63.6638078], [13.2914194, 63.6641712], [13.291465, 63.6646209], [13.2909184, 63.6657152], [13.2907775, 63.6660686], [13.2893912, 63.6677642], [13.2863566, 63.6695421], [13.2863173, 63.670558], [13.2876532, 63.6710527], [13.2895465, 63.6715559], [13.2965812, 63.672192], [13.2972263, 63.6721121], [13.299111, 63.6713831], [13.3007678, 63.6706721], [13.3015693, 63.6703981], [13.379852, 63.6617786], [13.3836478, 63.6590805], [13.3879108, 63.6560555], [13.3884141, 63.655693], [13.4019247, 63.6469737], [13.4320612, 63.6285142], [13.4510821, 63.6170345], [13.4632317, 63.6140028], [13.5067467, 63.6027665], [13.4992844, 63.6296091], [13.4881979, 63.6733791], [13.4876422, 63.6730084], [13.4871872, 63.6725853], [13.487137, 63.6723835], [13.4872307, 63.6720903], [13.4873781, 63.6718374], [13.4873472, 63.6717041], [13.4870664, 63.6713337], [13.4866464, 63.6711015], [13.4858058, 63.6707591], [13.4809876, 63.6681549], [13.4796226, 63.6665587], [13.4780814, 63.6659332], [13.4749045, 63.6655036], [13.469433, 63.6654863], [13.45919, 63.6666142], [13.4555158, 63.6670769], [13.4522167, 63.6679036], [13.4443011, 63.6700194], [13.438781, 63.6716489], [13.4385509, 63.6724099], [13.4408787, 63.6734387], [13.4696959, 63.6853986], [13.4709656, 63.719448], [13.4718005, 63.7705179], [13.418434, 63.7690057], [13.418228, 63.7694624], [13.4181808, 63.7699646], [13.4180903, 63.7702938], [13.417472, 63.7705214], [13.4162919, 63.7707728], [13.4159391, 63.7708983], [13.4156528, 63.7710299], [13.4146114, 63.7714045], [13.4143484, 63.7716556], [13.4141913, 63.7720052], [13.4143123, 63.7723268], [13.4147654, 63.7726571], [13.4153652, 63.7729788], [13.4155648, 63.7732297], [13.4155293, 63.7736855], [13.4151871, 63.7741185], [13.4149598, 63.774327], [13.414474, 63.7749375], [13.414404, 63.7754178], [13.4143565, 63.7756111], [13.4143165, 63.7758116], [13.4142007, 63.776047], [13.414156, 63.7763085], [13.4143746, 63.7765238], [13.4145814, 63.7767857], [13.4146544, 63.7769951], [13.4145398, 63.7772161], [13.4141808, 63.7773436], [13.4138006, 63.7774027], [13.4134549, 63.7774634], [13.4130566, 63.7774988], [13.4124672, 63.7774574], [13.4106721, 63.7771605], [13.4100487, 63.7771402], [13.4094697, 63.7771744], [13.4088957, 63.7772482], [13.4087514, 63.7774328], [13.4088376, 63.777991], [13.4090538, 63.7786517], [13.4092628, 63.7791974], [13.4094061, 63.779857], [13.4094144, 63.7801661], [13.409688, 63.780508], [13.4102212, 63.7807497], [13.410676, 63.7811626], [13.4110825, 63.781467], [13.4115606, 63.7818947], [13.4118595, 63.782122], [13.4119694, 63.7822746], [13.4119128, 63.7824785], [13.4114679, 63.782874], [13.4092906, 63.7839292], [13.4087936, 63.7842628], [13.4084227, 63.7845409], [13.4082009, 63.784886], [13.4081899, 63.7851301], [13.4080178, 63.7854616], [13.4081246, 63.7856536], [13.4079714, 63.7863466], [13.4079896, 63.7864976], [13.4081765, 63.7867291], [13.4086159, 63.7869055], [13.4091046, 63.78711], [13.4094102, 63.7872475], [13.4098018, 63.787569], [13.4098143, 63.7877201], [13.4093872, 63.787886], [13.4089166, 63.7880881], [13.4086645, 63.7882416], [13.4083515, 63.7884106], [13.4081108, 63.7886161], [13.4079063, 63.7887094], [13.4077577, 63.7889927], [13.4075764, 63.7892342], [13.4075357, 63.7896503], [13.4078237, 63.7899133], [13.4083676, 63.7903312], [13.4087037, 63.7907064], [13.4087635, 63.7909804], [13.4083961, 63.791316], [13.4079292, 63.7914705], [13.4075949, 63.7915911], [13.4073286, 63.7916733], [13.4066712, 63.7919793], [13.4064106, 63.7921945], [13.4063383, 63.7925993], [13.406317, 63.7929787], [13.4061772, 63.7930839], [13.4062401, 63.793313], [13.4065734, 63.7934692], [13.4066124, 63.7936633], [13.4064339, 63.7937648], [13.4059871, 63.7938693], [13.4051324, 63.7939962], [13.4048087, 63.7940847], [13.4044291, 63.7941615], [13.4039537, 63.7942152], [13.4030968, 63.7943709], [13.4023812, 63.7943815], [13.4010848, 63.7944442], [13.4005499, 63.7945329], [13.4002282, 63.7945962], [13.3995045, 63.7950198], [13.3989529, 63.7953203], [13.3981781, 63.795567], [13.3977195, 63.795718], [13.3973081, 63.7958877], [13.3968063, 63.7961745], [13.3961928, 63.7964345], [13.3955016, 63.7967544], [13.3950865, 63.7969707], [13.3947864, 63.7971708], [13.3946674, 63.7973414], [13.3945749, 63.7975879], [13.3943257, 63.7977601], [13.3939775, 63.7979523], [13.3937251, 63.7980634], [13.3932828, 63.7980062], [13.3929337, 63.7979003], [13.3925844, 63.7976937], [13.3924375, 63.7974973], [13.3919753, 63.7971741], [13.3916376, 63.796925], [13.3910897, 63.7968645], [13.3897611, 63.7970485], [13.3892789, 63.7970409], [13.3882746, 63.7971232], [13.3868445, 63.7973678], [13.3851993, 63.797839], [13.3845274, 63.7979559], [13.3831882, 63.7980728], [13.3828181, 63.7982323], [13.3817446, 63.7984527], [13.3813987, 63.7986455], [13.3808903, 63.7988062], [13.3803249, 63.7989408], [13.3794464, 63.7990565], [13.3784916, 63.7992141], [13.3779576, 63.7992885], [13.377643, 63.7993626], [13.3762238, 63.7999556], [13.3770376, 63.8013614], [13.377106, 63.8018295], [13.3773703, 63.8024911], [13.3776799, 63.8031964], [13.3779129, 63.8037425], [13.3780356, 63.8042438], [13.3781687, 63.8047165], [13.3781141, 63.8050965], [13.3779762, 63.8052991], [13.3780031, 63.8056767], [13.3781594, 63.8059594], [13.3783013, 63.8065256], [13.378542, 63.80677], [13.378652, 63.806919], [13.3789177, 63.8071132], [13.3790833, 63.8073186], [13.3794269, 63.8075943], [13.3796222, 63.8079395], [13.379837, 63.8082941], [13.3800732, 63.808883], [13.3802332, 63.8094076], [13.3802746, 63.8103803], [13.3803486, 63.8107146], [13.3804839, 63.8112928], [13.3806008, 63.8116007], [13.3807307, 63.8119989], [13.3810943, 63.8127699], [13.3811924, 63.8130595], [13.3812836, 63.813187], [13.381478, 63.8132982], [13.3820489, 63.8132896], [13.3826845, 63.813237], [13.3834347, 63.8132763], [13.3838244, 63.8137327], [13.3842333, 63.8144504], [13.3843141, 63.8147038], [13.3842692, 63.815], [13.3842192, 63.8156023], [13.3841225, 63.8160327], [13.3840535, 63.8163736], [13.3841479, 63.8167081], [13.3844639, 63.8170733], [13.3846133, 63.8174808], [13.384524, 63.8178213], [13.3841296, 63.8181569], [13.3837908, 63.8183134], [13.3837367, 63.8184745], [13.3837535, 63.8187628], [13.3835684, 63.8190297], [13.383171, 63.8194013], [13.3831177, 63.8195534], [13.3837576, 63.8209229], [13.3717871, 63.8362431], [13.3712595, 63.8364594], [13.3707569, 63.8366222], [13.3703182, 63.83675], [13.3699029, 63.8368421], [13.3691982, 63.8369835], [13.3681325, 63.837299], [13.3672785, 63.8375189], [13.3661102, 63.8378417], [13.365784, 63.8383313], [13.3654946, 63.8388666], [13.364924, 63.8391091], [13.3646135, 63.83941], [13.3642344, 63.8397998], [13.3640912, 63.8402925], [13.3642993, 63.8407279], [13.3650133, 63.8412077], [13.3658405, 63.8417974], [13.3667717, 63.8423618], [13.3674217, 63.8428765], [13.3680046, 63.8432192], [13.3689486, 63.8436307], [13.3697118, 63.8440123], [13.3700791, 63.8442524], [13.3703552, 63.844851], [13.3705357, 63.845619], [13.3710268, 63.8460861], [13.3716724, 63.8466547], [13.3718671, 63.8470089], [13.3718197, 63.8473322], [13.3719134, 63.8476757], [13.3724286, 63.8480982], [13.3734145, 63.8487445], [13.3736688, 63.8491177], [13.3738491, 63.8493996], [13.3747151, 63.8497739], [13.3761563, 63.8500946], [13.377419, 63.8506013], [13.3780663, 63.850909], [13.3834975, 63.8579373], [13.3255983, 63.9156167], [13.3406989, 63.9446647], [13.3407036, 63.9455292], [13.3406774, 63.9461228], [13.34079, 63.9467556], [13.3408526, 63.9472881], [13.340715, 63.9476003], [13.3403417, 63.9478262], [13.3394215, 63.9480042], [13.3386788, 63.94824], [13.3375147, 63.9484037], [13.3365118, 63.9485888], [13.3356323, 63.9487677], [13.334859, 63.9490929], [13.3346745, 63.949458], [13.3343501, 63.949793], [13.333935, 63.9502071], [13.33353, 63.9507115], [13.3331221, 63.9514228], [13.3328651, 63.9518854], [13.3326764, 63.9521064], [13.3325663, 63.9523561], [13.3327358, 63.9526659], [13.332988, 63.9529685], [13.3331248, 63.9532056], [13.3329035, 63.9535339], [13.3325096, 63.9537594], [13.3319892, 63.9540181], [13.3318505, 63.9543392], [13.3317148, 63.9546333], [13.3317425, 63.9549311], [13.331864, 63.9551228], [13.3322917, 63.9553213], [13.3328837, 63.9555143], [13.3335758, 63.9557275], [13.3339759, 63.9559884], [13.3367822, 63.9857979], [13.3098277, 64.0325072], [13.3177159, 64.0678318], [13.2780524, 64.0892392], [13.2111098, 64.0953668], [13.1451243, 64.0866726], [13.0849097, 64.0786792], [12.9982548, 64.0673687], [12.9267187, 64.0579522], [12.834246, 64.0262805], [12.759048, 64.0003425], [12.6835681, 63.9742222], [12.651626, 63.9494579], [12.6098712, 63.9173948], [12.5779225, 63.8928814], [12.5381155, 63.8623033], [12.498559, 63.8325822], [12.4802288, 63.8187612], [12.4407978, 63.791257], [12.4216093, 63.7780224], [12.4025859, 63.7648607], [12.3805979, 63.7497], [12.3649208, 63.7388538], [12.3470992, 63.7265189], [12.3305755, 63.715069], [12.3115018, 63.6885855], [12.3003915, 63.6732615], [12.299462, 63.671979], [12.2988978, 63.6716584], [12.2592598, 63.649123], [12.2272519, 63.6308785], [12.1974908, 63.6167161], [12.1974073, 63.6166763], [12.173515, 63.6052872], [12.1497707, 63.593945], [12.1584038, 63.578057], [12.1823898, 63.5339202], [12.1917626, 63.5169287], [12.2128784, 63.4785905], [12.1928464, 63.4599746], [12.1718678, 63.4404028], [12.1401043, 63.4107064], [12.0983802, 63.3696765], [12.08409, 63.3555796], [12.0603015, 63.3369497], [12.0338331, 63.3162579], [12.0179343, 63.3036307], [11.9745821, 63.2692252]], [[13.4937334, 63.2345681], [13.4965597, 63.2354773], [13.5089021, 63.239405], [13.5162285, 63.2417047], [13.5322373, 63.2468072], [13.5195429, 63.2664199], [13.537909, 63.2683121], [13.554598, 63.2700739], [13.5576244, 63.2703794], [13.5611186, 63.2707422], [13.5644427, 63.2710832], [13.5679466, 63.271434], [13.5711627, 63.2717381], [13.5859839, 63.2732591], [13.5850362, 63.2701679], [13.5835348, 63.2651776], [13.5828541, 63.2629495], [13.582392, 63.2614832], [13.5817957, 63.2593823], [13.5813908, 63.2581683], [13.5786649, 63.2489577], [13.5762128, 63.2407055], [13.5759879, 63.2399742], [13.5732844, 63.2309057], [13.5721513, 63.2272415], [13.5720217, 63.2268286], [13.5718136, 63.22621], [13.5670734, 63.2264304], [13.5657745, 63.2254741], [13.5582857, 63.2233228], [13.5582827, 63.221703], [13.5582928, 63.2216533], [13.5581666, 63.2214897], [13.5576436, 63.2208288], [13.5557998, 63.218481], [13.5543279, 63.2166162], [13.5538767, 63.2160357], [13.5531292, 63.2150948], [13.5498129, 63.2143585], [13.543024, 63.2141793], [13.539573, 63.2133228], [13.5374484, 63.2127717], [13.5326176, 63.213185], [13.5265355, 63.2140714], [13.5236575, 63.2151278], [13.5182659, 63.2170656], [13.5135954, 63.2200184], [13.5150153, 63.2241159], [13.5123564, 63.2252834], [13.5119545, 63.225379], [13.5115582, 63.2254065], [13.5111367, 63.2254497], [13.5105901, 63.2255627], [13.5098277, 63.2256925], [13.5092031, 63.225877], [13.5087003, 63.2261393], [13.5084512, 63.2261588], [13.5074849, 63.2262516], [13.5062642, 63.2266601], [13.4950453, 63.2338774], [13.4947108, 63.2340248], [13.4945574, 63.2341487], [13.4944485, 63.2342666], [13.4943068, 63.2343226], [13.4941324, 63.234385], [13.4938899, 63.2344872], [13.4937334, 63.2345681]]], [[[13.9789233, 63.3342037], [13.9794106, 63.3340107], [13.9798359, 63.3340395], [13.9799561, 63.3340338], [13.9800205, 63.3340257], [13.9801266, 63.3339894], [13.9802967, 63.3338875], [13.9804485, 63.3337602], [13.9805215, 63.3336786], [13.9805946, 63.3334068], [13.9805212, 63.3333054], [13.9804189, 63.333218], [13.9804078, 63.3331425], [13.980445, 63.3330586], [13.9805514, 63.3329364], [13.9806371, 63.3329763], [13.9809547, 63.3329655], [13.9809632, 63.3329604], [13.9809697, 63.3330312], [13.9810445, 63.3330483], [13.9811121, 63.3331156], [13.9812235, 63.3331852], [13.9814101, 63.3332001], [13.9816046, 63.3332188], [13.9818048, 63.3332716], [13.9818077, 63.3334151], [13.9816695, 63.3334546], [13.9815762, 63.3334786], [13.9815228, 63.3335012], [13.9814323, 63.3335431], [13.9814222, 63.3335771], [13.9814223, 63.3336381], [13.9814566, 63.3336636], [13.9815491, 63.3337169], [13.9814388, 63.3337567], [13.981314, 63.3337731], [13.9809219, 63.333786], [13.980864, 63.3338176], [13.9808809, 63.3338662], [13.9809191, 63.3338936], [13.9810043, 63.333936], [13.9810928, 63.3339874], [13.9812297, 63.3340322], [13.9815866, 63.3340708], [13.9817104, 63.3340688], [13.9817508, 63.3341249], [13.9818306, 63.3341888], [13.9818939, 63.3341985], [13.9819252, 63.3342079], [13.9820617, 63.3341953], [13.9819426, 63.3343122], [13.9817701, 63.3343871], [13.9815709, 63.3344438], [13.9814085, 63.3344866], [13.9812731, 63.3344813], [13.9811465, 63.3344635], [13.9810721, 63.334441], [13.981038, 63.3344119], [13.9810078, 63.3343218], [13.9809588, 63.3341489], [13.9809018, 63.3341033], [13.9807996, 63.3340787], [13.9807205, 63.3340669], [13.9806801, 63.3340736], [13.9806182, 63.3341069], [13.9806014, 63.3341192], [13.9805738, 63.3341763], [13.9805174, 63.3343102], [13.9804129, 63.3345116], [13.9804024, 63.3345509], [13.9803133, 63.3345713], [13.9800638, 63.3346022], [13.9796803, 63.3346691], [13.9796164, 63.3346683], [13.9795182, 63.3346437], [13.9794381, 63.3346481], [13.9789233, 63.3342037]]], [[[13.9790444, 63.3332381], [13.9793877, 63.3327347], [13.9796119, 63.3327878], [13.9796732, 63.3328281], [13.9797083, 63.3329039], [13.9797251, 63.3329543], [13.9797141, 63.3330008], [13.9798861, 63.3329959], [13.9800132, 63.3330064], [13.980046, 63.3330553], [13.9799495, 63.3331294], [13.9798592, 63.3331678], [13.9795876, 63.3332343], [13.9794328, 63.3332825], [13.9792757, 63.3333039], [13.9791536, 63.333279], [13.9791114, 63.3332515], [13.9790444, 63.3332381]]]]}}]}