{"type": "FeatureCollection", "features": [{"type": "Feature", "properties": {"name": "Krokoms kommun"}, "geometry": {"type": "MultiPolygon", "coordinates": [[[[13.2780524, 64.0892392], [13.3177159, 64.0678318], [13.3098277, 64.0325072], [13.3367822, 63.9857979], [13.3339759, 63.9559884], [13.3335758, 63.9557275], [13.3328837, 63.9555143], [13.3322917, 63.9553213], [13.331864, 63.9551228], [13.3317425, 63.9549311], [13.3317148, 63.9546333], [13.3318505, 63.9543392], [13.3319892, 63.9540181], [13.3325096, 63.9537594], [13.3329035, 63.9535339], [13.3331248, 63.9532056], [13.332988, 63.9529685], [13.3327358, 63.9526659], [13.3325663, 63.9523561], [13.3326764, 63.9521064], [13.3328651, 63.9518854], [13.3331221, 63.9514228], [13.33353, 63.9507115], [13.333935, 63.9502071], [13.3343501, 63.949793], [13.3346745, 63.949458], [13.334859, 63.9490929], [13.3356323, 63.9487677], [13.3365118, 63.9485888], [13.3375147, 63.9484037], [13.3386788, 63.94824], [13.3394215, 63.9480042], [13.3403417, 63.9478262], [13.340715, 63.9476003], [13.3408526, 63.9472881], [13.34079, 63.9467556], [13.3406774, 63.9461228], [13.3407036, 63.9455292], [13.3406989, 63.9446647], [13.3255983, 63.9156167], [13.3834975, 63.8579373], [13.3780663, 63.850909], [13.377419, 63.8506013], [13.3761563, 63.8500946], [13.3747151, 63.8497739], [13.3738491, 63.8493996], [13.3736688, 63.8491177], [13.3734145, 63.8487445], [13.3724286, 63.8480982], [13.3719134, 63.8476757], [13.3718197, 63.8473322], [13.3718671, 63.8470089], [13.3716724, 63.8466547], [13.3710268, 63.8460861], [13.3705357, 63.845619], [13.3703552, 63.844851], [13.3700791, 63.8442524], [13.3697118, 63.8440123], [13.3689486, 63.8436307], [13.3680046, 63.8432192], [13.3674217, 63.8428765], [13.3667717, 63.8423618], [13.3658405, 63.8417974], [13.3650133, 63.8412077], [13.3642993, 63.8407279], [13.3640912, 63.8402925], [13.3642344, 63.8397998], [13.3646135, 63.83941], [13.364924, 63.8391091], [13.3654946, 63.8388666], [13.365784, 63.8383313], [13.3661102, 63.8378417], [13.3672785, 63.8375189], [13.3681325, 63.837299], [13.3691982, 63.8369835], [13.3699029, 63.8368421], [13.3703182, 63.83675], [13.3707569, 63.8366222], [13.3712595, 63.8364594], [13.3717871, 63.8362431], [13.3837576, 63.8209229], [13.3831177, 63.8195534], [13.383171, 63.8194013], [13.3835684, 63.8190297], [13.3837535, 63.8187628], [13.3837367, 63.8184745], [13.3837908, 63.8183134], [13.3841296, 63.8181569], [13.384524, 63.8178213], [13.3846133, 63.8174808], [13.3844639, 63.8170733], [13.3841479, 63.8167081], [13.3840535, 63.8163736], [13.3841225, 63.8160327], [13.3842192, 63.8156023], [13.3842692, 63.815], [13.3843141, 63.8147038], [13.3842333, 63.8144504], [13.3838244, 63.8137327], [13.3834347, 63.8132763], [13.3826845, 63.813237], [13.3820489, 63.8132896], [13.381478, 63.8132982], [13.3812836, 63.813187], [13.3811924, 63.8130595], [13.3810943, 63.8127699], [13.3807307, 63.8119989], [13.3806008, 63.8116007], [13.3804839, 63.8112928], [13.3803486, 63.8107146], [13.3802746, 63.8103803], [13.3802332, 63.8094076], [13.3800732, 63.808883], [13.379837, 63.8082941], [13.3796222, 63.8079395], [13.3794269, 63.8075943], [13.3790833, 63.8073186], [13.3789177, 63.8071132], [13.378652, 63.806919], [13.378542, 63.80677], [13.3783013, 63.8065256], [13.3781594, 63.8059594], [13.3780031, 63.8056767], [13.3779762, 63.8052991], [13.3781141, 63.8050965], [13.3781687, 63.8047165], [13.3780356, 63.8042438], [13.3779129, 63.8037425], [13.3776799, 63.8031964], [13.3773703, 63.8024911], [13.377106, 63.8018295], [13.3770376, 63.8013614], [13.3762238, 63.7999556], [13.377643, 63.7993626], [13.3779576, 63.7992885], [13.3784916, 63.7992141], [13.3794464, 63.7990565], [13.3803249, 63.7989408], [13.3808903, 63.7988062], [13.3813987, 63.7986455], [13.3817446, 63.7984527], [13.3828181, 63.7982323], [13.3831882, 63.7980728], [13.3845274, 63.7979559], [13.3851993, 63.797839], [13.3868445, 63.7973678], [13.3882746, 63.7971232], [13.3892789, 63.7970409], [13.3897611, 63.7970485], [13.3910897, 63.7968645], [13.3916376, 63.796925], [13.3919753, 63.7971741], [13.3924375, 63.7974973], [13.3925844, 63.7976937], [13.3929337, 63.7979003], [13.3932828, 63.7980062], [13.3937251, 63.7980634], [13.3939775, 63.7979523], [13.3943257, 63.7977601], [13.3945749, 63.7975879], [13.3946674, 63.7973414], [13.3947864, 63.7971708], [13.3950865, 63.7969707], [13.3955016, 63.7967544], [13.3961928, 63.7964345], [13.3968063, 63.7961745], [13.3973081, 63.7958877], [13.3977195, 63.795718], [13.3981781, 63.795567], [13.3989529, 63.7953203], [13.3995045, 63.7950198], [13.4002282, 63.7945962], [13.4005499, 63.7945329], [13.4010848, 63.7944442], [13.4023812, 63.7943815], [13.4030968, 63.7943709], [13.4039537, 63.7942152], [13.4044291, 63.7941615], [13.4048087, 63.7940847], [13.4051324, 63.7939962], [13.4059871, 63.7938693], [13.4064339, 63.7937648], [13.4066124, 63.7936633], [13.4065734, 63.7934692], [13.4062401, 63.793313], [13.4061772, 63.7930839], [13.406317, 63.7929787], [13.4063383, 63.7925993], [13.4064106, 63.7921945], [13.4066712, 63.7919793], [13.4073286, 63.7916733], [13.4075949, 63.7915911], [13.4079292, 63.7914705], [13.4083961, 63.791316], [13.4087635, 63.7909804], [13.4087037, 63.7907064], [13.4083676, 63.7903312], [13.4078237, 63.7899133], [13.4075357, 63.7896503], [13.4075764, 63.7892342], [13.4077577, 63.7889927], [13.4079063, 63.7887094], [13.4081108, 63.7886161], [13.4083515, 63.7884106], [13.4086645, 63.7882416], [13.4089166, 63.7880881], [13.4093872, 63.787886], [13.4098143, 63.7877201], [13.4098018, 63.787569], [13.4094102, 63.7872475], [13.4091046, 63.78711], [13.4086159, 63.7869055], [13.4081765, 63.7867291], [13.4079896, 63.7864976], [13.4079714, 63.7863466], [13.4081246, 63.7856536], [13.4080178, 63.7854616], [13.4081899, 63.7851301], [13.4082009, 63.784886], [13.4084227, 63.7845409], [13.4087936, 63.7842628], [13.4092906, 63.7839292], [13.4114679, 63.782874], [13.4119128, 63.7824785], [13.4119694, 63.7822746], [13.4118595, 63.782122], [13.4115606, 63.7818947], [13.4110825, 63.781467], [13.410676, 63.7811626], [13.4102212, 63.7807497], [13.409688, 63.780508], [13.4094144, 63.7801661], [13.4094061, 63.779857], [13.4092628, 63.7791974], [13.4090538, 63.7786517], [13.4088376, 63.777991], [13.4087514, 63.7774328], [13.4088957, 63.7772482], [13.4094697, 63.7771744], [13.4100487, 63.7771402], [13.4106721, 63.7771605], [13.4124672, 63.7774574], [13.4130566, 63.7774988], [13.4134549, 63.7774634], [13.4138006, 63.7774027], [13.4141808, 63.7773436], [13.4145398, 63.7772161], [13.4146544, 63.7769951], [13.4145814, 63.7767857], [13.4143746, 63.7765238], [13.414156, 63.7763085], [13.4142007, 63.776047], [13.4143165, 63.7758116], [13.4143565, 63.7756111], [13.414404, 63.7754178], [13.414474, 63.7749375], [13.4149598, 63.774327], [13.4151871, 63.7741185], [13.4155293, 63.7736855], [13.4155648, 63.7732297], [13.4153652, 63.7729788], [13.4147654, 63.7726571], [13.4143123, 63.7723268], [13.4141913, 63.7720052], [13.4143484, 63.7716556], [13.4146114, 63.7714045], [13.4156528, 63.7710299], [13.4159391, 63.7708983], [13.4162919, 63.7707728], [13.417472, 63.7705214], [13.4180903, 63.7702938], [13.4181808, 63.7699646], [13.418228, 63.7694624], [13.418434, 63.7690057], [13.4718005, 63.7705179], [13.4709656, 63.719448], [13.4696959, 63.6853986], [13.4408787, 63.6734387], [13.4385509, 63.6724099], [13.438781, 63.6716489], [13.4443011, 63.6700194], [13.4522167, 63.6679036], [13.4555158, 63.6670769], [13.45919, 63.6666142], [13.469433, 63.6654863], [13.4749045, 63.6655036], [13.4780814, 63.6659332], [13.4796226, 63.6665587], [13.4809876, 63.6681549], [13.4858058, 63.6707591], [13.4866464, 63.6711015], [13.4870664, 63.6713337], [13.4873472, 63.6717041], [13.4873781, 63.6718374], [13.4872307, 63.6720903], [13.487137, 63.6723835], [13.4871872, 63.6725853], [13.4876422, 63.6730084], [13.4881979, 63.6733791], [13.4992844, 63.6296091], [13.5067467, 63.6027665], [13.4632317, 63.6140028], [13.4510821, 63.6170345], [13.4320612, 63.6285142], [13.4019247, 63.6469737], [13.3884141, 63.655693], [13.3879108, 63.6560555], [13.3836478, 63.6590805], [13.379852, 63.6617786], [13.3015693, 63.6703981], [13.3007678, 63.6706721], [13.299111, 63.6713831], [13.2972263, 63.6721121], [13.2965812, 63.672192], [13.2895465, 63.6715559], [13.2876532, 63.6710527], [13.2863173, 63.670558], [13.2863566, 63.6695421], [13.2893912, 63.6677642], [13.2907775, 63.6660686], [13.2909184, 63.6657152], [13.291465, 63.6646209], [13.2914194, 63.6641712], [13.2909143, 63.6638078], [13.2898406, 63.6633781], [13.2889306, 63.6631598], [13.288422, 63.6628538], [13.2879662, 63.6624737], [13.2882605, 63.6622396], [13.2887444, 63.6621752], [13.2893759, 63.6622763], [13.2901813, 63.6622341], [13.2907679, 63.661959], [13.2907864, 63.6615859], [13.2909345, 63.6615148], [13.2911143, 63.6613918], [13.292155, 63.6616321], [13.2924834, 63.6616517], [13.2927177, 63.6615296], [13.2924681, 63.6612064], [13.2923307, 63.6608512], [13.292308, 63.6605437], [13.291969, 63.6603249], [13.2920648, 63.6598283], [13.2921401, 63.6598229], [13.2921093, 63.6596711], [13.2922842, 63.6594848], [13.2927376, 63.6592208], [13.2928093, 63.6590511], [13.2925712, 63.6588642], [13.2924617, 63.6588945], [13.2923414, 63.6588367], [13.2915536, 63.6589381], [13.2912808, 63.6588663], [13.2913753, 63.6580982], [13.2900887, 63.6565048], [13.2901377, 63.6563253], [13.2906079, 63.656212], [13.2906069, 63.6560524], [13.2901638, 63.6559767], [13.2897494, 63.6560675], [13.2895521, 63.6559208], [13.2894778, 63.6556421], [13.2886565, 63.6554601], [13.2883589, 63.6552655], [13.2885447, 63.654605], [13.2886145, 63.6544353], [13.2890356, 63.6542059], [13.2887145, 63.6540867], [13.2883416, 63.6540897], [13.2879703, 63.6542043], [13.2876184, 63.6542165], [13.2875366, 63.6540546], [13.2877348, 63.6538406], [13.2874789, 63.6537381], [13.286989, 63.6539248], [13.2853365, 63.6538137], [13.2848466, 63.6540211], [13.2845974, 63.6539924], [13.284643, 63.6537343], [13.2841229, 63.6538777], [13.2839144, 63.6537735], [13.2839742, 63.653482], [13.2837387, 63.6535219], [13.2832151, 63.6537059], [13.2829034, 63.6536795], [13.282915, 63.6533378], [13.281888, 63.653308], [13.2810659, 63.6532112], [13.2807809, 63.6532354], [13.3071985, 63.6263968], [13.3115559, 63.6217437], [13.321139, 63.6206865], [13.3483686, 63.6178706], [13.3641844, 63.6162767], [13.3793652, 63.6147484], [13.3955308, 63.6131139], [13.3958197, 63.6130892], [13.4078724, 63.6036261], [13.4084369, 63.6031518], [13.4174134, 63.6050363], [13.4219875, 63.6066425], [13.5049848, 63.5728399], [13.5055838, 63.5728599], [13.5067331, 63.572829], [13.5075283, 63.57239], [13.5079823, 63.5722705], [13.5082307, 63.5724064], [13.5083089, 63.5726921], [13.5092381, 63.5728858], [13.5109604, 63.5733703], [13.5111907, 63.5737545], [13.5116677, 63.5738569], [13.5130514, 63.5739465], [13.5141396, 63.5740301], [13.5151382, 63.5740064], [13.5159155, 63.5738499], [13.5162317, 63.5737115], [13.4977518, 63.5675216], [13.4931666, 63.557986], [13.4835868, 63.5425052], [13.4836573, 63.5424298], [13.486248, 63.5394], [13.495381, 63.52956], [13.5282108, 63.4897492], [13.5145912, 63.482701], [13.5117988, 63.481292], [13.5090474, 63.4799387], [13.508096, 63.4794256], [13.5064488, 63.4785936], [13.5042116, 63.4774673], [13.4905179, 63.470603], [13.4723388, 63.432545], [13.4725332, 63.4324149], [13.4728403, 63.4322834], [13.4731136, 63.4321729], [13.4734639, 63.4322036], [13.4737987, 63.4321263], [13.4741362, 63.4321173], [13.4747496, 63.4320661], [13.4756638, 63.4319621], [13.4760529, 63.4318068], [13.4763459, 63.4316499], [13.4764312, 63.4314825], [13.4760988, 63.431427], [13.4758966, 63.4313484], [13.4760138, 63.4312857], [13.4764896, 63.4312502], [13.4768198, 63.4311298], [13.4771265, 63.4313069], [13.4775542, 63.4313747], [13.4778209, 63.4315513], [13.478117, 63.43166], [13.4785918, 63.4317393], [13.4788574, 63.4317256], [13.4791384, 63.4318234], [13.4793947, 63.4316229], [13.4796654, 63.4314441], [13.4799912, 63.4315821], [13.4801689, 63.4316674], [13.4803593, 63.4315915], [13.4805448, 63.431476], [13.4806933, 63.431525], [13.4809821, 63.4315224], [13.4814898, 63.4313868], [13.482237, 63.4312659], [13.4826306, 63.4311536], [13.4828781, 63.4309637], [13.4829829, 63.4308541], [13.4827906, 63.4307506], [13.4831317, 63.430695], [13.4835726, 63.4306948], [13.4843664, 63.4305925], [13.4845255, 63.4309144], [13.4849404, 63.431043], [13.485158, 63.4310285], [13.4853749, 63.4307161], [13.4854246, 63.4304907], [13.4858153, 63.4305184], [13.4863157, 63.4304761], [13.4866682, 63.4303776], [13.4870822, 63.4307215], [13.487584, 63.4308658], [13.4879459, 63.4307495], [13.4884572, 63.4307719], [13.4889246, 63.4308439], [13.4889301, 63.4310809], [13.4888539, 63.431234], [13.489221, 63.4313583], [13.4894637, 63.4314339], [13.4897477, 63.4314922], [13.490128, 63.431448], [13.4904624, 63.4312738], [13.4908049, 63.4312002], [13.4911188, 63.4311836], [13.4912706, 63.4312937], [13.4913586, 63.4316038], [13.4913951, 63.4319561], [13.4915332, 63.4321377], [13.4918439, 63.4321642], [13.4923096, 63.4322577], [13.4925306, 63.4324047], [13.492481, 63.432526], [13.4923049, 63.4327278], [13.4921395, 63.4328939], [13.4920086, 63.4331323], [13.4921885, 63.4332931], [13.4925248, 63.4332984], [13.4929454, 63.4330466], [13.4934477, 63.4330832], [13.4940265, 63.4330636], [13.4942765, 63.433046], [13.4947762, 63.4331149], [13.495458, 63.4331113], [13.4957903, 63.4332708], [13.4960023, 63.4334321], [13.4964031, 63.4335353], [13.4968374, 63.4336211], [13.4971343, 63.4336186], [13.4973525, 63.4338015], [13.4975205, 63.4340123], [13.49774, 63.4342814], [13.4980488, 63.4345375], [13.4984653, 63.434544], [13.4988853, 63.434504], [13.4992001, 63.4345807], [13.4992333, 63.4347714], [13.4993448, 63.4348845], [13.4994851, 63.4351415], [13.499591, 63.4355308], [13.4998092, 63.4356132], [13.5001513, 63.4356473], [13.501093, 63.4357051], [13.50132, 63.4356728], [13.5016976, 63.4356644], [13.5021121, 63.435696], [13.5023692, 63.4356893], [13.5025419, 63.4356346], [13.5026135, 63.4355388], [13.502707, 63.4353679], [13.502941, 63.435246], [13.5033961, 63.4352711], [13.5037725, 63.435277], [13.5039195, 63.4352434], [13.5042312, 63.4352555], [13.5046569, 63.4351437], [13.5049499, 63.4351913], [13.5053881, 63.4352269], [13.5057383, 63.4352611], [13.5064989, 63.4352766], [13.5070084, 63.4353241], [13.5075356, 63.4353503], [13.5081595, 63.4352667], [13.5085633, 63.4352299], [13.5089011, 63.4351132], [13.5092643, 63.435083], [13.509599, 63.4351097], [13.5098486, 63.4351998], [13.5102589, 63.4353893], [13.5106004, 63.4355346], [13.5107439, 63.4356481], [13.5110886, 63.4356499], [13.5111479, 63.4356364], [13.5114739, 63.4355411], [13.5122066, 63.4355022], [13.5126659, 63.4354735], [13.5130399, 63.4355117], [13.5133804, 63.4353591], [13.5136094, 63.4353016], [13.5141286, 63.4353277], [13.514629, 63.4352852], [13.5150201, 63.4353092], [13.5154979, 63.4352485], [13.5156901, 63.4351474], [13.5161643, 63.4351333], [13.5165996, 63.4351042], [13.5169039, 63.4351089], [13.5171942, 63.4349842], [13.5173749, 63.4348255], [13.517587, 63.4346745], [13.517776, 63.4346164], [13.5180061, 63.4344405], [13.5183074, 63.4342765], [13.5186352, 63.4341847], [13.5190351, 63.434094], [13.5195126, 63.4340368], [13.5196866, 63.4339642], [13.51988, 63.4338487], [13.5202556, 63.4337613], [13.5205041, 63.4336575], [13.5208792, 63.4335771], [13.5216706, 63.4336074], [13.5221464, 63.4335717], [13.5226612, 63.433551], [13.5230561, 63.4335248], [13.5233071, 63.4334929], [13.5238338, 63.433318], [13.5241226, 63.4332112], [13.5243458, 63.4331249], [13.5246871, 63.4330656], [13.5250997, 63.4331223], [13.5252759, 63.4332291], [13.5252559, 63.4333831], [13.5253711, 63.4335536], [13.5255956, 63.4335535], [13.5258985, 63.4334721], [13.5261189, 63.4334217], [13.5265768, 63.4334108], [13.5268927, 63.4334732], [13.5271479, 63.4335955], [13.5274955, 63.4337661], [13.5276176, 63.4338469], [13.5277817, 63.4340074], [13.5279592, 63.4340963], [13.5284825, 63.4340685], [13.5290122, 63.4338542], [13.5295441, 63.4337153], [13.5313399, 63.4334057], [13.5315224, 63.43343], [13.5316633, 63.4335794], [13.5321049, 63.4335719], [13.5324583, 63.433563], [13.5324995, 63.4334452], [13.5330495, 63.4332778], [13.533488, 63.4332056], [13.5336993, 63.4331694], [13.5340263, 63.4331924], [13.5342582, 63.4330955], [13.5344117, 63.4329758], [13.5347928, 63.4329207], [13.535152, 63.4329406], [13.5354914, 63.4329064], [13.5359109, 63.4328734], [13.5362525, 63.4328104], [13.5363306, 63.4327327], [13.5359641, 63.4324937], [13.5360579, 63.4324198], [13.536341, 63.4323883], [13.5367027, 63.4323759], [13.5369071, 63.4324293], [13.536919, 63.4324834], [13.5371266, 63.4324937], [13.5372633, 63.4324887], [13.5373619, 63.4323538], [13.5373767, 63.4322643], [13.5374314, 63.432179], [13.5376379, 63.4322037], [13.5378062, 63.4323104], [13.5379835, 63.4324029], [13.5381743, 63.4324238], [13.5382408, 63.4323925], [13.5382187, 63.4322629], [13.5382297, 63.4321195], [13.5387242, 63.4320482], [13.5390189, 63.4321784], [13.5393103, 63.4322475], [13.5394255, 63.4323139], [13.5395915, 63.4324492], [13.5398205, 63.4325999], [13.5400676, 63.432514], [13.5402815, 63.4323378], [13.5406468, 63.4322789], [13.5408141, 63.4321881], [13.5404327, 63.4319346], [13.5408869, 63.4318662], [13.5411641, 63.4318059], [13.5415653, 63.4318013], [13.5416219, 63.4316909], [13.541455, 63.4315663], [13.5415654, 63.4314854], [13.5417427, 63.4313697], [13.5418086, 63.4312415], [13.5419623, 63.4311183], [13.5420824, 63.431016], [13.5422632, 63.4309578], [13.5426591, 63.4308131], [13.5427389, 63.4307139], [13.5429061, 63.4306231], [13.5431889, 63.4306993], [13.5433112, 63.4305683], [13.5431333, 63.430483], [13.5428295, 63.4303671], [13.5426917, 63.4302824], [13.5426386, 63.430138], [13.5426899, 63.4300958], [13.5432665, 63.4301046], [13.5429392, 63.4299812], [13.5428356, 63.4298683], [13.5429413, 63.4297443], [13.543053, 63.4296455], [13.5427545, 63.4294614], [13.5426476, 63.4293916], [13.5427858, 63.4292609], [13.5429365, 63.4291771], [13.5429124, 63.4290726], [13.5429049, 63.4289613], [13.5428502, 63.4288384], [13.5425882, 63.4288056], [13.5424644, 63.4287463], [13.5426711, 63.4285593], [13.5427942, 63.4284176], [13.5428808, 63.4282287], [13.5432334, 63.4278106], [13.5432989, 63.4274778], [13.5429135, 63.4269622], [13.542525, 63.426486], [13.5422793, 63.4263458], [13.541983, 63.4262372], [13.5417245, 63.4261578], [13.5415942, 63.4260804], [13.5415212, 63.4258819], [13.5413819, 63.425711], [13.5412532, 63.4255081], [13.5415242, 63.4253184], [13.5422977, 63.4251616], [13.5427172, 63.4250209], [13.5430786, 63.4249081], [13.543818, 63.4246718], [13.5445099, 63.4243235], [13.5446481, 63.4240887], [13.5454476, 63.4233796], [13.5461774, 63.4228488], [13.5465659, 63.4224851], [13.5461349, 63.4223565], [13.5458888, 63.4225357], [13.5458082, 63.4225417], [13.5456695, 63.4223637], [13.5454955, 63.4223323], [13.5453903, 63.4222409], [13.5453245, 63.4221573], [13.545217, 63.4218865], [13.5449302, 63.4219682], [13.5447373, 63.421976], [13.5447526, 63.4217753], [13.5447879, 63.4216286], [13.544999, 63.4214883], [13.5451797, 63.4214301], [13.5453533, 63.421361], [13.545433, 63.4212617], [13.5452997, 63.4212238], [13.5451782, 63.4211357], [13.5455565, 63.4210088], [13.5457113, 63.4209753], [13.5459592, 63.4209827], [13.5461089, 63.4210173], [13.5462687, 63.4210233], [13.5463829, 63.4209964], [13.5463658, 63.4209063], [13.5462525, 63.4208149], [13.5462624, 63.4206858], [13.546429, 63.4206022], [13.546506, 63.4205388], [13.5466195, 63.4205226], [13.5468064, 63.4205937], [13.5469877, 63.4206324], [13.5471978, 63.4206105], [13.5473722, 63.4205306], [13.54749, 63.420457], [13.5476106, 63.4203476], [13.5476803, 63.4202733], [13.5477603, 63.4201705], [13.5478094, 63.4200528], [13.5477817, 63.4199949], [13.5482305, 63.4199946], [13.5485121, 63.419981], [13.5486026, 63.4199501], [13.5486188, 63.4198427], [13.5487921, 63.4197771], [13.5491064, 63.4197533], [13.5492966, 63.4197813], [13.5496046, 63.4197358], [13.5497817, 63.4196201], [13.5501428, 63.4196148], [13.5503255, 63.4196356], [13.5506289, 63.419651], [13.5509016, 63.419648], [13.5508327, 63.4194998], [13.5508884, 63.4194001], [13.551189, 63.4193473], [13.5513201, 63.419414], [13.5513939, 63.4194976], [13.5515276, 63.4196361], [13.5515456, 63.4197153], [13.5514043, 63.4197814], [13.5512705, 63.4198547], [13.5512624, 63.4199622], [13.5515889, 63.4199888], [13.5517705, 63.4199198], [13.5519846, 63.4198441], [13.5521968, 63.4197935], [13.5524223, 63.419779], [13.552507, 63.4197193], [13.5525259, 63.419576], [13.5525962, 63.4194946], [13.5527143, 63.4194174], [13.5529834, 63.4193569], [13.5531893, 63.4193888], [13.5534932, 63.4193971], [13.5543469, 63.4193419], [13.5544915, 63.419337], [13.5544869, 63.4193979], [13.5544363, 63.4196412], [13.5547454, 63.4195813], [13.5549413, 63.41943], [13.5551515, 63.4194045], [13.5555449, 63.4193962], [13.5558667, 63.4193796], [13.5560571, 63.4192999], [13.5563441, 63.4193187], [13.5564134, 63.4193557], [13.5567931, 63.4194225], [13.5570235, 63.4193435], [13.5573648, 63.4192805], [13.5577015, 63.4192785], [13.5580011, 63.4193441], [13.5583659, 63.4192886], [13.5587087, 63.4192077], [13.5589532, 63.419154], [13.5589094, 63.4189919], [13.5586799, 63.4188484], [13.5586219, 63.4186608], [13.5590084, 63.4184263], [13.5593754, 63.4183421], [13.5592886, 63.4182188], [13.5593138, 63.4180971], [13.5598528, 63.4180695], [13.5600387, 63.4179431], [13.5598558, 63.4178183], [13.559699, 63.4177728], [13.5595867, 63.4175629], [13.5594994, 63.4174467], [13.5593941, 63.4173554], [13.5594492, 63.4172629], [13.5596111, 63.4171362], [13.5598103, 63.4170459], [13.5599911, 63.4170917], [13.5601283, 63.4171836], [13.5602711, 63.4172037], [13.5603886, 63.4171337], [13.5605217, 63.4169634], [13.5605365, 63.4168739], [13.5605251, 63.4168127], [13.5608937, 63.4167071], [13.5611213, 63.4166639], [13.5613961, 63.4165281], [13.5616842, 63.4165326], [13.5617489, 63.4166305], [13.561905, 63.4167908], [13.562072, 63.4168077], [13.5623845, 63.4168089], [13.5628974, 63.4167018], [13.5632142, 63.4166457], [13.563501, 63.4164562], [13.5634539, 63.416337], [13.5633211, 63.4162919], [13.5630885, 63.4161879], [13.56303, 63.4161152], [13.5630778, 63.4160119], [13.5632812, 63.4159719], [13.5634459, 63.4159134], [13.563525, 63.4158213], [13.5634944, 63.4156952], [13.5633072, 63.4156277], [13.5629445, 63.4155504], [13.5626047, 63.4154878], [13.5622353, 63.4153924], [13.5621613, 63.4153123], [13.5622911, 63.4151851], [13.562723, 63.4151953], [13.5630654, 63.4151179], [13.5634881, 63.4150383], [13.5636767, 63.4150878], [13.5640821, 63.4151299], [13.5643015, 63.4150902], [13.5644586, 63.4149203], [13.5645124, 63.414738], [13.5648001, 63.4146419], [13.5650676, 63.414707], [13.5653148, 63.4148292], [13.5655843, 63.4149733], [13.5657093, 63.4151224], [13.5659715, 63.4151515], [13.5662162, 63.4150942], [13.5663618, 63.4149708], [13.5664659, 63.4148647], [13.5665667, 63.4146976], [13.5666211, 63.4145082], [13.5666706, 63.4143833], [13.5667358, 63.4142623], [13.5667986, 63.4141735], [13.5669743, 63.4140757], [13.5674389, 63.4139715], [13.5680449, 63.4137977], [13.5682854, 63.4136901], [13.5683578, 63.4135799], [13.5685108, 63.4134638], [13.5685214, 63.413324], [13.5684161, 63.4130859], [13.5687181, 63.4129465], [13.5690251, 63.4128076], [13.5691767, 63.4127094], [13.5693457, 63.4125935], [13.5694493, 63.4124946], [13.5695153, 63.4123628], [13.5696777, 63.4122289], [13.5698544, 63.4121167], [13.5699111, 63.4120027], [13.5698138, 63.4119115], [13.5697251, 63.4118133], [13.569761, 63.4116559], [13.5697824, 63.4115844], [13.5698871, 63.4114712], [13.5700432, 63.4114197], [13.5702023, 63.4113288], [13.5703421, 63.4112807], [13.5702838, 63.4112044], [13.5702494, 63.4111285], [13.5703698, 63.4110191], [13.5704705, 63.4109596], [13.5706359, 63.4108903], [13.5710674, 63.4108], [13.5713317, 63.4108004], [13.5717305, 63.4108244], [13.5720113, 63.4108179], [13.5721807, 63.4108026], [13.5723065, 63.4107291], [13.5724167, 63.4106482], [13.5725206, 63.4105457], [13.5726191, 63.4104072], [13.5725861, 63.4103134], [13.5725038, 63.4102368], [13.5724669, 63.4100891], [13.5724755, 63.4099743], [13.5725524, 63.4099109], [13.5728373, 63.4098506], [13.5730388, 63.4098357], [13.5732053, 63.4097521], [13.5732534, 63.4096452], [13.5731489, 63.4095431], [13.5730552, 63.4094053], [13.5730864, 63.4093089], [13.5731951, 63.4092495], [13.5733326, 63.4091259], [13.5735857, 63.4090616], [13.5737837, 63.4089856], [13.5740276, 63.4089391], [13.574153, 63.4088692], [13.5742648, 63.4087668], [13.5743135, 63.4086527], [13.5743552, 63.4085241], [13.5743687, 63.4083449], [13.5745512, 63.4080497], [13.574819, 63.4076841], [13.5749253, 63.4075493], [13.5750809, 63.4073974], [13.5753267, 63.4072181], [13.5755023, 63.4071202], [13.5757968, 63.4070385], [13.575907, 63.4069577], [13.5759626, 63.406858], [13.5759067, 63.4067495], [13.5757275, 63.4066822], [13.5755425, 63.406586], [13.5754737, 63.4065419], [13.5754898, 63.4064351], [13.5755675, 63.4063603], [13.575715, 63.4063159], [13.5759073, 63.4063152], [13.5761126, 63.4063542], [13.576286, 63.4063927], [13.5763306, 63.4064109], [13.5765121, 63.4064751], [13.5766169, 63.406466], [13.5766579, 63.4064533], [13.5767815, 63.4064074], [13.5768578, 63.4063512], [13.5768158, 63.4062716], [13.5766553, 63.4061686], [13.5765398, 63.4061059], [13.5763833, 63.4060568], [13.576253, 63.4059795], [13.576209, 63.405925], [13.5762243, 63.4058283], [13.5762625, 63.4057463], [13.5763623, 63.4056976], [13.5765685, 63.4056182], [13.5768294, 63.4055575], [13.5770641, 63.4055252], [13.5773978, 63.4054549], [13.5778838, 63.4053833], [13.5781281, 63.4053295], [13.578301, 63.4052676], [13.5787748, 63.4050379], [13.5790675, 63.4048736], [13.5791137, 63.4047918], [13.5791716, 63.4046758], [13.5791115, 63.4045764], [13.578951, 63.4044861], [13.5787333, 63.4043324], [13.578678, 63.4041262], [13.5790064, 63.4039695], [13.5792039, 63.4038486], [13.5792305, 63.4037107], [13.5791592, 63.4035946], [13.5789359, 63.4034762], [13.5783075, 63.4032582], [13.5779963, 63.4031366], [13.5777732, 63.4030668], [13.5776625, 63.4029429], [13.5777673, 63.4028295], [13.5780317, 63.4026719], [13.5781639, 63.40262], [13.5783484, 63.4024594], [13.5784695, 63.4022906], [13.5786925, 63.4021503], [13.5789807, 63.4020487], [13.5793289, 63.4020001], [13.579635, 63.4019258], [13.5798531, 63.401798], [13.5802089, 63.4015968], [13.5803804, 63.4013964], [13.5804332, 63.4012823], [13.5801508, 63.4010983], [13.5800824, 63.4009446], [13.5801606, 63.4008096], [13.5916745, 63.4066869], [13.6027695, 63.4124924], [13.611602, 63.4172234], [13.6148679, 63.4159465], [13.6474286, 63.4032315], [13.6471403, 63.4030822], [13.6413672, 63.4001625], [13.6415637, 63.4000698], [13.6639994, 63.3899977], [13.6641688, 63.3899191], [13.6756446, 63.3849715], [13.6767522, 63.3844752], [13.7028036, 63.3764746], [13.6956553, 63.367535], [13.7063876, 63.3647906], [13.7108997, 63.3636114], [13.7244766, 63.3602127], [13.7283664, 63.3592324], [13.7299758, 63.3588542], [13.7347191, 63.357835], [13.7404937, 63.3565828], [13.7704882, 63.3500211], [13.7576689, 63.3453007], [13.7662319, 63.3428103], [13.8035776, 63.3503455], [13.8348361, 63.3566232], [13.8372027, 63.3498321], [13.831592, 63.342806], [13.8394207, 63.3380357], [13.8541595, 63.3417578], [13.8576091, 63.3420138], [13.8582437, 63.3465876], [13.8644217, 63.3494406], [13.8722725, 63.3494854], [13.8912256, 63.3483458], [13.9019254, 63.3475372], [13.9020523, 63.347475], [13.9021049, 63.3474624], [13.9024662, 63.3474129], [13.9075156, 63.3463989], [13.9163129, 63.344701], [13.9228934, 63.3433579], [13.9245048, 63.3430352], [13.9276075, 63.342411], [13.9281841, 63.3422916], [13.9315611, 63.3416031], [13.9406777, 63.3397522], [13.9431302, 63.3392635], [13.9453832, 63.3387977], [13.9454352, 63.3387858], [13.9516396, 63.3375401], [13.9591901, 63.3359886], [13.9601965, 63.3357894], [13.9630019, 63.335224], [13.9676178, 63.3343116], [13.9691942, 63.3340063], [13.9736451, 63.3331271], [13.9760858, 63.3326413], [13.9821657, 63.3314355], [13.9846514, 63.3322582], [13.9937805, 63.3288394], [14.0059875, 63.3272891], [14.0086777, 63.3259895], [14.0155758, 63.3238151], [14.0187186, 63.3229294], [14.0327019, 63.3193121], [14.0406291, 63.3164372], [14.0473334, 63.3131762], [14.0512764, 63.3097695], [14.0593125, 63.3067151], [14.0626673, 63.3017993], [14.0642526, 63.3011561], [14.0725844, 63.2975964], [14.0796082, 63.2898655], [14.0883976, 63.2879078], [14.1122116, 63.2826382], [14.1793364, 63.2717997], [14.240141, 63.235125], [14.2719137, 63.2249159], [14.3130549, 63.2305828], [14.3876691, 63.2216447], [14.4055273, 63.2162502], [14.4131765, 63.2171754], [14.4314971, 63.2194547], [14.4577784, 63.2205805], [14.4644209, 63.2207222], [14.470524, 63.2217714], [14.4766762, 63.2222876], [14.4885131, 63.2277114], [14.5119679, 63.2313489], [14.5153807, 63.2318803], [14.5225875, 63.2280823], [14.5385256, 63.2243717], [14.5437307, 63.2231728], [14.5486501, 63.2220263], [14.5704101, 63.218227], [14.5837696, 63.2152281], [14.5998342, 63.2086131], [14.609229, 63.2149454], [14.6125516, 63.2171115], [14.6217725, 63.2231284], [14.6506067, 63.2260648], [14.6523251, 63.2262416], [14.6546936, 63.2239081], [14.6551686, 63.2217307], [14.6554579, 63.2206969], [14.6651546, 63.2227686], [14.6666922, 63.2207259], [14.6776988, 63.2229679], [14.709452, 63.221748], [14.7185942, 63.2223834], [14.7478874, 63.2246197], [14.746417, 63.2254935], [14.7439251, 63.2269688], [14.7354747, 63.2320196], [14.7352272, 63.2321323], [14.7351655, 63.2321803], [14.7351123, 63.2322175], [14.734976, 63.2322397], [14.7348726, 63.2322388], [14.7347525, 63.2322557], [14.7347745, 63.2323007], [14.7348308, 63.2323819], [14.7349033, 63.2324597], [14.7349283, 63.2325281], [14.7348427, 63.2325758], [14.7347528, 63.2326325], [14.7348187, 63.2326779], [14.7348732, 63.232707], [14.7348878, 63.2327377], [14.7348706, 63.2327698], [14.7348217, 63.2327963], [14.7347731, 63.2328156], [14.7347473, 63.2328638], [14.7348289, 63.2329112], [14.7348633, 63.2329456], [14.7348814, 63.2329906], [14.7348599, 63.2330298], [14.7348221, 63.233078], [14.7348363, 63.2331194], [14.7348847, 63.2332005], [14.7349788, 63.2332336], [14.7351007, 63.2332705], [14.7352949, 63.2332919], [14.7354156, 63.2333557], [14.7356002, 63.2334165], [14.7357289, 63.2334803], [14.7358211, 63.2335619], [14.7358812, 63.2336503], [14.735905, 63.2337474], [14.7358135, 63.2338435], [14.7358052, 63.2339492], [14.7357655, 63.2340422], [14.7357228, 63.2341118], [14.7357938, 63.2342254], [14.7359112, 63.2343699], [14.7360044, 63.234525], [14.7360357, 63.2347316], [14.7360928, 63.2347931], [14.7361237, 63.2348167], [14.7362297, 63.2348535], [14.7362576, 63.2349488], [14.7362587, 63.2350188], [14.7362987, 63.2351106], [14.7363001, 63.2351716], [14.7362585, 63.2352161], [14.7361446, 63.2352743], [14.7360036, 63.2353144], [14.7359187, 63.235346], [14.7358034, 63.2353432], [14.7355831, 63.2353754], [14.7354305, 63.2354082], [14.7352936, 63.2354447], [14.7352395, 63.2355017], [14.7351807, 63.2355766], [14.7351566, 63.2356786], [14.7351567, 63.2357719], [14.7351741, 63.2359281], [14.735278, 63.2360169], [14.7352712, 63.2360832], [14.7352323, 63.2361583], [14.735104, 63.2361805], [14.7349533, 63.2361649], [14.7347587, 63.2361543], [14.7346314, 63.2361532], [14.7344831, 63.236177], [14.7343655, 63.2362281], [14.7342003, 63.2362769], [14.734123, 63.2363175], [14.7340209, 63.2363777], [14.7339068, 63.2364413], [14.7338157, 63.2365266], [14.7336586, 63.236667], [14.7335529, 63.2368186], [14.733514, 63.2368918], [14.733452, 63.2369469], [14.7333462, 63.2370017], [14.7333631, 63.2370736], [14.7333723, 63.23714], [14.7333924, 63.2372317], [14.7334298, 63.2372894], [14.733416, 63.2373359], [14.7334803, 63.2374172], [14.7334764, 63.2375123], [14.7335071, 63.2376345], [14.7335362, 63.237703], [14.7335608, 63.2377803], [14.7335935, 63.2378577], [14.7335414, 63.2379613], [14.7334381, 63.238052], [14.7333661, 63.2381572], [14.7333118, 63.2382177], [14.7332405, 63.2382082], [14.7331555, 63.2382433], [14.733189, 63.2382992], [14.7331955, 63.2383352], [14.7330091, 63.2384125], [14.7329019, 63.2385013], [14.7327857, 63.238617], [14.7327206, 63.2386505], [14.7326436, 63.2386821], [14.7324902, 63.2387346], [14.7324517, 63.2387989], [14.7324169, 63.2388686], [14.7323216, 63.2389593], [14.7322238, 63.2390123], [14.7321117, 63.2390293], [14.7318865, 63.2390812], [14.7318166, 63.2391362], [14.7318656, 63.239203], [14.7319263, 63.2392753], [14.7319875, 63.239335], [14.7320088, 63.2393962], [14.7319101, 63.2394725], [14.7317905, 63.2395737], [14.7317032, 63.2396627], [14.7316818, 63.2396984], [14.7316121, 63.2397462], [14.7315585, 63.2397906], [14.731406, 63.2398216], [14.7312811, 63.2398546], [14.7311519, 63.2398984], [14.7311004, 63.2399877], [14.7309347, 63.240049], [14.7307714, 63.2401463], [14.7305824, 63.2402865], [14.7304066, 63.2403516], [14.730295, 63.2403821], [14.7300714, 63.2404154], [14.7300312, 63.240435], [14.729974, 63.2405119], [14.7298649, 63.2405994], [14.7297039, 63.2406904], [14.7293993, 63.2407933], [14.7293061, 63.2408809], [14.7291525, 63.2410023], [14.7288961, 63.2410893], [14.7286129, 63.2411116], [14.7283708, 63.2412847], [14.7281832, 63.2413038], [14.7276846, 63.2413504], [14.7276935, 63.2415119], [14.7277806, 63.2417562], [14.727818, 63.2418873], [14.7276454, 63.2419585], [14.7275417, 63.2419707], [14.7275753, 63.2423081], [14.7275978, 63.2423835], [14.727633, 63.2424177], [14.7275407, 63.2424551], [14.7275073, 63.2425357], [14.7274379, 63.2426287], [14.7275689, 63.2426543], [14.7277083, 63.2426513], [14.7278142, 63.2427396], [14.7278877, 63.2428618], [14.727826, 63.2429675], [14.7276659, 63.2430082], [14.7275087, 63.2431081], [14.7275867, 63.2431981], [14.7276253, 63.2432682], [14.7275642, 63.2433379], [14.7276509, 63.2433885], [14.7278423, 63.2433802], [14.7279376, 63.2433949], [14.7280395, 63.2434832], [14.7282456, 63.2435396], [14.7283483, 63.243583], [14.7283545, 63.2436763], [14.7284122, 63.2437878], [14.7285265, 63.2438546], [14.7286499, 63.2438568], [14.7287527, 63.2438985], [14.7287317, 63.2439594], [14.7288381, 63.2440226], [14.7288925, 63.2440945], [14.7288399, 63.2441392], [14.728751, 63.2442071], [14.7287059, 63.2442787], [14.7287644, 63.2443471], [14.7282311, 63.244756], [14.7215818, 63.2495345], [14.7173848, 63.2526138], [14.7196704, 63.2548095], [14.723842, 63.2588852], [14.7259971, 63.2610802], [14.7261225, 63.2611938], [14.7276735, 63.2626635], [14.7284479, 63.2634612], [14.731353, 63.266312], [14.7267817, 63.2783324], [14.7280755, 63.2786673], [14.7291199, 63.2789044], [14.7299521, 63.2794044], [14.729442, 63.2804701], [14.7293297, 63.2805074], [14.7291582, 63.2805032], [14.7289514, 63.2804737], [14.7287277, 63.2804926], [14.7285039, 63.2805205], [14.7283767, 63.2804985], [14.7283219, 63.2804409], [14.7281909, 63.2804117], [14.7280223, 63.2804685], [14.7279498, 63.2805095], [14.7280004, 63.2805743], [14.7280311, 63.2806426], [14.7279432, 63.2806494], [14.7277834, 63.2806668], [14.727615, 63.280711], [14.7275975, 63.2807989], [14.7275093, 63.2808219], [14.7273792, 63.2807406], [14.7272589, 63.2807779], [14.727217, 63.2808872], [14.7272961, 63.2809234], [14.727335, 63.2809737], [14.7272583, 63.2810237], [14.727047, 63.2810229], [14.72689, 63.280886], [14.7267508, 63.2808639], [14.7265986, 63.2809028], [14.7265893, 63.2809692], [14.7264296, 63.2809776], [14.7262988, 63.2809376], [14.7261555, 63.2809245], [14.7261027, 63.2809728], [14.7261012, 63.2810517], [14.7261677, 63.281122], [14.726218, 63.2812083], [14.7260898, 63.2812401], [14.7260129, 63.2813008], [14.7260713, 63.2813764], [14.7261378, 63.2814448], [14.7263132, 63.281449], [14.7263515, 63.2815371], [14.7263338, 63.2816285], [14.7262208, 63.2817017], [14.7260568, 63.281728], [14.7259278, 63.2818065], [14.7259348, 63.2818549], [14.7260213, 63.2819234], [14.7260958, 63.2819919], [14.725999, 63.2820507], [14.7257914, 63.2820553], [14.7255848, 63.2820169], [14.725489, 63.2820201], [14.7252486, 63.2820839], [14.7250033, 63.2821906], [14.7247355, 63.2822237], [14.7245111, 63.2822803], [14.7243696, 63.2823802], [14.7242441, 63.2824838], [14.7241042, 63.2825013], [14.7239924, 63.282508], [14.723876, 63.2825471], [14.7237511, 63.2826166], [14.7235351, 63.2826463], [14.7233521, 63.2826241], [14.7231603, 63.2826449], [14.7229438, 63.2827069], [14.7225738, 63.282867], [14.7216725, 63.283079], [14.7226981, 63.2841144], [14.7238082, 63.2851628], [14.7286218, 63.2900633], [14.7298269, 63.2905438], [14.732803, 63.2917212], [14.7358191, 63.2929092], [14.7359186, 63.2970637], [14.7361036, 63.3022548], [14.7361834, 63.3097991], [14.7362043, 63.3108049], [14.7402849, 63.3119427], [14.7330347, 63.312493], [14.7311631, 63.3120123], [14.7238054, 63.3090235], [14.7185151, 63.3064124], [14.7165372, 63.3059093], [14.7146514, 63.3056292], [14.7132757, 63.3057184], [14.7138986, 63.3059396], [14.7129672, 63.3059888], [14.7124719, 63.305772], [14.7110864, 63.3057983], [14.7093692, 63.3058385], [14.7080824, 63.3058348], [14.7072139, 63.3056766], [14.7064633, 63.3055269], [14.7055055, 63.3053715], [14.7048354, 63.3052873], [14.7032321, 63.3051896], [14.6993403, 63.3049728], [14.6979639, 63.3048882], [14.6967781, 63.3048219], [14.6958247, 63.3047364], [14.6950224, 63.3046615], [14.6940899, 63.3045583], [14.6926768, 63.3047523], [14.6919895, 63.3052791], [14.6913618, 63.3057642], [14.6908998, 63.3060554], [14.6903986, 63.3062547], [14.6895942, 63.3065298], [14.6889863, 63.3067082], [14.6880438, 63.3068741], [14.6872953, 63.3069935], [14.6864657, 63.3070601], [14.6852495, 63.3071153], [14.6842728, 63.3071713], [14.6832598, 63.3072341], [14.6823203, 63.3073426], [14.6810808, 63.3075375], [14.6799671, 63.3076961], [14.6792813, 63.307836], [14.6783257, 63.3080214], [14.6772515, 63.3082612], [14.6762304, 63.3084028], [14.6741998, 63.3086897], [14.6683659, 63.3107933], [14.6677691, 63.3109843], [14.6661055, 63.3114223], [14.6653329, 63.3116167], [14.6638233, 63.3117817], [14.6630882, 63.3117935], [14.6621417, 63.3118013], [14.6607681, 63.3118097], [14.659928, 63.3115422], [14.6591551, 63.3113633], [14.658002, 63.3111283], [14.6566154, 63.3108548], [14.6547694, 63.3108132], [14.6529101, 63.3111017], [14.6519756, 63.3114093], [14.6512477, 63.3116616], [14.6508728, 63.3118818], [14.6500216, 63.31235], [14.6488583, 63.3124576], [14.6481088, 63.312514], [14.6466227, 63.3125355], [14.6441079, 63.3126085], [14.6424056, 63.3127927], [14.6411264, 63.313274], [14.6394578, 63.3149141], [14.6377482, 63.3156025], [14.6369082, 63.3158553], [14.6346383, 63.3164191], [14.6321259, 63.3170357], [14.632842, 63.3175685], [14.6376255, 63.3206499], [14.6432783, 63.3434927], [14.6477398, 63.3578044], [14.6480263, 63.3588308], [14.6485912, 63.3591771], [14.6466111, 63.3598675], [14.6464938, 63.3604964], [14.6463419, 63.3606655], [14.645296, 63.3607921], [14.6433065, 63.3621913], [14.6390565, 63.3641058], [14.637935, 63.3644775], [14.6358867, 63.3650738], [14.6338247, 63.3661294], [14.6309292, 63.3683097], [14.62826, 63.3704328], [14.6271021, 63.3725739], [14.6264555, 63.3729608], [14.6258315, 63.3732097], [14.6247408, 63.3735942], [14.6206881, 63.3750095], [14.6192295, 63.376095], [14.6190929, 63.3778828], [14.6189425, 63.378217], [14.6184394, 63.3790344], [14.6176197, 63.3798617], [14.6167732, 63.3805667], [14.6157456, 63.3813903], [14.6151952, 63.3818144], [14.6136948, 63.3825568], [14.6123735, 63.3832253], [14.6113597, 63.3836292], [14.610509, 63.3839627], [14.6097686, 63.3841518], [14.6089435, 63.3842612], [14.608218, 63.3843805], [14.6075385, 63.3844553], [14.606882, 63.3845536], [14.6060376, 63.3848315], [14.6054771, 63.3851137], [14.602258, 63.3864801], [14.5995188, 63.3873153], [14.5978952, 63.3877278], [14.5959556, 63.3881295], [14.5946128, 63.3883624], [14.5926683, 63.3886456], [14.591515, 63.3888257], [14.5898725, 63.389186], [14.5882373, 63.3897221], [14.5876069, 63.3900989], [14.5870191, 63.3905298], [14.586797, 63.3909017], [14.5861158, 63.3922811], [14.5858885, 63.3929975], [14.58576, 63.3937592], [14.5857802, 63.3943496], [14.5857439, 63.3948105], [14.5857656, 63.3954942], [14.5858566, 63.3959827], [14.5858444, 63.3964366], [14.5858325, 63.3971811], [14.5857093, 63.3984937], [14.5853443, 63.3995663], [14.5851961, 63.3998669], [14.5849249, 63.4001273], [14.5840561, 63.4005727], [14.5834307, 63.4007539], [14.5804948, 63.4016844], [14.5802314, 63.4018013], [14.579946, 63.4019916], [14.5793011, 63.4025944], [14.5792677, 63.4027951], [14.5792959, 63.4032349], [14.5792308, 63.4035664], [14.5792345, 63.403875], [14.5791177, 63.4041973], [14.5789409, 63.4043667], [14.5787172, 63.4046435], [14.5776902, 63.4050126], [14.5773923, 63.4050701], [14.575654, 63.4053776], [14.5744317, 63.405855], [14.5738376, 63.4060561], [14.5737598, 63.4065634], [14.5724943, 63.4077384], [14.5718731, 63.408343], [14.5699535, 63.4098551], [14.5688834, 63.4103208], [14.5678595, 63.4111473], [14.5677627, 63.4121927], [14.5667994, 63.4129981], [14.566364, 63.4132467], [14.5661737, 63.4133192], [14.5657346, 63.4134117], [14.5649878, 63.413619], [14.5645229, 63.4137742], [14.5630837, 63.4144009], [14.5627623, 63.4145802], [14.5624312, 63.4148169], [14.5620789, 63.4151019], [14.561723, 63.4153708], [14.561266, 63.4156713], [14.5607176, 63.415948], [14.5600875, 63.4162798], [14.5594096, 63.4166005], [14.5587323, 63.4168997], [14.5579532, 63.4172576], [14.5568504, 63.4177301], [14.5563032, 63.4179601], [14.5527444, 63.4192704], [14.5493552, 63.4203884], [14.5478946, 63.4208515], [14.5472733, 63.4210634], [14.5467678, 63.4212834], [14.5465474, 63.4214844], [14.546357, 63.4218364], [14.5460411, 63.4223219], [14.5457801, 63.4227344], [14.5456352, 63.4230527], [14.5455741, 63.4235746], [14.5453533, 63.4241848], [14.5450684, 63.4245953], [14.5448457, 63.4250529], [14.5442954, 63.425488], [14.5435137, 63.4259982], [14.5424446, 63.4266783], [14.5414371, 63.4270251], [14.5401425, 63.4279312], [14.5396717, 63.4282772], [14.5388407, 63.4289126], [14.5385547, 63.4291489], [14.538233, 63.4295734], [14.5377609, 63.4301509], [14.537183, 63.4308658], [14.5368014, 63.4312843], [14.536537, 63.4315801], [14.5363543, 63.4317382], [14.5359923, 63.4319685], [14.535284, 63.4324398], [14.5342241, 63.4330805], [14.5333681, 63.4336349], [14.5327726, 63.4338918], [14.532039, 63.4341924], [14.531383, 63.4344577], [14.5305766, 63.4347756], [14.5300216, 63.4349233], [14.5290903, 63.4350588], [14.5283217, 63.4351365], [14.5277614, 63.4352159], [14.5271973, 63.4353887], [14.5265878, 63.4355934], [14.5257086, 63.4359232], [14.5253278, 63.4363166], [14.5246533, 63.437228], [14.5240899, 63.4378711], [14.5233977, 63.4389188], [14.523012, 63.4396264], [14.522567, 63.4402131], [14.5219685, 63.4407338], [14.521668, 63.440925], [14.5212364, 63.4410882], [14.5210656, 63.4411477], [14.5203892, 63.4413195], [14.5196326, 63.4414887], [14.5185469, 63.4416694], [14.5174606, 63.4418645], [14.5165967, 63.4420113], [14.5156224, 63.4422109], [14.5142154, 63.4425036], [14.5133624, 63.4427725], [14.512645, 63.4429636], [14.5118857, 63.4431975], [14.5110125, 63.4434715], [14.5102517, 63.4436443], [14.5093196, 63.4439825], [14.5088668, 63.4441724], [14.5082284, 63.4444862], [14.5079218, 63.4446289], [14.5074403, 63.444928], [14.5064572, 63.4457217], [14.5054723, 63.4462677], [14.5046114, 63.4467232], [14.5038403, 63.4471382], [14.5021519, 63.4479438], [14.4983636, 63.4495865], [14.4992355, 63.4499546], [14.5020442, 63.4512457], [14.5125086, 63.4558807], [14.5230962, 63.4604357], [14.5289966, 63.4629995], [14.5568551, 63.4747754], [14.5793801, 63.4843416], [14.5831024, 63.4860603], [14.5855021, 63.4878922], [14.5694732, 63.4921601], [14.5622171, 63.494456], [14.5478526, 63.4990791], [14.5519206, 63.5015729], [14.5572601, 63.5041069], [14.560878, 63.5045827], [14.5892493, 63.5083603], [14.5924355, 63.5088087], [14.5789915, 63.5207898], [14.5798925, 63.5397122], [14.5722037, 63.5429143], [14.5779862, 63.548513], [14.5623237, 63.5530154], [14.5450541, 63.558011], [14.5318602, 63.5841402], [14.5315112, 63.5847615], [14.5313446, 63.5850451], [14.5313347, 63.5850575], [14.5382225, 63.5886811], [14.5564789, 63.5810092], [14.5951463, 63.5647296], [14.597488, 63.564814], [14.6118556, 63.5653192], [14.6317725, 63.5661736], [14.6774851, 63.5679271], [14.6904859, 63.5684295], [14.6983586, 63.5574396], [14.7007547, 63.5541489], [14.7122695, 63.5380308], [14.7411411, 63.5496253], [14.7426739, 63.5496857], [14.7461225, 63.5444752], [14.7485642, 63.5441201], [14.7488002, 63.5441664], [14.7487945, 63.5442167], [14.7487406, 63.5442702], [14.748738, 63.5443511], [14.7488486, 63.5444182], [14.7490229, 63.5445054], [14.7492523, 63.544505], [14.7494028, 63.5444539], [14.749595, 63.5443563], [14.7497605, 63.5443375], [14.7497748, 63.5443951], [14.7498567, 63.54448], [14.75009, 63.5444814], [14.7502204, 63.5445594], [14.7503632, 63.5446231], [14.7508616, 63.5443855], [14.7509425, 63.5442441], [14.7512772, 63.544221], [14.7514806, 63.5441522], [14.7520708, 63.5439367], [14.7525497, 63.5438085], [14.7528373, 63.5437474], [14.7530745, 63.5436267], [14.7533312, 63.5435223], [14.7535898, 63.5434897], [14.7540267, 63.5434151], [14.7542575, 63.5433698], [14.7544927, 63.543312], [14.7546283, 63.5432194], [14.7547938, 63.5430749], [14.7548305, 63.5429315], [14.7548231, 63.5427824], [14.7548029, 63.5426548], [14.7547303, 63.5425304], [14.75483, 63.5424322], [14.7551914, 63.5423266], [14.755934, 63.5421264], [14.7566512, 63.542093], [14.7574031, 63.5419826], [14.7583172, 63.5418301], [14.7588037, 63.5417127], [14.7591285, 63.5416176], [14.7593449, 63.5415166], [14.7595396, 63.5412071], [14.7595479, 63.5410706], [14.7594352, 63.5402941], [14.7593234, 63.5398785], [14.7588697, 63.5395885], [14.7585178, 63.5393906], [14.7583724, 63.5392766], [14.7581666, 63.5391694], [14.7579067, 63.5391175], [14.7577159, 63.5390409], [14.7575663, 63.5389359], [14.7570125, 63.5387619], [14.7562144, 63.5385506], [14.7563762, 63.5382642], [14.757228, 63.5379155], [14.7630534, 63.5394789], [14.7707105, 63.5546709], [14.7726355, 63.5580182], [14.7642442, 63.5568505], [14.7678682, 63.5639352], [14.7686765, 63.5655033], [14.7745812, 63.5772294], [14.7825893, 63.5932077], [14.7979012, 63.5888943], [14.8248523, 63.5813862], [14.8637936, 63.5705021], [14.8700262, 63.5724116], [14.8713396, 63.5727514], [14.9040402, 63.5827444], [14.917117, 63.5867413], [14.9331919, 63.5915815], [14.9386686, 63.5932189], [14.9434378, 63.5947021], [14.9440616, 63.5948629], [14.9381027, 63.5975372], [14.9056802, 63.6103654], [14.8971161, 63.6136151], [14.8970147, 63.6136551], [14.8641365, 63.6443994], [14.8635066, 63.6450343], [14.8612441, 63.6472452], [14.8586118, 63.6496712], [14.9364363, 63.6495809], [14.9256012, 63.7039401], [14.9378914, 63.7073849], [14.9394398, 63.7096239], [14.9082196, 63.7180471], [14.902758, 63.7207938], [14.91564, 63.7218722], [14.9169394, 63.7240328], [14.9224966, 63.7340008], [14.9231462, 63.7351203], [14.9491848, 63.7825306], [14.9491782, 63.7827238], [14.9493684, 63.7829238], [14.9495859, 63.7830448], [14.9930957, 63.8070717], [15.019731, 63.8219107], [15.0305897, 63.8254499], [15.0310472, 63.8255597], [15.0338249, 63.826465], [15.0366511, 63.8273813], [15.0566137, 63.8338894], [15.1063758, 63.8502193], [15.1061236, 63.8503732], [15.1058945, 63.8505866], [15.105688, 63.8508396], [15.1052715, 63.8514282], [15.1050046, 63.8517597], [15.1046905, 63.8520549], [15.1044084, 63.8523611], [15.1042122, 63.8527506], [15.1040363, 63.853047], [15.1038533, 63.8533217], [15.1037577, 63.8536404], [15.1039389, 63.8539578], [15.1043654, 63.8542451], [15.1047618, 63.8544783], [15.1048141, 63.8547659], [15.104736, 63.8550596], [15.1045847, 63.8553526], [15.1043591, 63.8556701], [15.1042707, 63.8560103], [15.1041441, 63.8562963], [15.1037722, 63.8564259], [15.1031942, 63.8564351], [15.1026855, 63.8563481], [15.1022127, 63.856186], [15.1016231, 63.8560875], [15.1007545, 63.856044], [15.0999201, 63.8559648], [15.0993139, 63.8558733], [15.0986504, 63.8557921], [15.0980725, 63.8557978], [15.0975459, 63.8559295], [15.0970651, 63.8561299], [15.0966152, 63.8563664], [15.0961841, 63.8565456], [15.0956673, 63.8566416], [15.095171, 63.8566408], [15.0939487, 63.8565008], [15.0932267, 63.8564549], [15.0925512, 63.8564597], [15.0919584, 63.8564329], [15.0915014, 63.8564647], [15.0910336, 63.8565539], [15.0906949, 63.8566693], [15.09045, 63.8568682], [15.0900858, 63.857188], [15.0897381, 63.8575007], [15.0894482, 63.8577961], [15.089297, 63.8580819], [15.0891312, 63.8583317], [15.0890163, 63.8585353], [15.0889854, 63.8586786], [15.0890034, 63.8588223], [15.0891672, 63.8589781], [15.0894726, 63.8590634], [15.0897044, 63.8591552], [15.0898841, 63.8593219], [15.0899805, 63.8595309], [15.0900661, 63.8597973], [15.090224, 63.8600858], [15.0905188, 63.8604079], [15.090752, 63.8606505], [15.0907642, 63.8609234], [15.0908329, 63.861204], [15.0909443, 63.8614418], [15.0911372, 63.8616769], [15.0914215, 63.8618696], [15.0918808, 63.8619706], [15.0922682, 63.8620422], [15.0926007, 63.8620667], [15.0929751, 63.8620665], [15.0933914, 63.8620378], [15.0937739, 63.8620376], [15.094223, 63.8620021], [15.0948607, 63.861936], [15.0952866, 63.8618751], [15.0956419, 63.8619357], [15.0958969, 63.8620564], [15.096313, 63.8622144], [15.0968242, 63.8624307], [15.0972834, 63.8625353], [15.0976524, 63.8626534], [15.0979631, 63.8628033], [15.0983058, 63.8629643], [15.0986507, 63.8630786], [15.0987811, 63.8632556], [15.09867, 63.8633731], [15.0981634, 63.8636019], [15.0977667, 63.8637384], [15.0974432, 63.8638755], [15.0973081, 63.8639856], [15.0972262, 63.8641787], [15.0973499, 63.8643234], [15.0976673, 63.8645057], [15.0980769, 63.8646277], [15.0985122, 63.8647213], [15.098941, 63.8647789], [15.0994044, 63.8647902], [15.0998619, 63.8647511], [15.100375, 63.8647413], [15.1008609, 63.8647958], [15.1012847, 63.8647816], [15.1015225, 63.8647406], [15.1018354, 63.8646608], [15.102101, 63.8645447], [15.1022953, 63.8643849], [15.1024382, 63.8642821], [15.1026925, 63.8642376], [15.1030745, 63.8642482], [15.1036506, 63.8642855], [15.1040884, 63.8643253], [15.1043809, 63.8645181], [15.1045817, 63.8647603], [15.1046534, 63.8649799], [15.104476, 63.8653086], [15.1042603, 63.8655831], [15.1039408, 63.8658136], [15.1036883, 63.8660016], [15.103582, 63.8661945], [15.1033874, 63.8663615], [15.1030317, 63.8664912], [15.1027164, 63.8666248], [15.1025595, 63.8668603], [15.1024436, 63.8670854], [15.1023158, 63.8673966], [15.1021127, 63.8677537], [15.1019355, 63.8680788], [15.1018191, 63.8683147], [15.1015655, 63.8685278], [15.1002363, 63.8687638], [15.0997285, 63.8688347], [15.0991475, 63.8689049], [15.098386, 63.8690059], [15.0974035, 63.8691336], [15.0965284, 63.8692264], [15.0957264, 63.8693234], [15.0952835, 63.8693985], [15.0949525, 63.8695176], [15.0948686, 63.8697573], [15.0946872, 63.869989], [15.0942159, 63.8701536], [15.0937538, 63.8702931], [15.0933068, 63.8704578], [15.0928729, 63.8706944], [15.0924708, 63.8709493], [15.0920689, 63.871197], [15.0915951, 63.8714154], [15.0914422, 63.8715576], [15.091467, 63.8717301], [15.0916886, 63.8718721], [15.0919299, 63.8721183], [15.0922148, 63.8723003], [15.0925118, 63.8723926], [15.0928323, 63.8725067], [15.0928243, 63.8726861], [15.0926519, 63.8729], [15.0925291, 63.8730963], [15.0922504, 63.87332], [15.0918506, 63.873521], [15.0913611, 63.8737249], [15.090807, 63.8739174], [15.0903768, 63.8740715], [15.0900607, 63.8742194], [15.0897494, 63.8742633], [15.0892916, 63.8743059], [15.0888172, 63.8743556], [15.0884113, 63.8745099], [15.0880453, 63.8746825], [15.0876016, 63.8749549], [15.0871853, 63.8751594], [15.0869713, 63.8753908], [15.0867568, 63.875633], [15.0864956, 63.8761906], [15.0863132, 63.8764439], [15.0861321, 63.8766684], [15.0859506, 63.8769001], [15.0858167, 63.8771609], [15.0856032, 63.8773815], [15.0853107, 63.8777307], [15.0850511, 63.8780694], [15.0848302, 63.878272], [15.0843994, 63.8784369], [15.0838251, 63.8785323], [15.0833107, 63.8785636], [15.0826586, 63.8785793], [15.0821703, 63.8785749], [15.0817443, 63.8786321], [15.0813827, 63.8787043], [15.0809313, 63.8787828], [15.0804202, 63.8789218], [15.0799745, 63.8790542], [15.0795451, 63.8791868], [15.0794249, 63.8793221], [15.0792146, 63.879471], [15.0790433, 63.8796561], [15.07889, 63.8798055], [15.0785903, 63.87995], [15.0783723, 63.880088], [15.0781089, 63.8803297], [15.0778616, 63.8805752], [15.0776132, 63.8808457], [15.0774649, 63.8810634], [15.0776029, 63.8812512], [15.0776006, 63.881481], [15.0776094, 63.8818256], [15.0778274, 63.8820465], [15.0784322, 63.882357], [15.0788162, 63.8825076], [15.0790673, 63.8827181], [15.0792451, 63.8829278], [15.0790543, 63.8831846], [15.0789149, 63.8833843], [15.0786808, 63.8835186], [15.0781492, 63.8837472], [15.0776358, 63.8839328], [15.0772916, 63.8841595], [15.0772953, 63.8844359], [15.0772238, 63.8847547], [15.0769762, 63.8850073], [15.0766486, 63.8852269], [15.07618, 63.8853232], [15.0754636, 63.8853168], [15.0746177, 63.8852913], [15.0740576, 63.8852503], [15.0735478, 63.8851776], [15.0730963, 63.8850766], [15.0728039, 63.8848801], [15.072768, 63.8845963], [15.0727162, 63.884305], [15.0721762, 63.8840023], [15.0713727, 63.8837617], [15.0707231, 63.88372], [15.0702843, 63.8836981], [15.0698911, 63.8837484], [15.0695639, 63.8837813], [15.0692169, 63.8838895], [15.0689982, 63.8840418], [15.0687311, 63.884183], [15.0682358, 63.8841498], [15.0672889, 63.8840192], [15.0663627, 63.8839714], [15.0655662, 63.884115], [15.0652076, 63.8842984], [15.0650362, 63.8844835], [15.0650079, 63.8847452], [15.0651559, 63.8850696], [15.0653103, 63.8852541], [15.065646, 63.8853935], [15.065915, 63.8855646], [15.0659812, 63.885899], [15.0661094, 63.8861227], [15.0664693, 63.886266], [15.0672184, 63.8864486], [15.0678446, 63.8866481], [15.0683772, 63.8869329], [15.0688631, 63.8873501], [15.0694577, 63.8875277], [15.0698882, 63.8877326], [15.070065, 63.8879639], [15.0699872, 63.8884191], [15.0698657, 63.888759], [15.0696679, 63.8891664], [15.0694124, 63.8895876], [15.0691342, 63.8897933], [15.0686705, 63.8899578], [15.0680388, 63.8900562], [15.0673057, 63.8900568], [15.0665205, 63.8901251], [15.0659783, 63.8902243], [15.0654184, 63.8903556], [15.0652198, 63.8906015], [15.065018, 63.8909155], [15.0649634, 63.8912165], [15.0651733, 63.8914374], [15.0656494, 63.891535], [15.0661609, 63.8915719], [15.0667224, 63.8915842], [15.0673129, 63.8916757], [15.0677374, 63.8920133], [15.067936, 63.8923023], [15.0682665, 63.8925565], [15.0685112, 63.8927274], [15.0689212, 63.892846], [15.0692601, 63.8929172], [15.0692764, 63.8930968], [15.0690787, 63.8933212], [15.0684931, 63.8934774], [15.0680832, 63.8935347], [15.0674912, 63.8934756], [15.0665606, 63.8933379], [15.065572, 63.8932213], [15.0645333, 63.893133], [15.0640387, 63.8930818], [15.0636128, 63.8931318], [15.0631723, 63.8933217], [15.0627922, 63.8934367], [15.0622934, 63.8934788], [15.061954, 63.8934183], [15.061589, 63.8932068], [15.0609742, 63.8929356], [15.0604654, 63.8926618], [15.0600924, 63.8924466], [15.0597396, 63.892325], [15.0592475, 63.89222], [15.0588435, 63.8921481], [15.0585812, 63.8920058], [15.0583437, 63.8918564], [15.0580322, 63.8917208], [15.0576158, 63.8915663], [15.0572864, 63.8914664], [15.0569931, 63.8914673], [15.0563782, 63.8915514], [15.0555719, 63.8915477], [15.0545034, 63.8914015], [15.0536419, 63.8913578], [15.0531237, 63.8912884], [15.0526538, 63.8912339], [15.0521169, 63.8912182], [15.0516899, 63.8912897], [15.0512075, 63.8913284], [15.050864, 63.8913575], [15.0505915, 63.8914376], [15.0503788, 63.8916331], [15.0500592, 63.8918491], [15.0497582, 63.8920151], [15.0495594, 63.892085], [15.0491508, 63.8921136], [15.0486753, 63.8921774], [15.0481573, 63.8922804], [15.0480157, 63.8925232], [15.0480858, 63.8927679], [15.0483179, 63.893032], [15.0485495, 63.893307], [15.0486859, 63.8935272], [15.0490949, 63.8936673], [15.0494281, 63.8938606], [15.049515, 63.8940947], [15.0497184, 63.894276], [15.0501681, 63.8944165], [15.0507574, 63.8945332], [15.0513732, 63.894607], [15.0522799, 63.8945543], [15.0544925, 63.8939248], [15.0556253, 63.894093], [15.0562785, 63.8940281], [15.0561261, 63.8941873], [15.0561186, 63.8942004], [15.0559275, 63.8944296], [15.0558142, 63.8945443], [15.0555815, 63.8948185], [15.0520426, 63.8987948], [15.0460335, 63.9055238], [15.045042, 63.9066849], [15.0363802, 63.9102807], [15.0274965, 63.9141243], [15.0243737, 63.9154192], [15.0230462, 63.9159713], [15.0210807, 63.9167925], [15.0148745, 63.9193611], [14.9895376, 63.929941], [14.9831274, 63.9324455], [14.9782077, 63.9344557], [14.9722914, 63.9422568], [14.9643189, 63.952953], [14.9622945, 63.9554755], [14.9605283, 63.9577677], [14.9602329, 63.9581424], [14.9580463, 63.9610733], [14.9562483, 63.9635077], [14.9534758, 63.9671311], [14.9506225, 63.9708466], [14.9408509, 63.983599], [14.9402026, 63.9844482], [14.9324923, 63.9946148], [14.9249661, 64.0042673], [14.9144848, 64.0180361], [14.9118103, 64.0215307], [14.9111168, 64.0223968], [14.9103827, 64.0233958], [14.910267, 64.0235367], [14.9090898, 64.025077], [14.9081798, 64.026273], [14.90815, 64.0263227], [14.90786, 64.026769], [14.9078055, 64.0268451], [14.9080315, 64.0269053], [14.9094017, 64.0272589], [14.9111655, 64.0277114], [14.9182236, 64.0295315], [14.9199871, 64.0299841], [14.9288173, 64.0322603], [14.9323013, 64.0331537], [14.9341356, 64.0336289], [14.9447065, 64.0363485], [14.9464226, 64.0367913], [14.948346, 64.0372848], [14.9516647, 64.038141], [14.9534822, 64.038607], [14.9622266, 64.0408601], [14.9640361, 64.0413234], [14.9675894, 64.042238], [14.9694841, 64.0427258], [14.9723007, 64.043456], [14.9746779, 64.0440636], [14.97643, 64.044516], [14.9284446, 64.093998], [14.9163938, 64.1068582], [14.8773827, 64.1070113], [14.8455422, 64.1644705], [14.8337586, 64.183108], [14.8296109, 64.1897003], [14.8201082, 64.2045681], [14.8172681, 64.2090885], [14.8051833, 64.2284262], [14.8038767, 64.2303827], [14.7744225, 64.2770991], [14.7728569, 64.2772975], [14.6847977, 64.2884984], [14.6615219, 64.2900643], [14.6481364, 64.2921404], [14.6441106, 64.2927632], [14.6243362, 64.2958289], [14.523774, 64.3113564], [14.5154311, 64.3126419], [14.4876143, 64.3153067], [14.4663176, 64.3177056], [14.4563591, 64.3188514], [14.3079651, 64.3349937], [14.2569535, 64.3403996], [14.2476874, 64.3466695], [14.2367416, 64.3543993], [14.2255496, 64.3619415], [14.2159728, 64.3680148], [14.1708297, 64.3983287], [14.1451424, 64.392016], [14.1289386, 64.3879923], [14.1266901, 64.3874322], [14.1292311, 64.3724184], [14.1393427, 64.3148775], [14.1447063, 64.2842817], [14.1483205, 64.2584152], [14.1529923, 64.2247605], [14.1571101, 64.1950554], [14.1246988, 64.1624846], [14.1117608, 64.1494779], [14.094968, 64.1325102], [14.0706309, 64.1079599], [14.0534287, 64.0909855], [14.0522222, 64.089792], [14.0265711, 64.0644055], [14.0122467, 64.0502536], [13.9902075, 64.0294066], [13.9675267, 64.0079704], [13.9159294, 64.0157113], [13.8885617, 64.0198483], [13.8424875, 64.0269065], [13.8043514, 64.0327416], [13.7153991, 64.0462899], [13.6613018, 64.0521877], [13.625659, 64.0560268], [13.5376836, 64.0655257], [13.4494389, 64.0734004], [13.378463, 64.0796654], [13.2984838, 64.0873623], [13.2780524, 64.0892392]], [[13.9789233, 63.3342037], [13.9794381, 63.3346481], [13.9795182, 63.3346437], [13.9796164, 63.3346683], [13.9796803, 63.3346691], [13.9800638, 63.3346022], [13.9803133, 63.3345713], [13.9804024, 63.3345509], [13.9804129, 63.3345116], [13.9805174, 63.3343102], [13.9805738, 63.3341763], [13.9806014, 63.3341192], [13.9806182, 63.3341069], [13.9806801, 63.3340736], [13.9807205, 63.3340669], [13.9807996, 63.3340787], [13.9809018, 63.3341033], [13.9809588, 63.3341489], [13.9810078, 63.3343218], [13.981038, 63.3344119], [13.9810721, 63.334441], [13.9811465, 63.3344635], [13.9812731, 63.3344813], [13.9814085, 63.3344866], [13.9815709, 63.3344438], [13.9817701, 63.3343871], [13.9819426, 63.3343122], [13.9820617, 63.3341953], [13.9819252, 63.3342079], [13.9818939, 63.3341985], [13.9818306, 63.3341888], [13.9817508, 63.3341249], [13.9817104, 63.3340688], [13.9815866, 63.3340708], [13.9812297, 63.3340322], [13.9810928, 63.3339874], [13.9810043, 63.333936], [13.9809191, 63.3338936], [13.9808809, 63.3338662], [13.980864, 63.3338176], [13.9809219, 63.333786], [13.981314, 63.3337731], [13.9814388, 63.3337567], [13.9815491, 63.3337169], [13.9814566, 63.3336636], [13.9814223, 63.3336381], [13.9814222, 63.3335771], [13.9814323, 63.3335431], [13.9815228, 63.3335012], [13.9815762, 63.3334786], [13.9816695, 63.3334546], [13.9818077, 63.3334151], [13.9818048, 63.3332716], [13.9816046, 63.3332188], [13.9814101, 63.3332001], [13.9812235, 63.3331852], [13.9811121, 63.3331156], [13.9810445, 63.3330483], [13.9809697, 63.3330312], [13.9809632, 63.3329604], [13.9809547, 63.3329655], [13.9806371, 63.3329763], [13.9805514, 63.3329364], [13.980445, 63.3330586], [13.9804078, 63.3331425], [13.9804189, 63.333218], [13.9805212, 63.3333054], [13.9805946, 63.3334068], [13.9805215, 63.3336786], [13.9804485, 63.3337602], [13.9802967, 63.3338875], [13.9801266, 63.3339894], [13.9800205, 63.3340257], [13.9799561, 63.3340338], [13.9798359, 63.3340395], [13.9794106, 63.3340107], [13.9789233, 63.3342037]], [[13.9790444, 63.3332381], [13.9791114, 63.3332515], [13.9791536, 63.333279], [13.9792757, 63.3333039], [13.9794328, 63.3332825], [13.9795876, 63.3332343], [13.9798592, 63.3331678], [13.9799495, 63.3331294], [13.980046, 63.3330553], [13.9800132, 63.3330064], [13.9798861, 63.3329959], [13.9797141, 63.3330008], [13.9797251, 63.3329543], [13.9797083, 63.3329039], [13.9796732, 63.3328281], [13.9796119, 63.3327878], [13.9793877, 63.3327347], [13.9790444, 63.3332381]], [[14.3261006, 64.2900078], [14.4294316, 64.3001137], [14.4658973, 64.2844758], [14.5683569, 64.2761551], [14.5660667, 64.2743187], [14.5651751, 64.2736393], [14.5637279, 64.2724469], [14.5596352, 64.2692414], [14.507422, 64.2288227], [14.4113229, 64.2347654], [14.3261006, 64.2900078]]], [[[13.4937334, 63.2345681], [13.4938899, 63.2344872], [13.4941324, 63.234385], [13.4943068, 63.2343226], [13.4944485, 63.2342666], [13.4945574, 63.2341487], [13.4947108, 63.2340248], [13.4950453, 63.2338774], [13.5062642, 63.2266601], [13.5074849, 63.2262516], [13.5084512, 63.2261588], [13.5087003, 63.2261393], [13.5092031, 63.225877], [13.5098277, 63.2256925], [13.5105901, 63.2255627], [13.5111367, 63.2254497], [13.5115582, 63.2254065], [13.5119545, 63.225379], [13.5123564, 63.2252834], [13.5150153, 63.2241159], [13.5135954, 63.2200184], [13.5182659, 63.2170656], [13.5236575, 63.2151278], [13.5265355, 63.2140714], [13.5326176, 63.213185], [13.5374484, 63.2127717], [13.539573, 63.2133228], [13.543024, 63.2141793], [13.5498129, 63.2143585], [13.5531292, 63.2150948], [13.5538767, 63.2160357], [13.5543279, 63.2166162], [13.5557998, 63.218481], [13.5576436, 63.2208288], [13.5581666, 63.2214897], [13.5582928, 63.2216533], [13.5582827, 63.221703], [13.5582857, 63.2233228], [13.5657745, 63.2254741], [13.5670734, 63.2264304], [13.5718136, 63.22621], [13.5720217, 63.2268286], [13.5721513, 63.2272415], [13.5732844, 63.2309057], [13.5759879, 63.2399742], [13.5762128, 63.2407055], [13.5786649, 63.2489577], [13.5813908, 63.2581683], [13.5817957, 63.2593823], [13.582392, 63.2614832], [13.5828541, 63.2629495], [13.5835348, 63.2651776], [13.5850362, 63.2701679], [13.5859839, 63.2732591], [13.5711627, 63.2717381], [13.5679466, 63.271434], [13.5644427, 63.2710832], [13.5611186, 63.2707422], [13.5576244, 63.2703794], [13.554598, 63.2700739], [13.537909, 63.2683121], [13.5195429, 63.2664199], [13.5322373, 63.2468072], [13.5162285, 63.2417047], [13.5089021, 63.239405], [13.4965597, 63.2354773], [13.4937334, 63.2345681]]]]}}]}