{"type":"FeatureCollection","meta":{"built":"2026-08-11","threshold":70,"n_zones":61,"note":"Fixed base-habitat zones; the app recolours them by forecast(date)."},"features":[{"type":"Feature","geometry":{"type":"Polygon","coordinates":[[[12.973333,63.388421],[12.984167,63.388421],[12.995,63.388421],[13.005833,63.388421],[13.005833,63.382632],[13.016667,63.382632],[13.016667,63.376842],[13.0275,63.376842],[13.038333,63.376842],[13.049167,63.376842],[13.06,63.376842],[13.06,63.382632],[13.06,63.388421],[13.070833,63.388421],[13.081667,63.388421],[13.081667,63.382632],[13.0925,63.382632],[13.0925,63.376842],[13.103333,63.376842],[13.114167,63.376842],[13.114167,63.371053],[13.125,63.371053],[13.135833,63.371053],[13.135833,63.365263],[13.146667,63.365263],[13.146667,63.359474],[13.1575,63.359474],[13.1575,63.353684],[13.168333,63.353684],[13.168333,63.347895],[13.1575,63.347895],[13.146667,63.347895],[13.135833,63.347895],[13.135833,63.353684],[13.125,63.353684],[13.125,63.347895],[13.114167,63.347895],[13.103333,63.347895],[13.103333,63.353684],[13.0925,63.353684],[13.0925,63.359474],[13.0925,63.365263],[13.081667,63.365263],[13.070833,63.365263],[13.070833,63.371053],[13.06,63.371053],[13.049167,63.371053],[13.038333,63.371053],[13.0275,63.371053],[13.016667,63.371053],[13.005833,63.371053],[13.005833,63.376842],[12.995,63.376842],[12.995,63.382632],[12.984167,63.382632],[12.973333,63.382632],[12.973333,63.388421]]]},"properties":{"id":0,"base":78,"n":42,"area_ha":1461.6,"elev":602,"canopy":0.61,"twi":8.7,"wetness":"frisk mark","type":"Fj\u00e4lln\u00e4ra skog","base_label":"utm\u00e4rkt"}},{"type":"Feature","geometry":{"type":"Polygon","coordinates":[[[13.2225,63.62],[13.233333,63.62],[13.233333,63.614211],[13.233333,63.608421],[13.244167,63.608421],[13.255,63.608421],[13.255,63.602632],[13.244167,63.602632],[13.244167,63.596842],[13.255,63.596842],[13.265833,63.596842],[13.265833,63.591053],[13.276667,63.591053],[13.276667,63.585263],[13.2875,63.585263],[13.298333,63.585263],[13.298333,63.579474],[13.309167,63.579474],[13.309167,63.573684],[13.309167,63.567895],[13.298333,63.567895],[13.298333,63.573684],[13.2875,63.573684],[13.2875,63.567895],[13.276667,63.567895],[13.276667,63.562105],[13.265833,63.562105],[13.265833,63.567895],[13.265833,63.573684],[13.265833,63.579474],[13.255,63.579474],[13.244167,63.579474],[13.244167,63.585263],[13.233333,63.585263],[13.233333,63.579474],[13.233333,63.573684],[13.2225,63.573684],[13.2225,63.579474],[13.211667,63.579474],[13.211667,63.585263],[13.2225,63.585263],[13.2225,63.591053],[13.233333,63.591053],[13.233333,63.596842],[13.2225,63.596842],[13.2225,63.591053],[13.211667,63.591053],[13.211667,63.585263],[13.200833,63.585263],[13.200833,63.591053],[13.19,63.591053],[13.19,63.596842],[13.19,63.602632],[13.200833,63.602632],[13.200833,63.596842],[13.211667,63.596842],[13.211667,63.602632],[13.200833,63.602632],[13.200833,63.608421],[13.211667,63.608421],[13.211667,63.614211],[13.2225,63.614211],[13.2225,63.62]],[[13.233333,63.608421],[13.2225,63.608421],[13.2225,63.602632],[13.233333,63.602632],[13.233333,63.608421]]]},"properties":{"id":1,"base":74,"n":39,"area_ha":1357.2,"elev":621,"canopy":0.64,"twi":8.7,"wetness":"frisk mark","type":"Fj\u00e4lln\u00e4ra skog","base_label":"mycket bra"}},{"type":"Feature","geometry":{"type":"Polygon","coordinates":[[[12.951667,63.272632],[12.9625,63.272632],[12.9625,63.266842],[12.973333,63.266842],[12.984167,63.266842],[12.995,63.266842],[12.995,63.261053],[12.984167,63.261053],[12.973333,63.261053],[12.9625,63.261053],[12.9625,63.255263],[12.9625,63.249474],[12.973333,63.249474],[12.984167,63.249474],[12.984167,63.243684],[12.984167,63.237895],[12.995,63.237895],[13.005833,63.237895],[13.005833,63.232105],[13.016667,63.232105],[13.016667,63.226316],[13.0275,63.226316],[13.038333,63.226316],[13.038333,63.232105],[13.049167,63.232105],[13.06,63.232105],[13.06,63.226316],[13.06,63.220526],[13.06,63.214737],[13.049167,63.214737],[13.038333,63.214737],[13.0275,63.214737],[13.016667,63.214737],[13.005833,63.214737],[12.995,63.214737],[12.995,63.220526],[12.984167,63.220526],[12.984167,63.226316],[12.973333,63.226316],[12.973333,63.232105],[12.973333,63.237895],[12.973333,63.243684],[12.9625,63.243684],[12.951667,63.243684],[12.940833,63.243684],[12.940833,63.249474],[12.93,63.249474],[12.93,63.255263],[12.940833,63.255263],[12.940833,63.261053],[12.940833,63.266842],[12.951667,63.266842],[12.951667,63.272632]],[[13.038333,63.226316],[13.038333,63.220526],[13.049167,63.220526],[13.049167,63.226316],[13.038333,63.226316]]]},"properties":{"id":2,"base":76,"n":37,"area_ha":1287.6,"elev":688,"canopy":0.5,"twi":8.8,"wetness":"frisk mark","type":"Fj\u00e4lln\u00e4ra skog","base_label":"mycket bra"}},{"type":"Feature","geometry":{"type":"Polygon","coordinates":[[[12.8975,63.255263],[12.908333,63.255263],[12.908333,63.249474],[12.908333,63.243684],[12.908333,63.237895],[12.908333,63.232105],[12.919167,63.232105],[12.919167,63.226316],[12.93,63.226316],[12.93,63.220526],[12.940833,63.220526],[12.940833,63.214737],[12.951667,63.214737],[12.9625,63.214737],[12.9625,63.208947],[12.973333,63.208947],[12.984167,63.208947],[12.995,63.208947],[13.005833,63.208947],[13.005833,63.203158],[13.016667,63.203158],[13.016667,63.197368],[13.0275,63.197368],[13.0275,63.191579],[13.038333,63.191579],[13.038333,63.185789],[13.049167,63.185789],[13.06,63.185789],[13.06,63.18],[13.049167,63.18],[13.038333,63.18],[13.0275,63.18],[13.016667,63.18],[13.016667,63.185789],[13.016667,63.191579],[13.005833,63.191579],[12.995,63.191579],[12.995,63.197368],[12.984167,63.197368],[12.973333,63.197368],[12.973333,63.203158],[12.9625,63.203158],[12.951667,63.203158],[12.951667,63.208947],[12.940833,63.208947],[12.93,63.208947],[12.93,63.214737],[12.919167,63.214737],[12.908333,63.214737],[12.908333,63.220526],[12.8975,63.220526],[12.8975,63.226316],[12.886667,63.226316],[12.886667,63.232105],[12.886667,63.237895],[12.886667,63.243684],[12.886667,63.249474],[12.8975,63.249474],[12.8975,63.255263]]]},"properties":{"id":3,"base":85,"n":37,"area_ha":1287.6,"elev":694,"canopy":0.68,"twi":8.5,"wetness":"frisk mark","type":"Granskog","base_label":"utm\u00e4rkt"}},{"type":"Feature","geometry":{"type":"Polygon","coordinates":[[[13.016667,63.434737],[13.0275,63.434737],[13.0275,63.428947],[13.038333,63.428947],[13.038333,63.423158],[13.049167,63.423158],[13.06,63.423158],[13.06,63.417368],[13.070833,63.417368],[13.070833,63.411579],[13.081667,63.411579],[13.081667,63.417368],[13.0925,63.417368],[13.103333,63.417368],[13.103333,63.411579],[13.114167,63.411579],[13.125,63.411579],[13.125,63.417368],[13.135833,63.417368],[13.135833,63.411579],[13.135833,63.405789],[13.125,63.405789],[13.125,63.4],[13.125,63.394211],[13.125,63.388421],[13.114167,63.388421],[13.114167,63.394211],[13.103333,63.394211],[13.103333,63.4],[13.0925,63.4],[13.081667,63.4],[13.070833,63.4],[13.070833,63.405789],[13.06,63.405789],[13.049167,63.405789],[13.038333,63.405789],[13.038333,63.411579],[13.0275,63.411579],[13.016667,63.411579],[13.016667,63.417368],[13.016667,63.423158],[13.016667,63.428947],[13.016667,63.434737]]]},"properties":{"id":4,"base":83,"n":32,"area_ha":1113.6,"elev":687,"canopy":0.57,"twi":8.5,"wetness":"torr mark","type":"Fj\u00e4lln\u00e4ra skog","base_label":"utm\u00e4rkt"}},{"type":"Feature","geometry":{"type":"Polygon","coordinates":[[[12.908333,63.457895],[12.919167,63.457895],[12.919167,63.452105],[12.919167,63.446316],[12.919167,63.440526],[12.919167,63.434737],[12.919167,63.428947],[12.919167,63.423158],[12.919167,63.417368],[12.919167,63.411579],[12.93,63.411579],[12.940833,63.411579],[12.940833,63.405789],[12.951667,63.405789],[12.951667,63.411579],[12.9625,63.411579],[12.9625,63.417368],[12.973333,63.417368],[12.973333,63.411579],[12.984167,63.411579],[12.995,63.411579],[12.995,63.405789],[12.984167,63.405789],[12.984167,63.4],[12.973333,63.4],[12.9625,63.4],[12.951667,63.4],[12.940833,63.4],[12.940833,63.394211],[12.93,63.394211],[12.919167,63.394211],[12.919167,63.4],[12.908333,63.4],[12.908333,63.405789],[12.908333,63.411579],[12.908333,63.417368],[12.908333,63.423158],[12.908333,63.428947],[12.908333,63.434737],[12.908333,63.440526],[12.908333,63.446316],[12.908333,63.452105],[12.908333,63.457895]]]},"properties":{"id":5,"base":81,"n":25,"area_ha":870.0,"elev":663,"canopy":0.49,"twi":8.7,"wetness":"frisk mark","type":"Fj\u00e4lln\u00e4ra skog","base_label":"utm\u00e4rkt"}},{"type":"Feature","geometry":{"type":"Polygon","coordinates":[[[13.103333,63.486842],[13.114167,63.486842],[13.125,63.486842],[13.135833,63.486842],[13.146667,63.486842],[13.146667,63.481053],[13.146667,63.475263],[13.1575,63.475263],[13.168333,63.475263],[13.168333,63.469474],[13.168333,63.463684],[13.168333,63.457895],[13.1575,63.457895],[13.1575,63.452105],[13.146667,63.452105],[13.146667,63.457895],[13.135833,63.457895],[13.135833,63.463684],[13.125,63.463684],[13.125,63.457895],[13.114167,63.457895],[13.103333,63.457895],[13.103333,63.463684],[13.114167,63.463684],[13.114167,63.469474],[13.114167,63.475263],[13.103333,63.475263],[13.103333,63.481053],[13.103333,63.486842]]]},"properties":{"id":6,"base":78,"n":24,"area_ha":835.2,"elev":626,"canopy":0.58,"twi":8.7,"wetness":"frisk mark","type":"Fj\u00e4lln\u00e4ra skog","base_label":"utm\u00e4rkt"}},{"type":"Feature","geometry":{"type":"Polygon","coordinates":[[[13.298333,63.197368],[13.309167,63.197368],[13.32,63.197368],[13.330833,63.197368],[13.330833,63.191579],[13.341667,63.191579],[13.3525,63.191579],[13.363333,63.191579],[13.363333,63.197368],[13.374167,63.197368],[13.374167,63.191579],[13.385,63.191579],[13.385,63.185789],[13.395833,63.185789],[13.395833,63.18],[13.385,63.18],[13.374167,63.18],[13.363333,63.18],[13.3525,63.18],[13.3525,63.185789],[13.341667,63.185789],[13.330833,63.185789],[13.32,63.185789],[13.309167,63.185789],[13.309167,63.18],[13.298333,63.18],[13.2875,63.18],[13.2875,63.185789],[13.2875,63.191579],[13.298333,63.191579],[13.298333,63.197368]]]},"properties":{"id":7,"base":80,"n":19,"area_ha":661.2,"elev":707,"canopy":0.7,"twi":8.3,"wetness":"torr mark","type":"Fj\u00e4lln\u00e4ra skog","base_label":"utm\u00e4rkt"}},{"type":"Feature","geometry":{"type":"Polygon","coordinates":[[[12.886667,63.573684],[12.8975,63.573684],[12.908333,63.573684],[12.908333,63.567895],[12.8975,63.567895],[12.8975,63.562105],[12.908333,63.562105],[12.919167,63.562105],[12.919167,63.556316],[12.908333,63.556316],[12.908333,63.550526],[12.908333,63.544737],[12.908333,63.538947],[12.8975,63.538947],[12.886667,63.538947],[12.886667,63.544737],[12.8975,63.544737],[12.8975,63.550526],[12.8975,63.556316],[12.886667,63.556316],[12.886667,63.562105],[12.875833,63.562105],[12.875833,63.556316],[12.865,63.556316],[12.865,63.550526],[12.854167,63.550526],[12.843333,63.550526],[12.8325,63.550526],[12.8325,63.556316],[12.843333,63.556316],[12.843333,63.562105],[12.854167,63.562105],[12.865,63.562105],[12.865,63.567895],[12.875833,63.567895],[12.886667,63.567895],[12.886667,63.573684]]]},"properties":{"id":8,"base":75,"n":18,"area_ha":626.4,"elev":644,"canopy":0.5,"twi":8.9,"wetness":"frisk mark","type":"Fj\u00e4lln\u00e4ra skog","base_label":"mycket bra"}},{"type":"Feature","geometry":{"type":"Polygon","coordinates":[[[12.865,63.29],[12.875833,63.29],[12.886667,63.29],[12.886667,63.284211],[12.8975,63.284211],[12.8975,63.278421],[12.908333,63.278421],[12.908333,63.272632],[12.908333,63.266842],[12.908333,63.261053],[12.8975,63.261053],[12.8975,63.255263],[12.886667,63.255263],[12.886667,63.261053],[12.875833,63.261053],[12.875833,63.266842],[12.886667,63.266842],[12.8975,63.266842],[12.8975,63.272632],[12.886667,63.272632],[12.886667,63.278421],[12.875833,63.278421],[12.865,63.278421],[12.854167,63.278421],[12.854167,63.284211],[12.865,63.284211],[12.865,63.29]]]},"properties":{"id":9,"base":78,"n":13,"area_ha":452.4,"elev":704,"canopy":0.44,"twi":8.8,"wetness":"frisk mark","type":"Fj\u00e4lln\u00e4ra skog","base_label":"utm\u00e4rkt"}},{"type":"Feature","geometry":{"type":"Polygon","coordinates":[[[12.8,63.237895],[12.810833,63.237895],[12.810833,63.232105],[12.821667,63.232105],[12.821667,63.226316],[12.8325,63.226316],[12.843333,63.226316],[12.843333,63.220526],[12.854167,63.220526],[12.854167,63.214737],[12.865,63.214737],[12.865,63.208947],[12.854167,63.208947],[12.843333,63.208947],[12.8325,63.208947],[12.8325,63.214737],[12.821667,63.214737],[12.821667,63.220526],[12.810833,63.220526],[12.8,63.220526],[12.8,63.226316],[12.8,63.232105],[12.8,63.237895]]]},"properties":{"id":10,"base":78,"n":13,"area_ha":452.4,"elev":743,"canopy":0.77,"twi":8.7,"wetness":"frisk mark","type":"Fj\u00e4lln\u00e4ra skog","base_label":"utm\u00e4rkt"}},{"type":"Feature","geometry":{"type":"Polygon","coordinates":[[[13.179167,63.394211],[13.19,63.394211],[13.200833,63.394211],[13.200833,63.388421],[13.211667,63.388421],[13.211667,63.382632],[13.200833,63.382632],[13.200833,63.376842],[13.19,63.376842],[13.179167,63.376842],[13.179167,63.371053],[13.168333,63.371053],[13.168333,63.376842],[13.1575,63.376842],[13.1575,63.382632],[13.146667,63.382632],[13.146667,63.388421],[13.1575,63.388421],[13.168333,63.388421],[13.179167,63.388421],[13.179167,63.382632],[13.19,63.382632],[13.19,63.388421],[13.179167,63.388421],[13.179167,63.394211]]]},"properties":{"id":11,"base":76,"n":12,"area_ha":417.6,"elev":578,"canopy":0.72,"twi":8.5,"wetness":"frisk mark","type":"Fj\u00e4lln\u00e4ra skog","base_label":"mycket bra"}},{"type":"Feature","geometry":{"type":"Polygon","coordinates":[[[13.168333,63.602632],[13.179167,63.602632],[13.179167,63.596842],[13.179167,63.591053],[13.179167,63.585263],[13.179167,63.579474],[13.168333,63.579474],[13.168333,63.585263],[13.168333,63.591053],[13.1575,63.591053],[13.1575,63.585263],[13.1575,63.579474],[13.146667,63.579474],[13.135833,63.579474],[13.135833,63.585263],[13.135833,63.591053],[13.135833,63.596842],[13.146667,63.596842],[13.1575,63.596842],[13.168333,63.596842],[13.168333,63.602632]]]},"properties":{"id":12,"base":76,"n":11,"area_ha":382.8,"elev":634,"canopy":0.77,"twi":8.5,"wetness":"torr mark","type":"Barrblandskog","base_label":"mycket bra"}},{"type":"Feature","geometry":{"type":"Polygon","coordinates":[[[12.854167,63.544737],[12.865,63.544737],[12.865,63.538947],[12.875833,63.538947],[12.886667,63.538947],[12.886667,63.533158],[12.875833,63.533158],[12.865,63.533158],[12.854167,63.533158],[12.843333,63.533158],[12.8325,63.533158],[12.821667,63.533158],[12.821667,63.527368],[12.810833,63.527368],[12.810833,63.521579],[12.8,63.521579],[12.8,63.527368],[12.8,63.533158],[12.810833,63.533158],[12.810833,63.538947],[12.821667,63.538947],[12.8325,63.538947],[12.843333,63.538947],[12.854167,63.538947],[12.854167,63.544737]]]},"properties":{"id":13,"base":80,"n":11,"area_ha":382.8,"elev":709,"canopy":0.47,"twi":8.7,"wetness":"frisk mark","type":"Fj\u00e4lln\u00e4ra skog","base_label":"utm\u00e4rkt"}},{"type":"Feature","geometry":{"type":"Polygon","coordinates":[[[13.103333,63.533158],[13.114167,63.533158],[13.114167,63.527368],[13.125,63.527368],[13.135833,63.527368],[13.135833,63.521579],[13.146667,63.521579],[13.146667,63.527368],[13.1575,63.527368],[13.1575,63.521579],[13.1575,63.515789],[13.146667,63.515789],[13.146667,63.51],[13.135833,63.51],[13.125,63.51],[13.125,63.515789],[13.114167,63.515789],[13.114167,63.521579],[13.103333,63.521579],[13.103333,63.527368],[13.103333,63.533158]]]},"properties":{"id":14,"base":75,"n":11,"area_ha":382.8,"elev":553,"canopy":0.79,"twi":8.5,"wetness":"torr mark","type":"Barrblandskog","base_label":"mycket bra"}},{"type":"Feature","geometry":{"type":"Polygon","coordinates":[[[13.038333,63.515789],[13.049167,63.515789],[13.06,63.515789],[13.070833,63.515789],[13.070833,63.51],[13.081667,63.51],[13.0925,63.51],[13.0925,63.504211],[13.103333,63.504211],[13.103333,63.498421],[13.114167,63.498421],[13.125,63.498421],[13.125,63.492632],[13.114167,63.492632],[13.103333,63.492632],[13.0925,63.492632],[13.0925,63.498421],[13.081667,63.498421],[13.081667,63.504211],[13.070833,63.504211],[13.06,63.504211],[13.06,63.51],[13.049167,63.51],[13.038333,63.51],[13.038333,63.515789]]]},"properties":{"id":15,"base":76,"n":11,"area_ha":382.8,"elev":488,"canopy":0.63,"twi":8.4,"wetness":"torr mark","type":"Granskog","base_label":"mycket bra"}},{"type":"Feature","geometry":{"type":"Polygon","coordinates":[[[12.865,63.614211],[12.875833,63.614211],[12.886667,63.614211],[12.886667,63.608421],[12.8975,63.608421],[12.8975,63.602632],[12.908333,63.602632],[12.919167,63.602632],[12.919167,63.596842],[12.919167,63.591053],[12.908333,63.591053],[12.8975,63.591053],[12.886667,63.591053],[12.886667,63.596842],[12.886667,63.602632],[12.875833,63.602632],[12.875833,63.608421],[12.865,63.608421],[12.865,63.614211]]]},"properties":{"id":16,"base":77,"n":10,"area_ha":348.0,"elev":595,"canopy":0.55,"twi":8.7,"wetness":"frisk mark","type":"Fj\u00e4lln\u00e4ra skog","base_label":"mycket bra"}},{"type":"Feature","geometry":{"type":"Polygon","coordinates":[[[13.016667,63.353684],[13.0275,63.353684],[13.038333,63.353684],[13.038333,63.347895],[13.038333,63.342105],[13.049167,63.342105],[13.06,63.342105],[13.070833,63.342105],[13.081667,63.342105],[13.081667,63.336316],[13.070833,63.336316],[13.070833,63.330526],[13.06,63.330526],[13.06,63.336316],[13.049167,63.336316],[13.038333,63.336316],[13.0275,63.336316],[13.0275,63.342105],[13.016667,63.342105],[13.016667,63.347895],[13.016667,63.353684]]]},"properties":{"id":17,"base":76,"n":10,"area_ha":348.0,"elev":714,"canopy":0.56,"twi":8.8,"wetness":"frisk mark","type":"Barrblandskog","base_label":"mycket bra"}},{"type":"Feature","geometry":{"type":"Polygon","coordinates":[[[13.374167,63.62],[13.385,63.62],[13.395833,63.62],[13.395833,63.614211],[13.385,63.614211],[13.385,63.608421],[13.385,63.602632],[13.395833,63.602632],[13.395833,63.608421],[13.406667,63.608421],[13.406667,63.602632],[13.406667,63.596842],[13.395833,63.596842],[13.385,63.596842],[13.385,63.591053],[13.374167,63.591053],[13.374167,63.596842],[13.374167,63.602632],[13.374167,63.608421],[13.374167,63.614211],[13.374167,63.62]]]},"properties":{"id":18,"base":75,"n":9,"area_ha":313.2,"elev":584,"canopy":0.33,"twi":9.1,"wetness":"frisk mark","type":"Fj\u00e4lln\u00e4ra skog","base_label":"mycket bra"}},{"type":"Feature","geometry":{"type":"Polygon","coordinates":[[[12.843333,63.596842],[12.854167,63.596842],[12.865,63.596842],[12.875833,63.596842],[12.875833,63.591053],[12.865,63.591053],[12.865,63.585263],[12.875833,63.585263],[12.875833,63.579474],[12.865,63.579474],[12.854167,63.579474],[12.843333,63.579474],[12.843333,63.585263],[12.8325,63.585263],[12.8325,63.591053],[12.843333,63.591053],[12.843333,63.596842]]]},"properties":{"id":19,"base":77,"n":9,"area_ha":313.2,"elev":623,"canopy":0.5,"twi":8.8,"wetness":"frisk mark","type":"Fj\u00e4lln\u00e4ra skog","base_label":"mycket bra"}},{"type":"Feature","geometry":{"type":"Polygon","coordinates":[[[12.8975,63.527368],[12.908333,63.527368],[12.919167,63.527368],[12.919167,63.521579],[12.93,63.521579],[12.93,63.515789],[12.919167,63.515789],[12.919167,63.51],[12.919167,63.504211],[12.908333,63.504211],[12.908333,63.498421],[12.8975,63.498421],[12.8975,63.504211],[12.8975,63.51],[12.8975,63.515789],[12.908333,63.515789],[12.908333,63.521579],[12.8975,63.521579],[12.8975,63.527368]]]},"properties":{"id":20,"base":75,"n":9,"area_ha":313.2,"elev":655,"canopy":0.4,"twi":9.4,"wetness":"frisk mark","type":"Fj\u00e4lln\u00e4ra skog","base_label":"mycket bra"}},{"type":"Feature","geometry":{"type":"Polygon","coordinates":[[[13.395833,63.527368],[13.406667,63.527368],[13.4175,63.527368],[13.428333,63.527368],[13.428333,63.521579],[13.428333,63.515789],[13.428333,63.51],[13.4175,63.51],[13.406667,63.51],[13.395833,63.51],[13.395833,63.515789],[13.385,63.515789],[13.385,63.521579],[13.395833,63.521579],[13.395833,63.527368]],[[13.406667,63.521579],[13.406667,63.515789],[13.4175,63.515789],[13.4175,63.521579],[13.406667,63.521579]]]},"properties":{"id":21,"base":75,"n":9,"area_ha":313.2,"elev":635,"canopy":0.31,"twi":9.2,"wetness":"frisk mark","type":"Fj\u00e4lln\u00e4ra skog","base_label":"mycket bra"}},{"type":"Feature","geometry":{"type":"Polygon","coordinates":[[[13.168333,63.434737],[13.179167,63.434737],[13.19,63.434737],[13.19,63.428947],[13.179167,63.428947],[13.179167,63.423158],[13.179167,63.417368],[13.168333,63.417368],[13.168333,63.411579],[13.1575,63.411579],[13.146667,63.411579],[13.146667,63.417368],[13.135833,63.417368],[13.135833,63.423158],[13.146667,63.423158],[13.1575,63.423158],[13.168333,63.423158],[13.168333,63.428947],[13.168333,63.434737]]]},"properties":{"id":22,"base":74,"n":9,"area_ha":313.2,"elev":709,"canopy":0.45,"twi":9.0,"wetness":"frisk mark","type":"Fj\u00e4lln\u00e4ra skog","base_label":"mycket bra"}},{"type":"Feature","geometry":{"type":"Polygon","coordinates":[[[13.146667,63.29],[13.1575,63.29],[13.168333,63.29],[13.179167,63.29],[13.19,63.29],[13.19,63.284211],[13.200833,63.284211],[13.200833,63.278421],[13.200833,63.272632],[13.19,63.272632],[13.179167,63.272632],[13.179167,63.278421],[13.168333,63.278421],[13.168333,63.284211],[13.1575,63.284211],[13.146667,63.284211],[13.146667,63.29]]]},"properties":{"id":23,"base":75,"n":9,"area_ha":313.2,"elev":640,"canopy":0.82,"twi":8.6,"wetness":"frisk mark","type":"Granskog","base_label":"mycket bra"}},{"type":"Feature","geometry":{"type":"Polygon","coordinates":[[[12.995,63.261053],[13.005833,63.261053],[13.005833,63.255263],[13.016667,63.255263],[13.016667,63.249474],[13.0275,63.249474],[13.0275,63.243684],[13.0275,63.237895],[13.038333,63.237895],[13.038333,63.232105],[13.0275,63.232105],[13.016667,63.232105],[13.016667,63.237895],[13.005833,63.237895],[13.005833,63.243684],[13.005833,63.249474],[12.995,63.249474],[12.995,63.255263],[12.995,63.261053]]]},"properties":{"id":24,"base":76,"n":9,"area_ha":313.2,"elev":679,"canopy":0.39,"twi":9.4,"wetness":"frisk mark","type":"Fj\u00e4lln\u00e4ra skog","base_label":"mycket bra"}},{"type":"Feature","geometry":{"type":"Polygon","coordinates":[[[12.940833,63.492632],[12.951667,63.492632],[12.9625,63.492632],[12.973333,63.492632],[12.984167,63.492632],[12.984167,63.486842],[12.973333,63.486842],[12.973333,63.481053],[12.973333,63.475263],[12.984167,63.475263],[12.984167,63.469474],[12.973333,63.469474],[12.9625,63.469474],[12.9625,63.475263],[12.9625,63.481053],[12.9625,63.486842],[12.951667,63.486842],[12.940833,63.486842],[12.940833,63.492632]]]},"properties":{"id":25,"base":75,"n":8,"area_ha":278.4,"elev":705,"canopy":0.38,"twi":9.3,"wetness":"frisk mark","type":"Fj\u00e4lln\u00e4ra skog","base_label":"mycket bra"}},{"type":"Feature","geometry":{"type":"Polygon","coordinates":[[[12.919167,63.342105],[12.93,63.342105],[12.93,63.336316],[12.940833,63.336316],[12.951667,63.336316],[12.951667,63.330526],[12.9625,63.330526],[12.9625,63.324737],[12.951667,63.324737],[12.951667,63.318947],[12.940833,63.318947],[12.940833,63.324737],[12.940833,63.330526],[12.93,63.330526],[12.93,63.324737],[12.919167,63.324737],[12.919167,63.330526],[12.919167,63.336316],[12.919167,63.342105]]]},"properties":{"id":26,"base":79,"n":8,"area_ha":278.4,"elev":725,"canopy":0.5,"twi":8.5,"wetness":"torr mark","type":"Fj\u00e4lln\u00e4ra skog","base_label":"utm\u00e4rkt"}},{"type":"Feature","geometry":{"type":"Polygon","coordinates":[[[12.908333,63.307368],[12.919167,63.307368],[12.919167,63.301579],[12.919167,63.295789],[12.93,63.295789],[12.93,63.29],[12.940833,63.29],[12.940833,63.284211],[12.951667,63.284211],[12.951667,63.278421],[12.940833,63.278421],[12.93,63.278421],[12.93,63.284211],[12.919167,63.284211],[12.919167,63.29],[12.908333,63.29],[12.908333,63.295789],[12.908333,63.301579],[12.908333,63.307368]]]},"properties":{"id":27,"base":76,"n":8,"area_ha":278.4,"elev":740,"canopy":0.36,"twi":8.9,"wetness":"frisk mark","type":"Fj\u00e4lln\u00e4ra skog","base_label":"mycket bra"}},{"type":"Feature","geometry":{"type":"Polygon","coordinates":[[[13.2875,63.62],[13.298333,63.62],[13.309167,63.62],[13.32,63.62],[13.330833,63.62],[13.330833,63.614211],[13.32,63.614211],[13.32,63.608421],[13.330833,63.608421],[13.330833,63.602632],[13.32,63.602632],[13.309167,63.602632],[13.309167,63.608421],[13.309167,63.614211],[13.298333,63.614211],[13.2875,63.614211],[13.2875,63.62]]]},"properties":{"id":28,"base":76,"n":7,"area_ha":243.6,"elev":566,"canopy":0.69,"twi":8.5,"wetness":"torr mark","type":"Fj\u00e4lln\u00e4ra skog","base_label":"mycket bra"}},{"type":"Feature","geometry":{"type":"Polygon","coordinates":[[[13.168333,63.457895],[13.179167,63.457895],[13.19,63.457895],[13.19,63.452105],[13.200833,63.452105],[13.200833,63.446316],[13.19,63.446316],[13.179167,63.446316],[13.168333,63.446316],[13.168333,63.440526],[13.1575,63.440526],[13.1575,63.446316],[13.1575,63.452105],[13.168333,63.452105],[13.168333,63.457895]]]},"properties":{"id":29,"base":72,"n":7,"area_ha":243.6,"elev":588,"canopy":0.62,"twi":9.3,"wetness":"frisk mark","type":"Fj\u00e4lln\u00e4ra skog","base_label":"mycket bra"}},{"type":"Feature","geometry":{"type":"Polygon","coordinates":[[[13.309167,63.330526],[13.32,63.330526],[13.32,63.324737],[13.330833,63.324737],[13.341667,63.324737],[13.341667,63.318947],[13.341667,63.313158],[13.330833,63.313158],[13.32,63.313158],[13.309167,63.313158],[13.309167,63.318947],[13.309167,63.324737],[13.309167,63.330526]]]},"properties":{"id":30,"base":72,"n":7,"area_ha":243.6,"elev":517,"canopy":0.61,"twi":8.6,"wetness":"frisk mark","type":"Fj\u00e4lln\u00e4ra skog","base_label":"mycket bra"}},{"type":"Feature","geometry":{"type":"Polygon","coordinates":[[[13.125,63.301579],[13.135833,63.301579],[13.135833,63.295789],[13.146667,63.295789],[13.146667,63.29],[13.135833,63.29],[13.125,63.29],[13.125,63.284211],[13.114167,63.284211],[13.103333,63.284211],[13.103333,63.29],[13.103333,63.295789],[13.114167,63.295789],[13.125,63.295789],[13.125,63.301579]]]},"properties":{"id":31,"base":76,"n":7,"area_ha":243.6,"elev":668,"canopy":0.62,"twi":8.7,"wetness":"frisk mark","type":"Fj\u00e4lln\u00e4ra skog","base_label":"mycket bra"}},{"type":"Feature","geometry":{"type":"Polygon","coordinates":[[[12.821667,63.62],[12.8325,63.62],[12.8325,63.614211],[12.8325,63.608421],[12.843333,63.608421],[12.843333,63.602632],[12.843333,63.596842],[12.8325,63.596842],[12.8325,63.602632],[12.821667,63.602632],[12.821667,63.608421],[12.810833,63.608421],[12.810833,63.614211],[12.821667,63.614211],[12.821667,63.62]]]},"properties":{"id":32,"base":74,"n":6,"area_ha":208.8,"elev":635,"canopy":0.34,"twi":9.3,"wetness":"frisk mark","type":"Fj\u00e4lln\u00e4ra skog","base_label":"mycket bra"}},{"type":"Feature","geometry":{"type":"Polygon","coordinates":[[[12.973333,63.533158],[12.984167,63.533158],[12.984167,63.527368],[12.984167,63.521579],[12.995,63.521579],[12.995,63.515789],[12.984167,63.515789],[12.973333,63.515789],[12.973333,63.521579],[12.9625,63.521579],[12.951667,63.521579],[12.951667,63.527368],[12.9625,63.527368],[12.973333,63.527368],[12.973333,63.533158]]]},"properties":{"id":33,"base":75,"n":6,"area_ha":208.8,"elev":575,"canopy":0.43,"twi":8.9,"wetness":"frisk mark","type":"Fj\u00e4lln\u00e4ra skog","base_label":"mycket bra"}},{"type":"Feature","geometry":{"type":"Polygon","coordinates":[[[13.070833,63.481053],[13.081667,63.481053],[13.081667,63.475263],[13.0925,63.475263],[13.0925,63.469474],[13.103333,63.469474],[13.103333,63.463684],[13.0925,63.463684],[13.081667,63.463684],[13.081667,63.469474],[13.070833,63.469474],[13.06,63.469474],[13.06,63.475263],[13.070833,63.475263],[13.070833,63.481053]]]},"properties":{"id":34,"base":82,"n":6,"area_ha":208.8,"elev":690,"canopy":0.56,"twi":8.9,"wetness":"frisk mark","type":"Fj\u00e4lln\u00e4ra skog","base_label":"utm\u00e4rkt"}},{"type":"Feature","geometry":{"type":"Polygon","coordinates":[[[12.973333,63.330526],[12.984167,63.330526],[12.984167,63.324737],[12.984167,63.318947],[12.995,63.318947],[13.005833,63.318947],[13.016667,63.318947],[13.016667,63.313158],[13.005833,63.313158],[12.995,63.313158],[12.984167,63.313158],[12.973333,63.313158],[12.973333,63.318947],[12.973333,63.324737],[12.973333,63.330526]]]},"properties":{"id":35,"base":73,"n":6,"area_ha":208.8,"elev":709,"canopy":0.48,"twi":9.0,"wetness":"frisk mark","type":"Fj\u00e4lln\u00e4ra skog","base_label":"mycket bra"}},{"type":"Feature","geometry":{"type":"Polygon","coordinates":[[[13.049167,63.295789],[13.06,63.295789],[13.06,63.29],[13.070833,63.29],[13.081667,63.29],[13.081667,63.295789],[13.0925,63.295789],[13.0925,63.29],[13.0925,63.284211],[13.081667,63.284211],[13.070833,63.284211],[13.06,63.284211],[13.049167,63.284211],[13.049167,63.29],[13.049167,63.295789]]]},"properties":{"id":36,"base":77,"n":6,"area_ha":208.8,"elev":711,"canopy":0.29,"twi":9.3,"wetness":"frisk mark","type":"Fj\u00e4lln\u00e4ra skog","base_label":"mycket bra"}},{"type":"Feature","geometry":{"type":"Polygon","coordinates":[[[13.0275,63.272632],[13.038333,63.272632],[13.038333,63.266842],[13.049167,63.266842],[13.06,63.266842],[13.06,63.261053],[13.049167,63.261053],[13.038333,63.261053],[13.038333,63.255263],[13.0275,63.255263],[13.0275,63.261053],[13.016667,63.261053],[13.016667,63.266842],[13.0275,63.266842],[13.0275,63.272632]]]},"properties":{"id":37,"base":74,"n":6,"area_ha":208.8,"elev":763,"canopy":0.41,"twi":8.8,"wetness":"frisk mark","type":"Fj\u00e4lln\u00e4ra skog","base_label":"mycket bra"}},{"type":"Feature","geometry":{"type":"Polygon","coordinates":[[[12.865,63.208947],[12.875833,63.208947],[12.875833,63.203158],[12.886667,63.203158],[12.886667,63.197368],[12.886667,63.191579],[12.875833,63.191579],[12.865,63.191579],[12.865,63.197368],[12.854167,63.197368],[12.854167,63.203158],[12.865,63.203158],[12.865,63.208947]]]},"properties":{"id":38,"base":76,"n":6,"area_ha":208.8,"elev":755,"canopy":0.75,"twi":8.7,"wetness":"frisk mark","type":"Granskog","base_label":"mycket bra"}},{"type":"Feature","geometry":{"type":"Polygon","coordinates":[[[12.8,63.573684],[12.810833,63.573684],[12.810833,63.567895],[12.821667,63.567895],[12.821667,63.562105],[12.8325,63.562105],[12.8325,63.556316],[12.821667,63.556316],[12.810833,63.556316],[12.810833,63.562105],[12.8,63.562105],[12.8,63.567895],[12.8,63.573684]]]},"properties":{"id":39,"base":77,"n":5,"area_ha":174.0,"elev":628,"canopy":0.33,"twi":9.1,"wetness":"frisk mark","type":"Fj\u00e4lln\u00e4ra skog","base_label":"mycket bra"}},{"type":"Feature","geometry":{"type":"Polygon","coordinates":[[[12.875833,63.481053],[12.886667,63.481053],[12.886667,63.475263],[12.886667,63.469474],[12.886667,63.463684],[12.875833,63.463684],[12.865,63.463684],[12.865,63.469474],[12.865,63.475263],[12.875833,63.475263],[12.875833,63.481053]]]},"properties":{"id":40,"base":76,"n":5,"area_ha":174.0,"elev":742,"canopy":0.47,"twi":8.9,"wetness":"frisk mark","type":"Fj\u00e4lln\u00e4ra skog","base_label":"mycket bra"}},{"type":"Feature","geometry":{"type":"Polygon","coordinates":[[[12.995,63.434737],[13.005833,63.434737],[13.005833,63.428947],[13.005833,63.423158],[13.005833,63.417368],[13.005833,63.411579],[12.995,63.411579],[12.995,63.417368],[12.984167,63.417368],[12.984167,63.423158],[12.995,63.423158],[12.995,63.428947],[12.995,63.434737]]]},"properties":{"id":41,"base":73,"n":5,"area_ha":174.0,"elev":686,"canopy":0.29,"twi":9.5,"wetness":"frisk mark","type":"Fj\u00e4lln\u00e4ra skog","base_label":"mycket bra"}},{"type":"Feature","geometry":{"type":"Polygon","coordinates":[[[12.8,63.261053],[12.810833,63.261053],[12.810833,63.255263],[12.821667,63.255263],[12.8325,63.255263],[12.843333,63.255263],[12.843333,63.249474],[12.8325,63.249474],[12.821667,63.249474],[12.810833,63.249474],[12.8,63.249474],[12.8,63.255263],[12.8,63.261053]]]},"properties":{"id":42,"base":78,"n":5,"area_ha":174.0,"elev":693,"canopy":0.68,"twi":8.8,"wetness":"frisk mark","type":"Fj\u00e4lln\u00e4ra skog","base_label":"utm\u00e4rkt"}},{"type":"Feature","geometry":{"type":"Polygon","coordinates":[[[12.8325,63.203158],[12.843333,63.203158],[12.843333,63.197368],[12.854167,63.197368],[12.854167,63.191579],[12.854167,63.185789],[12.843333,63.185789],[12.843333,63.191579],[12.8325,63.191579],[12.821667,63.191579],[12.821667,63.197368],[12.8325,63.197368],[12.8325,63.203158]]]},"properties":{"id":43,"base":78,"n":5,"area_ha":174.0,"elev":687,"canopy":0.57,"twi":8.7,"wetness":"frisk mark","type":"Fj\u00e4lln\u00e4ra skog","base_label":"utm\u00e4rkt"}},{"type":"Feature","geometry":{"type":"Polygon","coordinates":[[[13.19,63.556316],[13.200833,63.556316],[13.200833,63.550526],[13.211667,63.550526],[13.211667,63.544737],[13.211667,63.538947],[13.200833,63.538947],[13.200833,63.544737],[13.19,63.544737],[13.19,63.550526],[13.19,63.556316]]]},"properties":{"id":44,"base":73,"n":4,"area_ha":139.2,"elev":732,"canopy":0.42,"twi":8.9,"wetness":"frisk mark","type":"Fj\u00e4lln\u00e4ra skog","base_label":"mycket bra"}},{"type":"Feature","geometry":{"type":"Polygon","coordinates":[[[12.995,63.527368],[13.005833,63.527368],[13.016667,63.527368],[13.0275,63.527368],[13.0275,63.521579],[13.016667,63.521579],[13.016667,63.515789],[13.005833,63.515789],[13.005833,63.521579],[12.995,63.521579],[12.995,63.527368]]]},"properties":{"id":45,"base":76,"n":4,"area_ha":139.2,"elev":523,"canopy":0.77,"twi":8.4,"wetness":"torr mark","type":"Granskog","base_label":"mycket bra"}},{"type":"Feature","geometry":{"type":"Polygon","coordinates":[[[12.8,63.515789],[12.810833,63.515789],[12.810833,63.51],[12.821667,63.51],[12.821667,63.504211],[12.821667,63.498421],[12.810833,63.498421],[12.810833,63.504211],[12.8,63.504211],[12.8,63.51],[12.8,63.515789]]]},"properties":{"id":46,"base":78,"n":4,"area_ha":139.2,"elev":716,"canopy":0.64,"twi":9.4,"wetness":"frisk mark","type":"Barrblandskog","base_label":"utm\u00e4rkt"}},{"type":"Feature","geometry":{"type":"Polygon","coordinates":[[[12.821667,63.498421],[12.8325,63.498421],[12.843333,63.498421],[12.843333,63.492632],[12.854167,63.492632],[12.854167,63.486842],[12.843333,63.486842],[12.8325,63.486842],[12.8325,63.492632],[12.821667,63.492632],[12.821667,63.498421]]]},"properties":{"id":47,"base":78,"n":4,"area_ha":139.2,"elev":725,"canopy":0.54,"twi":9.1,"wetness":"frisk mark","type":"Barrblandskog","base_label":"utm\u00e4rkt"}},{"type":"Feature","geometry":{"type":"Polygon","coordinates":[[[13.0275,63.486842],[13.038333,63.486842],[13.049167,63.486842],[13.06,63.486842],[13.06,63.481053],[13.06,63.475263],[13.049167,63.475263],[13.049167,63.481053],[13.038333,63.481053],[13.0275,63.481053],[13.0275,63.486842]]]},"properties":{"id":48,"base":74,"n":4,"area_ha":139.2,"elev":672,"canopy":0.85,"twi":8.8,"wetness":"frisk mark","type":"Granskog","base_label":"mycket bra"}},{"type":"Feature","geometry":{"type":"Polygon","coordinates":[[[13.200833,63.428947],[13.211667,63.428947],[13.2225,63.428947],[13.2225,63.423158],[13.2225,63.417368],[13.211667,63.417368],[13.200833,63.417368],[13.200833,63.423158],[13.200833,63.428947]]]},"properties":{"id":49,"base":73,"n":4,"area_ha":139.2,"elev":600,"canopy":0.76,"twi":8.6,"wetness":"frisk mark","type":"Fj\u00e4lln\u00e4ra skog","base_label":"mycket bra"}},{"type":"Feature","geometry":{"type":"Polygon","coordinates":[[[13.395833,63.382632],[13.406667,63.382632],[13.4175,63.382632],[13.4175,63.376842],[13.4175,63.371053],[13.406667,63.371053],[13.395833,63.371053],[13.395833,63.376842],[13.395833,63.382632]]]},"properties":{"id":50,"base":74,"n":4,"area_ha":139.2,"elev":484,"canopy":0.48,"twi":8.7,"wetness":"frisk mark","type":"Barrblandskog","base_label":"mycket bra"}},{"type":"Feature","geometry":{"type":"Polygon","coordinates":[[[12.995,63.307368],[13.005833,63.307368],[13.016667,63.307368],[13.016667,63.301579],[13.005833,63.301579],[13.005833,63.295789],[12.995,63.295789],[12.984167,63.295789],[12.984167,63.301579],[12.995,63.301579],[12.995,63.307368]]]},"properties":{"id":51,"base":74,"n":4,"area_ha":139.2,"elev":749,"canopy":0.46,"twi":8.8,"wetness":"frisk mark","type":"Fj\u00e4lln\u00e4ra skog","base_label":"mycket bra"}},{"type":"Feature","geometry":{"type":"Polygon","coordinates":[[[13.309167,63.567895],[13.32,63.567895],[13.32,63.562105],[13.32,63.556316],[13.32,63.550526],[13.309167,63.550526],[13.309167,63.556316],[13.309167,63.562105],[13.309167,63.567895]]]},"properties":{"id":52,"base":74,"n":3,"area_ha":104.4,"elev":575,"canopy":0.61,"twi":8.8,"wetness":"frisk mark","type":"Fj\u00e4lln\u00e4ra skog","base_label":"mycket bra"}},{"type":"Feature","geometry":{"type":"Polygon","coordinates":[[[12.875833,63.556316],[12.886667,63.556316],[12.886667,63.550526],[12.886667,63.544737],[12.875833,63.544737],[12.865,63.544737],[12.865,63.550526],[12.875833,63.550526],[12.875833,63.556316]]]},"properties":{"id":53,"base":78,"n":3,"area_ha":104.4,"elev":707,"canopy":0.31,"twi":8.8,"wetness":"frisk mark","type":"Fj\u00e4lln\u00e4ra skog","base_label":"utm\u00e4rkt"}},{"type":"Feature","geometry":{"type":"Polygon","coordinates":[[[13.32,63.51],[13.330833,63.51],[13.330833,63.504211],[13.330833,63.498421],[13.32,63.498421],[13.309167,63.498421],[13.309167,63.504211],[13.32,63.504211],[13.32,63.51]]]},"properties":{"id":54,"base":73,"n":3,"area_ha":104.4,"elev":577,"canopy":0.71,"twi":8.7,"wetness":"frisk mark","type":"L\u00f6vskog","base_label":"mycket bra"}},{"type":"Feature","geometry":{"type":"Polygon","coordinates":[[[12.919167,63.492632],[12.93,63.492632],[12.93,63.486842],[12.940833,63.486842],[12.940833,63.481053],[12.93,63.481053],[12.919167,63.481053],[12.919167,63.486842],[12.919167,63.492632]]]},"properties":{"id":55,"base":73,"n":3,"area_ha":104.4,"elev":754,"canopy":0.16,"twi":9.6,"wetness":"frisk mark","type":"Fj\u00e4lln\u00e4ra skog","base_label":"mycket bra"}},{"type":"Feature","geometry":{"type":"Polygon","coordinates":[[[12.886667,63.382632],[12.8975,63.382632],[12.908333,63.382632],[12.908333,63.376842],[12.908333,63.371053],[12.8975,63.371053],[12.8975,63.376842],[12.886667,63.376842],[12.886667,63.382632]]]},"properties":{"id":56,"base":78,"n":3,"area_ha":104.4,"elev":575,"canopy":0.72,"twi":8.5,"wetness":"torr mark","type":"Granskog","base_label":"utm\u00e4rkt"}},{"type":"Feature","geometry":{"type":"Polygon","coordinates":[[[12.9625,63.347895],[12.973333,63.347895],[12.984167,63.347895],[12.995,63.347895],[12.995,63.342105],[12.984167,63.342105],[12.973333,63.342105],[12.9625,63.342105],[12.9625,63.347895]]]},"properties":{"id":57,"base":71,"n":3,"area_ha":104.4,"elev":647,"canopy":0.64,"twi":8.9,"wetness":"frisk mark","type":"Fj\u00e4lln\u00e4ra skog","base_label":"mycket bra"}},{"type":"Feature","geometry":{"type":"Polygon","coordinates":[[[13.016667,63.29],[13.0275,63.29],[13.038333,63.29],[13.038333,63.284211],[13.0275,63.284211],[13.0275,63.278421],[13.016667,63.278421],[13.016667,63.284211],[13.016667,63.29]]]},"properties":{"id":58,"base":74,"n":3,"area_ha":104.4,"elev":725,"canopy":0.31,"twi":9.4,"wetness":"frisk mark","type":"Fj\u00e4lln\u00e4ra skog","base_label":"mycket bra"}},{"type":"Feature","geometry":{"type":"Polygon","coordinates":[[[12.843333,63.249474],[12.854167,63.249474],[12.865,63.249474],[12.875833,63.249474],[12.875833,63.243684],[12.865,63.243684],[12.854167,63.243684],[12.843333,63.243684],[12.843333,63.249474]]]},"properties":{"id":59,"base":81,"n":3,"area_ha":104.4,"elev":822,"canopy":0.18,"twi":9.1,"wetness":"frisk mark","type":"Fj\u00e4lln\u00e4ra skog","base_label":"utm\u00e4rkt"}},{"type":"Feature","geometry":{"type":"Polygon","coordinates":[[[13.233333,63.185789],[13.244167,63.185789],[13.255,63.185789],[13.265833,63.185789],[13.265833,63.18],[13.255,63.18],[13.244167,63.18],[13.233333,63.18],[13.233333,63.185789]]]},"properties":{"id":60,"base":73,"n":3,"area_ha":104.4,"elev":596,"canopy":0.95,"twi":8.3,"wetness":"torr mark","type":"Granskog","base_label":"mycket bra"}}]}